"id";"name";"city_name";"geometry_name";"post_code";"phone";"email";"website";"vkontakte";"instagram";"lon";"lat";"category";"subcategory"
"1";"ГЭС-2, дом культуры";"Москва";"Болотная набережная, 15 к1";"119072";="";"";"http://v-a-c.org/";"https://vk.com/2ges2";"";"37.613148";"55.742628";"Досуг / Развлечения / Общественное питание";"Дома / дворцы культуры, Художественные выставки / Галереи"
"2";"Зил, культурный центр";"Москва";"Восточная, 4 к1";"115280";="+74956751636";"";"http://zilcc.ru";"https://vk.com/zilcc";"";"37.657885";"55.714581";"Досуг / Развлечения / Общественное питание";"Дома / дворцы культуры"
"3";"Центральный дом культуры железнодорожников";"Москва";"Комсомольская площадь, 4";"107140";="+74992623110, +74992627656, +74992662938, +74992661227, +79175137451";"";"http://cdkg.ru";"https://vk.com/tkz.cdkg";"";"37.658556";"55.775684";"Досуг / Развлечения / Общественное питание";"Дома / дворцы культуры"
"4";"Щукино, центр культуры и искусств";"Москва";"Маршала Малиновского, 7";"123298";="+74997280278";"";"http://c-s-h.ru";"https://vk.com/shchukinocc";"";"37.492681";"55.791112";"Досуг / Развлечения / Общественное питание";"Дома / дворцы культуры"
"5";"Рассвет, дом культуры";"Москва";"Столярный переулок, 3 к15";"123022";="+79104523796, +79646242939";"";"http://dkrassvet.space";"";"";"37.568129";"55.764487";"Досуг / Развлечения / Общественное питание";"Дома / дворцы культуры"
"6";"Переделкино, дом творчества писателей";"пос. ДСК "Мичуринец"";"Погодина, 4 к2";"108816";="+74994600940";"";"http://pro-peredelkino.org";"https://vk.com/peredelkino_dt";"";"37.333922";"55.657046";"Досуг / Развлечения / Общественное питание";"Дома / дворцы культуры"
"7";"Центральный дом ученых РАН";"Москва";"улица Пречистенка, 16/2";"119034";="+74956374555, +74997669594";"";"http://cduran.ru";"";"";"37.596752";"55.743294";"Досуг / Развлечения / Общественное питание";"Дома / дворцы культуры, Интересные здания"
"8";"Культурный центр им. И.М. Астахова";"Москва";"Люблинская улица, 149";"109382";="+74953515903, +74953515984, +74953515971, +74953515902";"";"http://астахова.окцювао.рф";"https://vk.com/ccart.moscow";"";"37.742725";"55.6634";"Досуг / Развлечения / Общественное питание";"Дома / дворцы культуры"
"9";"Салют, культурный центр";"Москва";"улица Свободы, 37";"125362";="+74994970400, +74959480205, +74994926121";"";"";"https://vk.com/club43904814";"";"37.454385";"55.840654";"Досуг / Развлечения / Общественное питание";"Дома / дворцы культуры"
"10";"Центральный дом архитектора";"Москва";"Гранатный переулок, 7";"123001";="+74956902750, +74956914976";"";"http://www.domarch.info";"";"";"37.590392";"55.759547";"Досуг / Развлечения / Общественное питание";"Дома / дворцы культуры, Интересные здания"
"11";"Подмосковье, дворец культуры";"Красногорск";"улица Ленина, 3";"143404";="+74955630894, +74955638935, +74955638917, +74955638874";"";"http://dkpodmoskovie.ru";"";"";"37.319179";"55.823669";"Досуг / Развлечения / Общественное питание";"Дома / дворцы культуры"
"12";"Зеленоград, культурный центр";"Зеленоград";"Центральная площадь, 1";"124482";="+74997343171, +74997346389, +74997624420";"";"http://www.dkzelenograd.ru";"https://vk.com/club17710299";"";"37.219771";"55.989904";"Досуг / Развлечения / Общественное питание";"Дома / дворцы культуры, Интересные здания"
"13";"Дворец культуры";"Москва";"улица Мельникова, 7 ст1";"109044";="+74956746750, +74956740390";"";"";"";"";"37.673168";"55.726125";"Досуг / Развлечения / Общественное питание";"Дома / дворцы культуры, Интересные здания"
"14";"Гайдаровец, дом культуры";"Москва";"Земляной Вал улица, 27 ст3";"105064";="+79164551431, +74959161313";"";"http://okccao.ru";"https://vk.com/dkgaidarovec";"";"37.658728";"55.759177";"Досуг / Развлечения / Общественное питание";"Дома / дворцы культуры"
"15";"Яуза, Мытищинский дворец культуры";"Мытищи";"Мира, 2а";"141002";="+74955868021, +74955867367, +74955868043";"";"http://дк-яуза.рф";"https://vk.com/mdkjauza";"";"37.742688";"55.908518";"Досуг / Развлечения / Общественное питание";"Дома / дворцы культуры, Концертные залы, Аренда площадок для культурно-массовых мероприятий, Конференц-залы / Переговорные комнаты"
"16";"Дворец культуры, РУТ";"Москва";"Новосущёвский переулок, 6";"127018";="+74999724428, +74956842114, +74956842317";"";"http://www.dkmiit.ru";"https://vk.com/dkrutmiit";"";"37.60551";"55.789896";"Досуг / Развлечения / Общественное питание";"Дома / дворцы культуры"
"17";"Центральный Дворец культуры им. М.И. Калинина";"Королёв";"Терешковой, 1";"141070";="";"";"http://www.cdk-kalinina.ru";"https://vk.com/cdkkalinina";"";"37.814304";"55.918477";"Досуг / Развлечения / Общественное питание";"Дома / дворцы культуры"
"18";"Родина, дворец культуры";"Химки";"Ленинский проспект, 2а";"141401";="+74955722038, +74955726615, +74955728258";"";"http://www.dk-rodina.ru";"https://vk.com/club38805262";"";"37.454791";"55.895243";"Досуг / Развлечения / Общественное питание";"Дома / дворцы культуры"
"19";"Балашиха, дворец культуры";"Балашиха";"Московский проезд, 9";"143903";="+74955216114, +74955216522, +74955216425, +74955213623";"";"http://dkbalashiha.ru";"https://vk.com/clubdkbalashicha";"";"37.979675";"55.808371";"Досуг / Развлечения / Общественное питание";"Дома / дворцы культуры"
"20";"Красный Октябрь, дворец культуры";"Москва";"Вишнёвая улица, 7";"125362";="";"";"";"";"";"37.44632";"55.829607";"Досуг / Развлечения / Общественное питание";"Дома / дворцы культуры"
"21";"Нагорный, дом культуры";"Москва";"Электролитный проезд, 3 к1";"115230";="+74993170472, +74993176545";"";"http://dknagorniy.ru";"https://vk.com/club54003437";"";"37.620882";"55.673432";"Досуг / Развлечения / Общественное питание";"Дома / дворцы культуры"
"22";"Центральный Дом журналиста";"Москва";"Никитский бульвар, 8а";"119019";="+74956915698, +74956912474, +74956956797, +79250988640";"";"http://domjour.ru";"https://vk.com/domjour";"";"37.601478";"55.753929";"Досуг / Развлечения / Общественное питание";"Дома / дворцы культуры"
"23";"Жуковский, дворец культуры";"Жуковский";"улица Фрунзе, 28";"140181";="+74984847345, +74984847381, +74984847310";"";"http://жукдк.рф";"";"";"38.119313";"55.597989";"Досуг / Развлечения / Общественное питание";"Дома / дворцы культуры, Интересные здания"
"24";"Московский, дворец культуры";"Московский";"1-й микрорайон, 49";"108811";="+74958418994, +74958410823";"";"http://dkmsk.ru";"https://vk.com/dkmsk1988";"";"37.346211";"55.602116";"Досуг / Развлечения / Общественное питание";"Дома / дворцы культуры, Концертные залы"
"25";"Дом культуры ВДНХ";"Москва";"проспект Мира (ВДНХ), 119 ст84";"129223";="+74955443400";"";"http://vdnh.ru/places/dom-kultury-vdnkh-stroenie-84";"https://vk.com/vdnh";"";"37.634469";"55.833304";"Досуг / Развлечения / Общественное питание";"Дома / дворцы культуры, Интересные здания"
"26";"Москвич, культурный центр";"Москва";"Волгоградский проспект, 46/15";"109316";="+74991783606";"";"http://mskcc.ru";"https://vk.com/moskvichcc";"";"37.73233";"55.708207";"Досуг / Развлечения / Общественное питание";"Дома / дворцы культуры"
"27";"Онежский, дом культуры";"Москва";"Флотская, 25";"125413";="+74954544444, +74954539241";"";"";"https://vk.com/c.c.onegskiy";"";"37.513296";"55.861527";"Досуг / Развлечения / Общественное питание";"Дома / дворцы культуры"
"28";"Братеево, культурный центр";"Москва";"Братеевская, 16 к3";"115408";="+74953406367, +74953419582";"";"http://kcbrateevo.ru";"";"";"37.766591";"55.63335";"Досуг / Развлечения / Общественное питание";"Дома / дворцы культуры"
"29";"Дом культуры, МЭИ";"Москва";"Энергетический проезд, 3 ст1";"111116";="+74953627522, +74953627530";"";"http://dk.mpei.ru";"";"";"37.708269";"55.757187";"Досуг / Развлечения / Общественное питание";"Дома / дворцы культуры"
"30";"Капотня, дворец культуры";"Москва";"Капотня 2-й квартал, 20а";"109429";="+74953551774, +74953551938";"";"http://www.дккапотня.окцювао.рф";"https://vk.com/dkkapotnya";"";"37.798864";"55.637892";"Досуг / Развлечения / Общественное питание";"Дома / дворцы культуры, Интересные здания"
"31";"Берендей, дом культуры";"Москва";"проспект Маршала Жукова, 76";"123103";="+74959470664";"";"http://dkberendey.ru";"https://vk.com/dkberendey";"";"37.451727";"55.779809";"Досуг / Развлечения / Общественное питание";"Дома / дворцы культуры"
"32";"Созидатель, дом культуры";"Москва";"Розанова, 8 ст1";"123007";="+74959410117";"";"";"";"";"37.539343";"55.772234";"Досуг / Развлечения / Общественное питание";"Дома / дворцы культуры"
"33";"Рублево, культурный центр";"Москва";"улица Василия Ботылёва, 43";"121500";="+74997273887, +74997271874, +74997271873";"";"http://www.рублево-арт.рф";"https://vk.com/dk_rublevo";"";"37.353643";"55.790039";"Досуг / Развлечения / Общественное питание";"Дома / дворцы культуры"
"34";"Люберецкий дворец культуры, центр культуры и отдыха";"Люберцы";"Октябрьский проспект, 200";"140000";="+74955590594, +74955542151";"";"http://l-d-k.ru";"https://vk.com/public148182431";"";"37.897702";"55.67617";"Досуг / Развлечения / Общественное питание";"Дома / дворцы культуры"
"35";"Заречье, культурно-досуговый центр";"рп. Заречье";"Заречная улица, 2";"143085";="+74955349695, +79661924241";"";"http://kdc-zarechye.ru";"https://vk.com/club116854064";"";"37.394574";"55.6886";"Досуг / Развлечения / Общественное питание";"Дома / дворцы культуры"
"36";"Исток, дворец культуры";"Фрязино";"Комсомольская улица, 17";"141195";="+79197289859, +74962554825, +74962554822, +74962554824";"";"http://www.fdkistok.ru";"https://vk.com/dkistok";"";"38.042019";"55.955946";"Досуг / Развлечения / Общественное питание";"Дома / дворцы культуры"
"37";"Октябрь, дворец культуры";"Подольск";"Свердлова, 38";"142114";="+74967699104, +74967547401, +74967547549";"";"http://www.dk-october.ru";"https://vk.com/club78669639";"";"37.534817";"55.421058";"Досуг / Развлечения / Общественное питание";"Дома / дворцы культуры"
"38";"Зодчие, культурный центр";"Москва";"Партизанская, 23";"121351";="+74991414521, +74991412329, +74991414488";"";"http://www.zodchie.ru";"https://vk.com/club2447300";"";"37.411607";"55.7354";"Досуг / Развлечения / Общественное питание";"Дома / дворцы культуры"
"39";"Кристалл, культурно-спортивный комплекс";"Электросталь";"Карла Маркса, 9";"144001";="+74965750152, +74965773655";"";"";"https://vk.com/ksk_kristall";"";"38.464057";"55.794071";"Досуг / Развлечения / Общественное питание";"Дома / дворцы культуры"
"40";"Родник, дом культуры";"Балашиха";"Новая, 55";"143987";="+74955223801";"";"http://dk-rodnik.ru";"https://vk.com/kzrodnik";"";"38.03092";"55.74899";"Досуг / Развлечения / Общественное питание";"Дома / дворцы культуры"
"41";"Внуково, культурный центр";"Москва";"улица Большая Внуковская, 6";"119027";="+74951090300, +74951090570";"";"http://www.ccvnukovo.ru";"https://vk.com/cc.vnukovo";"";"37.294838";"55.613236";"Досуг / Развлечения / Общественное питание";"Дома / дворцы культуры"
"42";"Коммунарка, дом культуры";"пос. Коммунарка";"посёлок Коммунарка, 14а";"108814";="+74958178858, +74958172157";"";"http://dk-kommunarka.ru";"https://vk.com/dom_kulturi_kommunarka";"";"37.477413";"55.570022";"Досуг / Развлечения / Общественное питание";"Дома / дворцы культуры"
"43";"Заречье, дом культуры";"Москва";"1-я Вольская улица, 11";"111674";="+74957068986";"";"http://дкзаречье.окцювао.рф";"https://vk.com/dknekrasovka";"";"37.922414";"55.683584";"Досуг / Развлечения / Общественное питание";"Дома / дворцы культуры"
"44";"Сатурн, дворец культуры";"Раменское";"Михалевича, 2";"140108";="+74964632061, +74964632054, +74964632032";"";"http://dk-saturn.ru";"https://vk.com/mykdksaturn";"";"38.225569";"55.568033";"Досуг / Развлечения / Общественное питание";"Дома / дворцы культуры"
"45";"Восток, арт-кластер";"Москва";"Городецкая, 10Б";"111672";="+74957010870, +74957020100, +74957012221";"";"http://art-vostok.ru";"https://vk.com/public57760344";"";"37.864074";"55.73849";"Досуг / Развлечения / Общественное питание";"Дома / дворцы культуры"
"46";"Неоткрытые острова, дворец творчества детей и молодежи";"Москва";"переулок Ангелов, 2 к2";"125310";="+74957519994";"";"http://dtdim.mskobr.ru";"https://vk.com/dtdim.ostrova";"";"37.348588";"55.854744";"Досуг / Развлечения / Общественное питание";"Дома / дворцы культуры"
"47";"Искра, дом культуры";"Люберцы";"улица 8 Марта, 6";"140007";="+74952318059";"";"";"";"";"37.875612";"55.697115";"Досуг / Развлечения / Общественное питание";"Дома / дворцы культуры"
"48";"Темп, дом культуры";"Москва";"Шенкурский проезд, 3а";"127349";="+74992090900, +74999089508, +79661933590";"";"http://dktemp.ru";"";"";"37.589948";"55.891875";"Досуг / Развлечения / Общественное питание";"Дома / дворцы культуры"
"49";"Дружба, культурно-творческий центр";"Чехов";"Чехова, 45";"142306";="+74967268416, +74967268488";"";"";"";"";"37.468601";"55.145199";"Досуг / Развлечения / Общественное питание";"Дома / дворцы культуры"
"50";"Костино, деловой и культурный центр";"Королёв";"улица Дзержинского, 26";"141080";="+74955124369, +74955124467";"";"http://www.kostino.com";"https://vk.com/dkostino";"";"37.855843";"55.915191";"Досуг / Развлечения / Общественное питание";"Дома / дворцы культуры"
"51";"Фристайл, хореографический коллектив эстрадного танца";"Подольск";"улица Ленина, 20";"142180";="+79263561441";"";"";"https://vk.com/id4391996";"";"37.520225";"55.358759";"Досуг / Развлечения / Общественное питание";"Дома / дворцы культуры"
"52";"Назарьевский, культурно-досуговый центр";"пос. Назарьево";"посёлок Назарьево, ст39";"143021";="+74956340345";"";"http://ksk-nazar.mo.muzkult.ru";"https://vk.com/kdcnazarevsky";"";"37.044777";"55.674769";"Досуг / Развлечения / Общественное питание";"Дома / дворцы культуры"
"53";"Быково, дом культуры";"д. Федюково";"Строителей, 9 ст2";"142152";="+74955494591";"";"http://sdkbykovo.ru";"https://vk.com/public125280400";"";"37.687288";"55.512683";"Досуг / Развлечения / Общественное питание";"Дома / дворцы культуры"
"54";"Соболевский, дом культуры";"д. Соболево";"деревня Соболево, 7а";"142649";="+74964178379";"";"http://дк-соболево.рф";"";"";"38.703755";"55.517277";"Досуг / Развлечения / Общественное питание";"Дома / дворцы культуры"
"55";"Беззубовский сельский клуб";"д. Беззубово";"деревня Беззубово, 1";"142655";="";"";"";"";"";"38.926941";"55.449743";"Досуг / Развлечения / Общественное питание";"Дома / дворцы культуры"
"56";"Надежда, дом культуры";"пос. Авсюнино";"Ленина, 4а";"142645";="+74964172730";"";"http://cdk-nadezhda.mo.muzkult.ru";"";"";"39.11987";"55.564921";"Досуг / Развлечения / Общественное питание";"Дома / дворцы культуры"
"57";"Абрамовский сельский клуб";"д. Абрамовка";"деревня Абрамовка, 100";"142650";="+74964179919";"";"";"";"";"39.006897";"55.513318";"Досуг / Развлечения / Общественное питание";"Дома / дворцы культуры"
"58";"Ильинский социально-культурный центр";"с. Ильинский Погост";"Совхозная, 10";"142651";="+74964179198, +74964179109";"";"http://мбук-искц.рф";"https://vk.com/i_skc";"";"38.90488";"55.474034";"Досуг / Развлечения / Общественное питание";"Дома / дворцы культуры"
"59";"Рязанцевский сельский дом культуры";"с. Рязанцы";"Садовая, 74а";"141146";="+74965635223";"";"http://fryanovo-cks.ru";"https://vk.com/public164929287";"";"38.505409";"56.154015";"Досуг / Развлечения / Общественное питание";"Дома / дворцы культуры"
"60";"Никифоровский сельский дом культуры, структурное подразделение";"д. Никифорово";"деревня Никифорово, 101";"141143";="";"";"http://cks-ozera.mo.muzkult.ru";"";"";"38.093562";"55.844186";"Досуг / Развлечения / Общественное питание";"Дома / дворцы культуры"
"61";"Ереминский сельский дом культуры";"д. Ерёмино";"Зелёная, 12";"141146";="+74965635223";"";"http://fryanovo-cks.ru";"https://vk.com/club171796106";"";"38.500681";"56.119651";"Досуг / Развлечения / Общественное питание";"Дома / дворцы культуры"
"62";"Аксёновский сельский дом культуры";"д. Аксёново";"деревня Аксёново, ст119";"141147";="+74965635223";"";"http://fryanovo-cks.ru";"https://vk.com/public173230468";"";"38.426168";"56.112972";"Досуг / Развлечения / Общественное питание";"Дома / дворцы культуры"
"63";"Старопареевский сельский дом культуры";"д. Старопареево";"деревня Старопареево, 6";"141137";="+74965635223";"";"http://fryanovo-cks.ru";"https://vk.com/club164820419";"";"38.418585";"56.158323";"Досуг / Развлечения / Общественное питание";"Дома / дворцы культуры"
"64";"Манюхинский, дом культуры";"д. Манюхино";"деревня Манюхино, 55";"141035";="+74955884763";"";"";"https://vk.com/club151554923";"";"37.71722";"56.015991";"Досуг / Развлечения / Общественное питание";"Дома / дворцы культуры"
"65";"Клязьма, дом культуры";"пос. Туристический Пансионат «Клязьминское водохранилище»";"Сорокинское шоссе, ст5";"141015";="+79299118287";"";"";"https://vk.com/public193958137";"";"37.672698";"55.995697";"Досуг / Развлечения / Общественное питание";"Дома / дворцы культуры"
"66";"Костышовский сельский дом культуры";"д. Костыши";"деревня Костыши, 23а";"141147";="+74965635223";"";"http://fryanovo-cks.ru";"https://vk.com/club164820419";"";"38.342292";"56.118869";"Досуг / Развлечения / Общественное питание";"Дома / дворцы культуры"
"67";"Райсеменовский, центральный сельский дом культуры";"д. Райсеменовское";"";"";="";"";"";"";"";"";"";"Досуг / Развлечения / Общественное питание";"Дома / дворцы культуры"
"68";"Ельдигинский, дом культуры";"с. Ельдигино";"село Ельдигино, 5";"141255";="+74965314395";"";"";"https://vk.com/dkeldigino";"";"37.816146";"56.11101";"Досуг / Развлечения / Общественное питание";"Дома / дворцы культуры"
"69";"Вялковский";"д. Вялки";"Кооперативная, 54";"140142";="";"";"";"";"";"38.089818";"55.654902";"Досуг / Развлечения / Общественное питание";"Дома / дворцы культуры"
"70";"Городищинский культурно-досуговый центр";"пос. Городищи";"улица Ленина, 4";"601130";="+74924332786";"";"http://www.usad-club.ru";"";"";"39.077699";"55.866108";"Досуг / Развлечения / Общественное питание";"Дома / дворцы культуры"
"71";"Дементьевский, дом культуры";"д. Дементьево";"Центральная, 118";"140124";="+74964627592";"";"http://kdc-dement.mo.muzkult.ru/";"";"";"38.301065";"55.615374";"Досуг / Развлечения / Общественное питание";"Дома / дворцы культуры"
"72";"Молзинский сельский Дом культуры";"д. Молзино";"Советская, 61";"142411";="+74965127868";"";"http://dk-molzino.mo.muzkult.ru";"https://vk.com/molzinsciysdk";"";"38.381381";"55.892143";"Досуг / Развлечения / Общественное питание";"Дома / дворцы культуры"
"73";"Дом культуры";"д. Павловское";"деревня Павловское, 102";"143541";="+74983140490";"";"";"";"";"36.945401";"55.873031";"Досуг / Развлечения / Общественное питание";"Дома / дворцы культуры"
"74";"Першинский сельский дом культуры";"пос. Першино";"Школьная, 4";"601023";="+74923776273";"";"";"";"";"38.735206";"56.137449";"Досуг / Развлечения / Общественное питание";"Дома / дворцы культуры"
"75";"Денежниковский, дом культуры";"пос. Денежниково";"посёлок Денежниково, 1";"140164";="+79055694574";"";"http://dk-den.mo.muzkult.ru";"";"";"38.11062";"55.43936";"Досуг / Развлечения / Общественное питание";"Дома / дворцы культуры"
"76";"Заря, дом культуры";"с. Заворово";"село Заворово, 107";"140160";="+74964662317";"";"http://dk-zarya.mo.muzkult.ru";"";"";"38.231231";"55.343301";"Досуг / Развлечения / Общественное питание";"Дома / дворцы культуры"
"77";"Мечта, дом культуры";"с. Дубна";"село Дубна, 30";"142340";="+79263629990";"";"";"";"";"37.346549";"55.122595";"Досуг / Развлечения / Общественное питание";"Дома / дворцы культуры"
"78";"Собеседник, дом культуры";"пос. Любучаны";"Спортивная, 17а";"142380";="+74992709044";"";"http://admlub.ru/doma-kultury/dom-kultury-lsobesednikr";"https://vk.com/club139001884";"";"37.546371";"55.242121";"Досуг / Развлечения / Общественное питание";"Дома / дворцы культуры"
"79";"Елецкий дом культуры";"д. Ельцы";"Молодежная, 15";"601019";="+74923771524";"";"http://selgorka33.ru";"";"";"38.777476";"56.174761";"Досуг / Развлечения / Общественное питание";"Дома / дворцы культуры"
"80";"Алферовский центральный дом культуры";"д. Алфёрово";"деревня Алфёрово, 64Б";"142516";="+74964376132";"";"http://scsksm-alferovo.mo.muzkult.ru";"";"";"38.698162";"55.679917";"Досуг / Развлечения / Общественное питание";"Дома / дворцы культуры"
"81";"Клязьма, центр культурного развития";"Пушкино";"Сологубовская улица, 3";"141230";="+79167154375";"";"";"https://vk.com/public180894144";"";"37.828819";"55.974613";"Досуг / Развлечения / Общественное питание";"Дома / дворцы культуры"
"82";"Илькинский дом культуры";"д. Илькино";"Центральная, 40";"601016";="+74923772316";"";"http://selgorka33.ru";"";"";"38.852874";"56.217316";"Досуг / Развлечения / Общественное питание";"Дома / дворцы культуры"
"83";"Дом культуры с. Аксиньино";"с. Аксиньино";"село Аксиньино, 25/1";"143031";="+74955922077";"";"http://ksdc-spe.ru/strukturnoe-podrazdelenie-sela-aksinino";"";"";"36.978588";"55.73798";"Досуг / Развлечения / Общественное питание";"Дома / дворцы культуры"
"84";"Кузьминский дом культуры";"пос. Усады";"Пролетарская, 14";"142815";="+79175004804";"";"";"https://vk.com/id490898768";"";"37.891457";"55.144158";"Досуг / Развлечения / Общественное питание";"Дома / дворцы культуры"
"85";"Кошеровский, дом культуры";"д. Кошерово";"Центральная, 49";"140165";="+79153562689";"";"";"";"";"38.375396";"55.636735";"Досуг / Развлечения / Общественное питание";"Дома / дворцы культуры"
"86";"Михалевский культурно-досуговый центр";"д. Михали";"улица Гагарина, 5";"140343";="+74964062366, +74964062334";"";"http://mihalikdc.kulturu.ru";"https://vk.com/mikhaliclub";"";"39.07954";"55.299682";"Досуг / Развлечения / Общественное питание";"Дома / дворцы культуры"
"87";"Федоровский сельский дом культуры";"д. Фёдоровское";"Советская, 23";"601021";="+74923771919";"";"";"https://vk.com/fedordk";"";"38.860556";"56.115425";"Досуг / Развлечения / Общественное питание";"Дома / дворцы культуры"
"88";"Евсеевский, дом культуры";"д. Евсеево";"деревня Евсеево, 30а";"142517";="+74964375181";"";"";"";"";"38.706295";"55.753228";"Досуг / Развлечения / Общественное питание";"Дома / дворцы культуры"
"89";"Софьинский, культурно-досуговый центр";"с. Софьино";"село Софьино, 18";"140126";="+74964664842";"";"http://кдц-софьинский.рф/";"https://vk.com/kdc.sofino";"";"38.170224";"55.492388";"Досуг / Развлечения / Общественное питание";"Дома / дворцы культуры"
"90";"Духанинский сельский клуб";"д. Духанино";"деревня Духанино, 59";"143512";="";"";"";"";"";"36.952072";"55.97245";"Досуг / Развлечения / Общественное питание";"Дома / дворцы культуры"
"91";"Песьяновский сельский дом культуры";"д. Песьяне";"Советская, 27а";"601001";="+74923772141";"";"";"https://vk.com/pesyanoeculture";"";"38.801066";"56.020014";"Досуг / Развлечения / Общественное питание";"Дома / дворцы культуры"
"92";"Подосинковский, центр культурного развития";"пос. Подосинки";"посёлок Подосинки, 5";"141851";="+74962274208, +74962261237";"";"";"";"";"37.546846";"56.204972";"Досуг / Развлечения / Общественное питание";"Дома / дворцы культуры"
"93";"Дом культуры, д. Логиново";"д. Логиново";"деревня Логиново, 22а";"142515";="+74964328361";"";"";"";"";"38.72403";"55.708313";"Досуг / Развлечения / Общественное питание";"Дома / дворцы культуры"
"94";"Истоки, Воскресенский координационно-методический центр культуры и творчества";"д. Чемодурово";"Центральная, 13";"140225";="+74964453686";"";"";"";"";"38.66903";"55.349548";"Досуг / Развлечения / Общественное питание";"Дома / дворцы культуры"
"95";"Созвездие, Структурное подразделение";"д. Корпуса";"Санаторская, 8";"141140";="+79687376609";"";"http://dk-sozvezdie.mo.muzkult.ru";"https://vk.com/dk.sozvezdie";"";"38.226368";"55.879803";"Досуг / Развлечения / Общественное питание";"Дома / дворцы культуры"
"96";"Талицкий дом культуры";"д. Талицы";"деревня Талицы, 95в";"141273";="+74965313200";"";"";"";"";"37.961354";"56.116621";"Досуг / Развлечения / Общественное питание";"Дома / дворцы культуры"
"97";"Татариновский, дом культуры";"с. Татариново";"Ленина, 4";"142846";="+74966465171";"";"http://tatarinovo.simplesite.com";"https://vk.com/id456250870";"";"37.932534";"55.215481";"Досуг / Развлечения / Общественное питание";"Дома / дворцы культуры"
"98";"Храпковский сельский дом народного творчества";"д. Храпки";"Центральная, 66а";"601023";="+79190146407, +74923729693";"";"http://selpersh.ru";"";"";"38.774762";"56.13286";"Досуг / Развлечения / Общественное питание";"Дома / дворцы культуры"
"99";"Южный, дворец культуры";"Домодедово";"Южная, 1а";"142060";="+74967957595, +74967948349";"";"";"";"";"37.931169";"55.2764";"Досуг / Развлечения / Общественное питание";"Дома / дворцы культуры"
"100";"Сельский дом культуры";"д. Мизиново";"Гагарина, вл20";"141144";="";"";"http://cks-bio.mo.muzkult.ru/dk_mizinovo";"https://vk.com/sdkmizinovo";"";"38.215333";"55.956114";"Досуг / Развлечения / Общественное питание";"Дома / дворцы культуры"
"101";"Проводниковский сельский дом культуры";"пос. Проводник";"Шоссейная улица, 2";"140471";="+79166628851";"";"";"https://vk.com/club113764563";"";"38.581917";"55.141063";"Досуг / Развлечения / Общественное питание";"Дома / дворцы культуры"
"102";"Балобаново, сельский дом культуры";"с. Балобаново";"Будённого улица, 7";"142440";="+79057101463, +79263905048";"";"http://сдк-балобаново.рф";"https://vk.com/public124085610";"";"38.237512";"55.84398";"Досуг / Развлечения / Общественное питание";"Дома / дворцы культуры"
"103";"Ильинский сельский дом культуры";"с. Ильинское";"село Ильинское, ст11";"142061";="+74967968997";"";"";"";"";"37.961564";"55.248627";"Досуг / Развлечения / Общественное питание";"Дома / дворцы культуры"
"104";"КДЦ Рыболовский";"с. Рыболово";"";"140166";="+74964664329";"";"http://kdc-rybolovo.mo.muzkult.ru";"https://vk.com/club211473128";"";"38.372722";"55.401497";"Досуг / Развлечения / Общественное питание";"Дома / дворцы культуры"
"105";"Центральный, сельский дом культуры";"с. Кудиново";"Центральная, 17";"142435";="+74965166517, +74965166334";"";"http://центральный-кудиново.рф";"https://vk.com/club152568299";"";"38.215694";"55.766275";"Досуг / Развлечения / Общественное питание";"Дома / дворцы культуры"
"106";"Никульский сельский клуб";"с. Никульское";"Советская, 19";"140483";="+74966171672";"";"";"";"";"38.687294";"55.167676";"Досуг / Развлечения / Общественное питание";"Дома / дворцы культуры"
"107";"Дом культуры";"пос. Зеленый";"деревня Щемилово, 48";"142452";="+79151711631";"";"";"";"";"38.08954";"55.808833";"Досуг / Развлечения / Общественное питание";"Дома / дворцы культуры"
"108";"Останкино, сельский дом культуры";"пос. совхоза "Останкино"";"Садовая, 7а";"141895";="+74952450270";"";"http://цкр-некрасовский.рф";"https://vk.com/dkostankino";"";"37.403458";"56.055364";"Досуг / Развлечения / Общественное питание";"Дома / дворцы культуры"
"109";"Мещеринский дом культуры";"с. Мещерино";"Новая, 1а";"142855";="+74966459442";"";"http://mesherino-dk.wixsite.com/mysite";"https://vk.com/meshcherinoclub";"";"38.366612";"55.19582";"Досуг / Развлечения / Общественное питание";"Дома / дворцы культуры"
"110";"Чайковский, дом культуры";"пос. Часцы";"посёлок Часцы, 19";"143060";="+74951053629";"";"http://ksc-chasci.mo.muzkult.ru";"";"";"36.846087";"55.616038";"Досуг / Развлечения / Общественное питание";"Дома / дворцы культуры"
"111";"Пешки, дом культуры";"д. Пешки";"деревня Пешки, ст 9";"141595";="+74962637694";"";"";"https://vk.com/sdkpeshki";"";"37.070491";"56.132931";"Досуг / Развлечения / Общественное питание";"Дома / дворцы культуры"
"112";"Радуга, дом культуры";"с. Молоди";"Магистральная, 111а";"142390";="";"";"";"";"";"37.513473";"55.270522";"Досуг / Развлечения / Общественное питание";"Дома / дворцы культуры"
"113";"Городской культурно-досуговый центр";"Солнечногорск";"Красная улица, 113";"141503";="+74962638640";"";"http://gckd-soln.mo.muzkult.ru";"";"";"36.970835";"56.19123";"Досуг / Развлечения / Общественное питание";"Дома / дворцы культуры"
"114";"Заболотьевский сельский клуб";"д. Заболотье";"деревня Заболотье, 34а";"142032";="";"";"";"";"";"37.678871";"55.442577";"Досуг / Развлечения / Общественное питание";"Дома / дворцы культуры"
"115";"Тимонинский дом культуры";"д. Тимонино";"деревня Тимонино, 146/3";"140126";="+74964661468";"";"";"";"";"38.190704";"55.474412";"Досуг / Развлечения / Общественное питание";"Дома / дворцы культуры"
"116";"Лель, дом культуры";"д. Панино";"деревня Панино, вл8";"140170";="";"";"";"";"";"38.183453";"55.385182";"Досуг / Развлечения / Общественное питание";"Дома / дворцы культуры"
"117";"Хрипанский, дом культуры";"д. Хрипань";"Школьная, 27а";"140163";="";"";"";"";"";"38.169313";"55.634708";"Досуг / Развлечения / Общественное питание";"Дома / дворцы культуры"
"118";"Вохринский, дом культуры";"д. Вохринка";"деревня Вохринка, 93";"140170";="+74964667730";"";"";"https://vk.com/public189862584";"";"38.300702";"55.40646";"Досуг / Развлечения / Общественное питание";"Дома / дворцы культуры"
"119";"СДК Тимоховский";"д. Тимохово";"Совхозная, 19";"142435";="+74965166596";"";"http://сдк-тимоховский.рф";"https://vk.com/sdktimohovo";"";"38.266351";"55.77217";"Досуг / Развлечения / Общественное питание";"Дома / дворцы культуры"
"120";"Подосинковский, центр культурного развития";"пос. Новое Гришино";"улица Г.Г. Королёва, 5";"141862";="";"";"";"";"";"37.641507";"56.197798";"Досуг / Развлечения / Общественное питание";"Дома / дворцы культуры"
"121";"Школа им. В.Д. Шервинского";"с. Черкизово";"Школьная, 2Б";"140476";="";"";"http://shervinskyschool.ru";"https://vk.com/club106440723";"";"38.742894";"55.206366";"Досуг / Развлечения / Общественное питание";"Дома / дворцы культуры"
"122";"Пестриковский клуб, центр досуга и культуры";"с. Пестриково";"Советская, 102";"140490";="+74966192946";"";"http://cdik-pirochi.ru";"https://vk.com/club35551851";"";"38.864118";"55.087291";"Досуг / Развлечения / Общественное питание";"Дома / дворцы культуры"
"123";"Боровковский сельский клуб";"д. Боровково";"посёлок Фабрики, 17в";"142436";="+79153260052";"";"";"https://vk.com/mbukborovkovo";"";"38.535941";"55.993951";"Досуг / Развлечения / Общественное питание";"Дома / дворцы культуры"
"124";"Котельники, культурный комплекс";"Котельники";"микрорайон Белая Дача, 3";"140055";="+74955597511";"";"http://www.maukkkotelniki.ru";"";"";"37.85311";"55.660987";"Досуг / Развлечения / Общественное питание";"Дома / дворцы культуры"
"125";"Вперед, дом культуры";"Долгопрудный";"Собина площадь, 3";"141701";="+74954088994, +74954083060, +74986851270";"";"http://дквперёд.рф";"https://vk.com/dkvpered";"";"37.514415";"55.933791";"Досуг / Развлечения / Общественное питание";"Дома / дворцы культуры"
"126";"Дворец культуры им. Воровского";"Раменское";"Воровского, 4";"140105";="+74964633585, +74964633988, +74964673819, +74964632440";"";"http://dkvorovskogo.ru";"https://vk.com/dk_vorovskogo";"";"38.207232";"55.574162";"Досуг / Развлечения / Общественное питание";"Дома / дворцы культуры, Концертные залы, Аренда площадок для культурно-массовых мероприятий, Конференц-залы / Переговорные комнаты, Художественные выставки / Галереи"
"127";"Восток, арт-кластер";"Москва";"улица Николая Химушина, 17 к3";"107143";="+74991671740, +74991671640";"";"http://art-vostok.ru";"https://vk.com/public57760344";"";"37.764491";"55.82415";"Досуг / Развлечения / Общественное питание";"Дома / дворцы культуры"
"128";"Солнечный, городской дом культуры";"Одинцово";"Солнечная, 20";"143006";="+74985955174, +74955934691, +74955932001";"";"http://dk-solnechnyi.ru";"";"";"37.286829";"55.66713";"Досуг / Развлечения / Общественное питание";"Дома / дворцы культуры"
"129";"Ново-Переделкино, дом культуры";"Москва";"Лукинская улица, 1 к1";"119634";="+74957320217, +74957338823, +74957320579, +74957332716";"";"http://www.TKS-NP.ru";"https://vk.com/club76229882";"";"37.343755";"55.646515";"Досуг / Развлечения / Общественное питание";"Дома / дворцы культуры"
"130";"Саввино, дом культуры";"Балашиха";"1 Мая, 11в";"143985";="+74955222750";"";"http://www.dksavvino.ru";"https://vk.com/dk_savvino";"";"38.026834";"55.729731";"Досуг / Развлечения / Общественное питание";"Дома / дворцы культуры"
"131";"Башмет Центр, дом культуры";"Москва";"улица Большая Полянка, 45";"119180";="+74957419867";"";"http://bashmet.center";"";"";"37.619852";"55.733305";"Досуг / Развлечения / Общественное питание";"Дома / дворцы культуры"
"132";"Ховринский, дом культуры железнодорожников";"Москва";"Новая, 2";"125635";="+79161978161, +74992609663";"";"";"https://vk.com/club45389801";"";"37.510626";"55.872812";"Досуг / Развлечения / Общественное питание";"Дома / дворцы культуры"
"133";"Восточное, дом культуры";"Москва";"Большая Косинская, 5";"111621";="+74957001038";"";"";"";"";"37.853854";"55.713109";"Досуг / Развлечения / Общественное питание";"Дома / дворцы культуры"
"134";"Победа, молодежный комплексный центр";"Домодедово";"площадь 30 лет Победы, 2";"142002";="+74957930259";"";"";"https://vk.com/yapobeda_dmd";"";"37.768236";"55.437959";"Досуг / Развлечения / Общественное питание";"Дома / дворцы культуры"
"135";"Силикат, дом культуры";"Котельники";"микрорайон Силикат, 32";"140053";="+74955510658, +74955597372";"";"http://www.maukkkotelniki.ru";"";"";"37.857754";"55.648861";"Досуг / Развлечения / Общественное питание";"Дома / дворцы культуры"
"136";"Дубровицы, культурно-просветительский центр";"пос. Дубровицы";"посёлок Дубровицы, 65а";"142132";="+74967651304, +74967663070";"";"http://www.dubrovici.ru";"https://vk.com/club103103644";"";"37.489338";"55.439474";"Досуг / Развлечения / Общественное питание";"Дома / дворцы культуры"
"137";"Дворец культуры, микрорайон Щербинка";"Щербинка";"Театральная, 1а";"108851";="+74958670323";"";"http://дворец-культуры.рф";"https://vk.com/dvorec_k";"";"37.564576";"55.500834";"Досуг / Развлечения / Общественное питание";"Дома / дворцы культуры"
"138";"ДК мосрентген";"пос. посёлок завода Мосрентген";"посёлок Завода Мосрентген, 39";"142704";="+74954240207";"";"http://dk-mosrentgen.ru";"https://vk.com/dk_mosrentgen";"";"37.475331";"55.618751";"Досуг / Развлечения / Общественное питание";"Дома / дворцы культуры"
"139";"Культурный центр ФСБ России";"Москва";"улица Большая Лубянка, 12/1";"101000";="+74959148579";"";"";"";"";"37.629174";"55.76141";"Досуг / Развлечения / Общественное питание";"Дома / дворцы культуры"
"140";"Молодёжный, дом культуры";"пос. Молодёжный";"Молодёжный посёлок, 30";"142113";="+74967624286";"";"http://www.dkmol.ru";"https://vk.com/dkmol";"";"37.487865";"55.328275";"Досуг / Развлечения / Общественное питание";"Дома / дворцы культуры"
"141";"Северный, дом культуры";"Балашиха";"Северный микрорайон, 9";"143954";="";"";"";"";"";"38.010906";"55.794546";"Досуг / Развлечения / Общественное питание";"Дома / дворцы культуры"
"142";"Кучино, дом культуры";"Балашиха";"Центральная, 11";"143981";="+74986982028, +74986201602";"";"http://dkkuchino.ru";"https://vk.com/dk_kuchino";"";"37.958466";"55.750219";"Досуг / Развлечения / Общественное питание";"Дома / дворцы культуры"
"143";"Юбилейный, дом культуры";"Ивантеевка";"Первомайская, 13";"141280";="+74965360942";"";"";"";"";"37.908079";"55.976244";"Досуг / Развлечения / Общественное питание";"Дома / дворцы культуры"
"144";"Тамань, дворец культуры и спорта";"рп. Калининец";"посёлок Калининец, 2Б";"143370";="+74963415805";"";"http://kinotaman.ru";"https://vk.com/fakelsveta";"";"36.993708";"55.565035";"Досуг / Развлечения / Общественное питание";"Дома / дворцы культуры"
"145";"Дворец культуры, МГТУ им. Н.Э. Баумана";"Москва";"Рубцовская набережная, 2/18";"105082";="+74992636261";"";"http://culture.bmstu.ru";"https://vk.com/pr.bmstu";"";"37.691839";"55.771062";"Досуг / Развлечения / Общественное питание";"Дома / дворцы культуры"
"146";"Центральный дом литераторов";"Москва";"улица Большая Никитская, 53";"121069";="+74956916278";"";"http://www.cdlart.ru";"";"";"37.587863";"55.758095";"Досуг / Развлечения / Общественное питание";"Дома / дворцы культуры"
"147";"Чайка, дом культуры";"Балашиха";"Жилгородок, 4а";"143989";="+74955274396";"";"http://dk-chayka.ru";"https://vk.com/dk_chayka";"";"37.994697";"55.748453";"Досуг / Развлечения / Общественное питание";"Дома / дворцы культуры"
"148";"Дом культуры, РЭУ им. Г.В. Плеханова";"Москва";"Стремянный переулок, 28 к2а";"115054";="";"";"";"";"";"37.630143";"55.727964";"Досуг / Развлечения / Общественное питание";"Дома / дворцы культуры"
"149";"Объединение культурных центров центрального административного округа";"Москва";"Сибирский проезд, 2 ст5";"109029";="+74956706320, +74956709496, +74956706409";"";"";"https://vk.com/dkstimul";"";"37.684188";"55.732849";"Досуг / Развлечения / Общественное питание";"Дома / дворцы культуры"
"150";"Дом культуры им. Лепсе";"Подольск";"Революционный проспект, 16/27";"142116";="+74967699560, +74967630424, +74967630455";"";"http://www.dklepse.ru";"https://vk.com/dk_lepse";"";"37.553897";"55.430987";"Досуг / Развлечения / Общественное питание";"Дома / дворцы культуры"
"151";"Пушкино, дом культуры";"Пушкино";"Некрасова, 3";"141207";="+74965350603, +74965394029";"";"http://dkpushkino.ru";"";"";"37.847944";"56.013309";"Досуг / Развлечения / Общественное питание";"Дома / дворцы культуры"
"152";"Орбита, дворец культуры";"Раменское";"улица Гурьева, 1а";"140109";="+74964636367";"";"";"";"";"38.240109";"55.577542";"Досуг / Развлечения / Общественное питание";"Дома / дворцы культуры"
"153";"Победа, дворец культуры";"дп. Удельная";"Солнечная, 35";"140140";="";"";"http://dkpobeda-mo.ru";"https://vk.com/dk_pobeda";"";"38.053965";"55.629773";"Досуг / Развлечения / Общественное питание";"Дома / дворцы культуры, Аренда площадок для культурно-массовых мероприятий, Концертные залы, Конференц-залы / Переговорные комнаты"
"154";"Люберецкий дворец культуры, Культурно-просветительский центр";"Люберцы";"проспект Гагарина, 19";"140074";="+74955590594, +74955016366, +74955542151";"";"http://l-d-k.ru";"https://vk.com/ldk_lubertsy";"";"37.913199";"55.690842";"Досуг / Развлечения / Общественное питание";"Дома / дворцы культуры"
"155";"Мир, дворец культуры";"Лыткарино";"Ленина, 2а";"140080";="+74955527145, +74955527181";"";"http://www.dkmir-lytkarino.ru";"";"";"37.910031";"55.579294";"Досуг / Развлечения / Общественное питание";"Дома / дворцы культуры"
"156";"Пересвет, дом культуры";"пос. Знамя Октября";"посёлок Знамя Октября, 31 ст3";"108823";="+74958679719, +74958672484";"";"http://дкпересвет.рф";"https://vk.com/sdkperesvet";"";"37.541752";"55.473166";"Досуг / Развлечения / Общественное питание";"Дома / дворцы культуры"
"157";"Тепловозостроитель, дворец культуры";"Коломна";"улица Октябрьской революции, 324";"140408";="+74966131053, +74966134012";"";"http://дктепловоз.рф";"https://vk.com/club91069561";"";"38.784701";"55.088892";"Досуг / Развлечения / Общественное питание";"Дома / дворцы культуры"
"158";"Пушкинский Дом художника";"Пушкино";"микрорайон Дзержинец, 3а";"141202";="+79165940714";"";"";"";"";"37.861186";"56.009214";"Досуг / Развлечения / Общественное питание";"Дома / дворцы культуры"
"159";"Восход, дом культуры";"Балашиха";"Заводская, 13а";"143983";="+74955277319";"";"http://www.voshod-zeldor.ru";"";"";"37.976321";"55.745516";"Досуг / Развлечения / Общественное питание";"Дома / дворцы культуры"
"160";"Гармония, дом культуры";"Москва";"Кировоградская улица, 44Б";"117534";="+74953874728, +74953894855";"";"";"";"";"37.59522";"55.597363";"Досуг / Развлечения / Общественное питание";"Дома / дворцы культуры"
"161";"Дворец культуры и техники, МАИ";"Москва";"Дубосековская, 4а ст1";"125080";="+74991584480";"";"http://dk-mai.com";"https://vk.com/dkitmai";"";"37.498856";"55.810845";"Досуг / Развлечения / Общественное питание";"Дома / дворцы культуры"
"162";"Пахра, сельский дом культуры";"д. Чурилково";"деревня Чурилково, 5Б";"142034";="+74967969461, +74967969200";"";"";"";"";"37.831554";"55.492367";"Досуг / Развлечения / Общественное питание";"Дома / дворцы культуры"
"163";"Неоткрытые острова, дворец творчества детей и молодежи";"Москва";"улица Героев Панфиловцев, 9 к2";"125480";="+74957519994, +74954956056";"";"http://dtdim.mskobr.ru";"https://vk.com/dtdim.ostrova";"";"37.432239";"55.854326";"Досуг / Развлечения / Общественное питание";"Дома / дворцы культуры"
"164";"Строитель, дом культуры";"Пушкино";"Вокзальная, 15";"141254";="+74965311459";"";"http://dk-stroitel.ru";"";"";"37.855228";"56.044517";"Досуг / Развлечения / Общественное питание";"Дома / дворцы культуры"
"165";"Факел, центр культуры и досуга";"Фрязино";"Вокзальная улица, 2";"141190";="+74965672397, +79152888978";"";"http://frfakel.ru";"https://vk.com/club131439976";"";"38.051339";"55.960418";"Досуг / Развлечения / Общественное питание";"Дома / дворцы культуры"
"166";"Выстрел";"Солнечногорск";"Драгунского, 1";"141506";="+74962631177, +79250678144";"";"http://dk-vystrel.mo.muzkult.ru";"https://vk.com/dk.vystrel";"";"36.994028";"56.192846";"Досуг / Развлечения / Общественное питание";"Дома / дворцы культуры"
"167";"Меридиан, дом культуры";"с. Новый быт";"Новая, 8а";"142322";="+74967241338";"";"";"https://vk.com/dkmeridian";"";"37.601111";"55.05781";"Досуг / Развлечения / Общественное питание";"Дома / дворцы культуры"
"168";"Нагатино, дом культуры";"Москва";"Судостроительная, 31 к1";"115407";="+74996166066";"";"http://www.nagati.ru";"https://vk.com/dknagatino";"";"37.682283";"55.683445";"Досуг / Развлечения / Общественное питание";"Дома / дворцы культуры"
"169";"Контакт, дом культуры";"Химки";"Молодёжная, 20";"141407";="+74955715466";"";"http://dkontact.ucoz.ru";"https://vk.com/dkkontakt";"";"37.409294";"55.885879";"Досуг / Развлечения / Общественное питание";"Дома / дворцы культуры"
"170";"Дом офицеров, учреждение культуры";"рп. Монино";"Авиационная, 2а";"141170";="+74962500815, +74962539259, +74952239719";"";"http://dom-kultura.ru";"https://vk.com/do.monino";"";"38.201351";"55.83558";"Досуг / Развлечения / Общественное питание";"Дома / дворцы культуры"
"171";"ЗиО, дом культуры";"Подольск";"Мира, 4";"142103";="+74967575611, +74967680095, +74967680094";"";"";"https://vk.com/club101766534";"";"37.56929";"55.421908";"Досуг / Развлечения / Общественное питание";"Дома / дворцы культуры"
"172";"Алые паруса, культурный центр";"Москва";"улица Свободы, 91";"125481";="+74954963670";"";"http://dk-alyeparusa.ru";"https://vk.com/public51786110";"";"37.44597";"55.866977";"Досуг / Развлечения / Общественное питание";"Дома / дворцы культуры"
"173";"Красная поляна, дом культуры";"Лобня";"Спортивная, 4";"141734";="+74955794058";"";"http://dk-polyana.mo.muzkult.ru";"";"";"37.421321";"56.027054";"Досуг / Развлечения / Общественное питание";"Дома / дворцы культуры"
"174";"Культурный центр МВД РФ";"Москва";"Новослободская, 47";"127055";="+74999731096, +74997912194";"";"http://77.мвд.рф/гу-мвд/структура-управления/центры/культурный-центр";"https://vk.com/public114472881";"";"37.593165";"55.785623";"Досуг / Развлечения / Общественное питание";"Дома / дворцы культуры"
"175";"Октябрь, дом культуры";"Павловский Посад";"Герцена, 15";"142500";="+74964320253";"";"";"https://vk.com/dkoctoberpp";"";"38.671742";"55.780235";"Досуг / Развлечения / Общественное питание";"Дома / дворцы культуры"
"176";"Неоткрытые острова, дворец творчества детей и молодежи";"Москва";"улица Свободы, 65 к1";"125364";="+74957519994, +74994972000";"";"http://dtdim.mskobr.ru";"https://vk.com/dtdim.ostrova";"";"37.447194";"55.85535";"Досуг / Развлечения / Общественное питание";"Дома / дворцы культуры"
"177";"Десна, дом культуры";"пос. фабрики имени 1-го Мая";"посёлок Фабрики им. 1 Мая, 37";"108824";="+74958678192, +74958678358";"";"http://www.дк-десна.рф";"";"";"37.498529";"55.48757";"Досуг / Развлечения / Общественное питание";"Дома / дворцы культуры"
"178";"Энергетик, дворец культуры";"Дзержинский";"Ленина, 3";"140090";="+74955514663, +74955514066, +74955513688, +74955514072";"";"http://дк-энергетик.рф";"https://vk.com/dk_energetik";"";"37.842223";"55.637794";"Досуг / Развлечения / Общественное питание";"Дома / дворцы культуры"
"179";"Звёздный, дом культуры";"с. Красная Пахра";"Заводская, 20";"108828";="+74958508053, +74958508054";"";"http://дк-звёздный.рф";"https://vk.com/dkzvezdnii45";"";"37.273967";"55.430917";"Досуг / Развлечения / Общественное питание";"Дома / дворцы культуры"
"180";"Акрихин, центр культуры";"Старая Купавна";"Большая Московская улица, 116";"142450";="+74965126380, +74965126477, +74965125934";"";"http://ck-akrikhin.ru";"https://vk.com/club70844020";"";"38.181459";"55.811542";"Досуг / Развлечения / Общественное питание";"Дома / дворцы культуры"
"181";"Дружба, дом культуры";"пос. ЛМС";"Центральный микрорайон, 16 ст1";"108830";="+74958507155";"";"http://dkvoronovo.ru";"https://vk.com/club85407148";"";"37.178345";"55.3156";"Досуг / Развлечения / Общественное питание";"Дома / дворцы культуры"
"182";"Мечта, дом культуры";"рп. Селятино";"улица Спортивная, 5а";"143345";="+74963425340, +74963425520, +74963423200";"";"http://dk-mechta.ru";"https://vk.com/dkmechta";"";"36.984626";"55.515553";"Досуг / Развлечения / Общественное питание";"Дома / дворцы культуры"
"183";"Объединение культурных центров Южного административного округа ОСП ДК Дружба";"Москва";"Медынская, 6а";"117546";="+74953847662, +74953845838";"";"http://drugdk.ru";"https://vk.com/ccdruzhba";"";"37.644486";"55.593344";"Досуг / Развлечения / Общественное питание";"Дома / дворцы культуры"
"184";"Дворец культуры Коломна";"Коломна";"Окский проспект, 17";"140402";="+74966252506, +74966131585, +74966133336";"";"http://dk-kolomna.ru";"https://vk.com/dkkolomna";"";"38.802373";"55.075964";"Досуг / Развлечения / Общественное питание";"Дома / дворцы культуры"
"185";"Текстильщик, дом культуры";"Королёв";"Советская улица, 8";"141068";="+74955158036";"";"http://dk-tekstilshchik.msk.ru";"https://vk.com/dktekstilshchikmsk";"";"37.834557";"55.951377";"Досуг / Развлечения / Общественное питание";"Дома / дворцы культуры"
"186";"Филимонковское, центр культуры и спорта";"пос. Марьино";"посёлок Марьино, 3";"108815";="+74958277167, +74958277193";"";"http://dkmarino.ru";"https://vk.com/cks.filimonkovskoe";"";"37.327464";"55.550469";"Досуг / Развлечения / Общественное питание";"Дома / дворцы культуры"
"187";"ДК Апрелевка";"Апрелевка";"Комсомольская улица, 15а";"143360";="+74963453292, +74963453293";"";"http://dk-aprelevka.ru";"https://vk.com/dk_aprelevka";"";"37.081315";"55.552729";"Досуг / Развлечения / Общественное питание";"Дома / дворцы культуры"
"188";"Районный дом культуры";"Ногинск";"Текстилей, 31";"142406";="+74965156087, +74965152390";"";"http://rdk-noginsk.ru";"https://vk.com/rdknoginsk";"";"38.435366";"55.881423";"Досуг / Развлечения / Общественное питание";"Дома / дворцы культуры"
"189";"Дом культуры текстильщиков";"Орехово-Зуево";"улица Московская, 1";"142601";="+74964247838";"";"http://ozmillenium.ru";"";"";"39.005186";"55.812301";"Досуг / Развлечения / Общественное питание";"Дома / дворцы культуры"
"190";"Чайка, дом культуры";"Москва";"проспект Будённого, 14";"105118";="+74997858912";"";"http://dkchayka.com";"https://vk.com/dk_chayka_na_semenovskoy";"";"37.720782";"55.777496";"Досуг / Развлечения / Общественное питание";"Дома / дворцы культуры"
"191";"Содружество, дворец культуры";"Москва";"Рижский проезд, 9";"129626";="+74956831136";"";"http://дксодружество.рф";"https://vk.com/dksodrujestvo";"";"37.661663";"55.815806";"Досуг / Развлечения / Общественное питание";"Дома / дворцы культуры"
"192";"Радуга, центр культуры и досуга";"д. Черное";"Агрогородок, 6";"143921";="+74955226166";"";"http://dk-raduga.ru";"https://vk.com/sdk_raduga";"";"38.047055";"55.744445";"Досуг / Развлечения / Общественное питание";"Дома / дворцы культуры"
"193";"Металлург, дом культуры";"Подольск";"Горького, 5";"142155";="+74967606942";"";"http://www.metallurg-dk.ru";"";"";"37.525087";"55.311656";"Досуг / Развлечения / Общественное питание";"Дома / дворцы культуры"
"194";"Чайка, дворец культуры";"Лобня";"Дружбы, 3а";"141732";="+74955770535, +74955771545";"";"http://www.dkchaika.ru";"https://vk.com/dkchaika";"";"37.467396";"56.009163";"Досуг / Развлечения / Общественное питание";"Дома / дворцы культуры"
"195";"Дом ученых, ЦАГИ";"Жуковский";"Жуковского, 7";"140181";="+74955564185, +74955564735, +74984847131";"";"http://duts.tsagi.ru";"https://vk.com/club42719325";"";"38.117471";"55.598942";"Досуг / Развлечения / Общественное питание";"Дома / дворцы культуры"
"196";"Мечта, центр культуры и досуга";"Орехово-Зуево";"Набережная, 9а";"142613";="+74964251136, +74964251393";"";"http://mechta-oz.ru";"https://vk.com/mukckd";"";"38.999974";"55.817994";"Досуг / Развлечения / Общественное питание";"Дома / дворцы культуры"
"197";"Бригантина, дом культуры";"Москва";"Филёвский бульвар, 11а";"121601";="+74957382064";"";"";"";"";"37.484741";"55.765604";"Досуг / Развлечения / Общественное питание";"Дома / дворцы культуры"
"198";"Павлово-Покровский, дворец культуры";"Павловский Посад";"Большая Покровская, 37";"142500";="+74964321560, +74964320091";"";"";"";"";"38.653247";"55.771149";"Досуг / Развлечения / Общественное питание";"Дома / дворцы культуры"
"199";"Горки-10, дом культуры";"пос. Горки-10";"Горки-10 посёлок, 25а";"143032";="+74956340577";"";"http://dk-gorki10.ru";"";"";"37.020742";"55.704958";"Досуг / Развлечения / Общественное питание";"Дома / дворцы культуры"
"200";"Полет, Долгопрудненский культурно-досуговый центр";"Долгопрудный";"Флотская, 1";"141703";="+74986851000, +74954082336";"";"http://dolpolet.ru";"https://vk.com/dk.vodnik";"";"37.506338";"55.960938";"Досуг / Развлечения / Общественное питание";"Дома / дворцы культуры"
"201";"Бирюлево, дом культуры";"Москва";"Ряжская, 13 к1";"115404";="+79057057000";"";"http://www.dom-kultury.su";"";"";"37.670499";"55.59025";"Досуг / Развлечения / Общественное питание";"Дома / дворцы культуры"
"202";"Марфино, центр культуры и досуга";"с. Марфино";"Ильинская, 28";"141052";="+74986863425, +74986863426";"";"http://dkmarfino.ru";"https://vk.com/dkmarfino";"";"37.547626";"56.074652";"Досуг / Развлечения / Общественное питание";"Дома / дворцы культуры"
"203";"Химик, дворец культуры им. Н.И. Докторова";"Воскресенск";"площадь Ленина, 1";"140200";="+74964421720, +74964425600, +74964420121";"";"http://dkdok.ru";"https://vk.com/dkdocximik";"";"38.671279";"55.322355";"Досуг / Развлечения / Общественное питание";"Дома / дворцы культуры"
"204";"Загорье, культурный центр";"Москва";"Загорьевская, 1";"115372";="+74993233311, +74953298593";"";"http://www.kczagorie.ru";"https://vk.com/club_zagorie";"";"37.673773";"55.581785";"Досуг / Развлечения / Общественное питание";"Дома / дворцы культуры"
"205";"Машиностроитель, дом культуры";"Подольск";"улица Ленина, 20";"142180";="+74967621052, +74967623479";"";"";"";"";"37.520225";"55.358759";"Досуг / Развлечения / Общественное питание";"Дома / дворцы культуры"
"206";"Купина, районный культурный центр им. Л.Я. Жук";"рп. Нахабино";"Чкалова, 6";"143432";="+74959921771";"";"";"";"";"37.184183";"55.838566";"Досуг / Развлечения / Общественное питание";"Дома / дворцы культуры"
"207";"Дворец творчества молодежи";"Подольск";"Павлика Морозова, 69";"142106";="+74967638667, +74967699483";"";"";"";"";"37.545664";"55.446906";"Досуг / Развлечения / Общественное питание";"Дома / дворцы культуры"
"208";"Лепсе, городской центр народного творчества и досуга";"Солнечногорск";"Красная улица, 113";"141503";="+74962623311";"";"http://lepse.mo.muzkult.ru";"";"";"36.970835";"56.19123";"Досуг / Развлечения / Общественное питание";"Дома / дворцы культуры"
"209";"Чеховский культурный центр";"Москва";"Страстной бульвар, 6 ст2";"125009";="+74956290131, +74956928397";"";"http://chehovka.ru";"";"";"37.609149";"55.765716";"Досуг / Развлечения / Общественное питание";"Дома / дворцы культуры"
"210";"Нефтяник, дом культуры";"Долгопрудный";"Нефтяников, 6";"141727";="+79263562511";"";"";"";"";"37.475743";"55.975184";"Досуг / Развлечения / Общественное питание";"Дома / дворцы культуры"
"211";"Троицкий Дом ученых";"Троицк";"Октябрьский проспект, 9Б";"108840";="+74958512223, +74958512277";"";"http://du.troitsk.ru";"https://vk.com/du_troitsk";"";"37.295213";"55.475806";"Досуг / Развлечения / Общественное питание";"Дома / дворцы культуры"
"212";"Культурный центр им. Н.П. Васильева";"Электросталь";"Карла Маркса, 7";"144001";="+74965790048, +74965790512, +74965790047";"";"http://kcvasileva.ru";"https://vk.com/kc_vasileva";"";"38.466249";"55.792256";"Досуг / Развлечения / Общественное питание";"Дома / дворцы культуры"
"213";"Дворец молодежи";"Мытищи";"Силикатная, 12";"141006";="+74986872655, +74986872654";"";"";"https://vk.com/dm_mytishchi";"";"37.774567";"55.927811";"Досуг / Развлечения / Общественное питание";"Дома / дворцы культуры"
"214";"Северный, культурный центр";"Москва";"3-я Северная линия, 17";"127204";="+74997676780";"";"http://www.dk-sever.ru";"https://vk.com/dkseverniy";"";"37.55336";"55.940084";"Досуг / Развлечения / Общественное питание";"Дома / дворцы культуры"
"215";"Дом культуры им. А.В. Луначарского";"Москва";"Сельскохозяйственная улица, 24";"129226";="";"";"";"";"";"37.641687";"55.836994";"Досуг / Развлечения / Общественное питание";"Дома / дворцы культуры"
"216";"Поведники, дом культуры";"пос. Поведники";"посёлок Поведники, 1Б";"141044";="+74956379357";"";"http://ck-podmoskovie.ru/struktura/povedniki";"";"";"37.607373";"55.979329";"Досуг / Развлечения / Общественное питание";"Дома / дворцы культуры"
"217";"Неоткрытые острова, дворец творчества детей и молодежи";"Москва";"улица Мещерякова, 2 к2";"125362";="+74957519994, +74954917116";"";"http://dtdim.mskobr.ru";"https://vk.com/dtdim.ostrova";"";"37.451531";"55.833497";"Досуг / Развлечения / Общественное питание";"Дома / дворцы культуры"
"218";"Гайдаровец, дом культуры";"Москва";"Земляной Вал улица, 24/32";"105064";="+79164551431, +74959162532, +74959161313";"";"http://okccao.ru";"https://vk.com/dkgaidarovec";"";"37.655659";"55.757393";"Досуг / Развлечения / Общественное питание";"Дома / дворцы культуры"
"219";"Оптимист, культурный центр";"Москва";"3-й Сетуньский проезд, 13/18";"119136";="+74954332374";"";"http://optimistclub.ru";"https://vk.com/ksoptimist";"";"37.533698";"55.732007";"Досуг / Развлечения / Общественное питание";"Дома / дворцы культуры"
"220";"Смена, дом культуры";"Москва";"Корнейчука, 38Б";"127543";="+74992055965";"";"http://dksmena.ru";"https://vk.com/dksmena";"";"37.627078";"55.897453";"Досуг / Развлечения / Общественное питание";"Дома / дворцы культуры"
"221";"Неоткрытые острова, дворец творчества детей и молодежи";"Москва";"улица Свободы, 89 ст5";"125481";="+74957519994, +74957536105";"";"http://dtdim.mskobr.ru";"https://vk.com/dtdim.ostrova";"";"37.442039";"55.866281";"Досуг / Развлечения / Общественное питание";"Дома / дворцы культуры"
"222";"Плещеево, дом культуры";"Подольск";"Плещеевская, 38";"142101";="+74967580298";"";"http://дкплещеево.рф";"https://vk.com/dkplesheevo";"";"37.574625";"55.456732";"Досуг / Развлечения / Общественное питание";"Дома / дворцы культуры"
"223";"Современник, дом культуры";"пос. Лесные Поляны";"Центральная улица, 2";"141212";="+74955130049";"";"http://tdksovremennik.ru";"https://vk.com/tdksovremennik";"";"37.863929";"55.958582";"Досуг / Развлечения / Общественное питание";"Дома / дворцы культуры"
"224";"Дом культуры им. 1 Мая";"Подольск";"улица Заводская, 3";"142181";="+74967604040";"";"http://Домкультуры1мая.рф";"https://vk.com/dk_1maya";"";"37.545935";"55.379098";"Досуг / Развлечения / Общественное питание";"Дома / дворцы культуры"
"225";"Медвежье-Озёрский, дом культуры";"д. Медвежьи Озёра";"Юбилейная, 5";"141143";="+74965693254, +74965693240, +74965693123";"";"http://cks-ozera.mo.muzkult.ru";"https://vk.com/medvezhki";"";"37.988982";"55.867988";"Досуг / Развлечения / Общественное питание";"Дома / дворцы культуры"
"226";"Лунево, дом культуры";"пос. Лунёво";"посёлок Лунёво, 20";"141580";="+79262228830";"";"http://dk-lunevo.mo.muzkult.ru";"https://vk.com/dklunevo";"";"37.343742";"55.994574";"Досуг / Развлечения / Общественное питание";"Дома / дворцы культуры"
"227";"Молодежный, культурно-досуговый центр";"с. Юдино";"шоссе Успенское 1-е, 2а";"143081";="+74955988900";"";"http://kdc-molodezhny.mo.muzkult.ru";"https://vk.com/club43243449";"";"37.182995";"55.662392";"Досуг / Развлечения / Общественное питание";"Дома / дворцы культуры"
"228";"Дедовский, дом культуры";"Дедовск";"Гагарина, 14";"143530";="+74983178824";"";"http://www.dedovskdk.com";"https://vk.com/dedovskdk";"";"37.120282";"55.859949";"Досуг / Развлечения / Общественное питание";"Дома / дворцы культуры"
"229";"Киевский, культурный центр";"рп. Киевский";"Киевский посёлок, 16а";"108800";="+74951233214";"";"http://www.kievsky.space";"https://vk.com/kievskyspace";"";"36.867775";"55.429424";"Досуг / Развлечения / Общественное питание";"Дома / дворцы культуры"
"230";"АртНах, арт-резиденция";"рп. Нахабино";"Панфилова, 24Б";"143432";="";"";"http://www.artnah.ru";"";"";"37.176856";"55.833504";"Досуг / Развлечения / Общественное питание";"Дома / дворцы культуры"
"231";"Юбилейный, дом культуры";"Королёв";"М.К. Тихонравова, 19";"141091";="+74955676510, +74986984052";"";"";"https://vk.com/dk_ybileyny";"";"37.833488";"55.937996";"Досуг / Развлечения / Общественное питание";"Дома / дворцы культуры"
"232";"Глухово, центр культуры и творчества";"Ногинск";"Краснослободская, 2в";"142403";="+79778342319, +74965173202";"";"";"";"";"38.465674";"55.878744";"Досуг / Развлечения / Общественное питание";"Дома / дворцы культуры"
"233";"Суханово, дом творчества";"рп. Лопатино";"Расторгуевское шоссе, 5";"142702";="+79166364889";"";"";"";"";"37.653625";"55.531084";"Досуг / Развлечения / Общественное питание";"Дома / дворцы культуры"
"234";"Гайдаровец, дом культуры";"Москва";"Яковоапостольский переулок, 15";"105064";="+79164551431, +74959161313";"";"http://okccao.ru";"https://vk.com/dkgaidarovec";"";"37.656137";"55.759109";"Досуг / Развлечения / Общественное питание";"Дома / дворцы культуры"
"235";"Загорье, культурный центр";"Москва";"Кантемировская улица, 4 к2";"115304";="+74993233311";"";"http://www.kczagorie.ru";"https://vk.com/club_zagorie";"";"37.681019";"55.63799";"Досуг / Развлечения / Общественное питание";"Дома / дворцы культуры"
"236";"Оптимист, культурный центр";"Москва";"улица Лобачевского, 100";"119607";="+74959327830";"";"http://optimistclub.ru";"https://vk.com/ksoptimist";"";"37.482318";"55.684972";"Досуг / Развлечения / Общественное питание";"Дома / дворцы культуры"
"237";"Алые паруса, культурный центр";"Москва";"Вилиса Лациса, 3 к1";"125480";="+74997620251";"";"http://dk-alyeparusa.ru";"https://vk.com/public51786110";"";"37.430733";"55.864847";"Досуг / Развлечения / Общественное питание";"Дома / дворцы культуры"
"238";"Дом культуры им. К. Маркса";"Подольск";"Большая Зеленовская, 50";"142100";="+74967693363, +74967693365";"";"http://kulturakm.ru";"https://vk.com/kulturakm";"";"37.544202";"55.434472";"Досуг / Развлечения / Общественное питание";"Дома / дворцы культуры"
"239";"Мир, деловой комплекс";"Реутов";"Победы, 20";"143960";="+74955281740, +74955281757, +74955281746";"";"http://www.dkreutov.ru";"";"";"37.853188";"55.765455";"Досуг / Развлечения / Общественное питание";"Дома / дворцы культуры"
"240";"Троицкий центр культуры и творчества";"Троицк";"Сиреневый бульвар, 1";"108840";="+74958511000, +74958510768, +74958512000";"";"http://www.sirenevy1.ru";"";"";"37.296499";"55.468348";"Досуг / Развлечения / Общественное питание";"Дома / дворцы культуры"
"241";"Дворец культуры им. В.П. Чкалова";"Щёлково";"Супруна, 3";"141103";="+74962539575, +74962530989";"";"http://dk-im-chkalova.mo.muzkult.ru/";"https://vk.com/dk_im_chkalova";"";"38.060849";"55.904252";"Досуг / Развлечения / Общественное питание";"Дома / дворцы культуры"
"242";"Луговая, дом культуры";"Лобня";"Научный городок, ст1Б";"141055";="+74955777476, +74955777937";"";"http://dklug.mo.muzkult.ru";"https://vk.com/dklugovaya";"";"37.486146";"56.047178";"Досуг / Развлечения / Общественное питание";"Дома / дворцы культуры"
"243";"Саввино, дом культуры";"Балашиха";"Победы, 2а";"143920";="+74955278585";"";"http://www.dksavvino.ru";"https://vk.com/dk_savvino";"";"38.129434";"55.746507";"Досуг / Развлечения / Общественное питание";"Дома / дворцы культуры"
"244";"Дом офицеров";"Краснознаменск";"площадь Ленина, 1";"143090";="+74955901896, +74955902345, +79670513578";"";"http://do-kz.ru";"https://vk.com/public179795128";"";"37.042609";"55.600872";"Досуг / Развлечения / Общественное питание";"Дома / дворцы культуры"
"245";"Истринский дом культуры";"Истра";"Первомайская, 3";"143500";="+74983149501, +74959945604";"";"http://www.istrakdk.ru";"https://vk.com/kdkistra";"";"36.857448";"55.916574";"Досуг / Развлечения / Общественное питание";"Дома / дворцы культуры"
"246";"Тимоново, культурно-досуговый центр";"Солнечногорск";"Подмосковная, 50";"141507";="+74959941576";"";"http://www.sun-culture.ru/182/649";"https://vk.com/public201284476";"";"37.024923";"56.215639";"Досуг / Развлечения / Общественное питание";"Дома / дворцы культуры"
"247";"Красный электрик, культурный центр";"Ногинск";"Энергетиков, 8";"142408";="+74965193553";"";"http://dk-krasnyiel.ru";"https://vk.com/centr_kultury_krasnyiel";"";"38.481379";"55.831478";"Досуг / Развлечения / Общественное питание";"Дома / дворцы культуры"
"248";"Дом Культуры пос. Воровского";"рп. им. Воровского";"Сергеева, 2";"142460";="+74965137235";"";"http://дкворовского.рф";"https://vk.com/dkvorovskogo";"";"38.332321";"55.723448";"Досуг / Развлечения / Общественное питание";"Дома / дворцы культуры"
"249";"Цементник, дворец культуры";"Воскресенск";"Чапаева, 1";"140203";="+74964433263, +74964433236";"";"http://cementnik.com";"https://vk.com/club12033663";"";"38.757603";"55.253708";"Досуг / Развлечения / Общественное питание";"Дома / дворцы культуры"
"250";"Дулёвский, культурно-досуговый центр";"Ликино-Дулёво";"Ленина, 1";"142670";="+74964140411, +74964140237, +79258358663";"";"http://kdcdulevsky.ru";"";"";"38.958347";"55.706207";"Досуг / Развлечения / Общественное питание";"Дома / дворцы культуры, Интересные здания"
"251";"Дворец культуры им. Г. Конина";"Егорьевск";"Советская, 174";"140300";="+74964031553, +74964043468, +74964066855, +74964066850, +74964040864";"";"http://dk-konina.ru";"https://vk.com/dk.konina";"";"39.046388";"55.375859";"Досуг / Развлечения / Общественное питание";"Дома / дворцы культуры"
"252";"ЦДК Строитель";"Пушкино";"Вокзальная, 15";"141254";="+74965311459";"";"";"";"";"37.855228";"56.044517";"Досуг / Развлечения / Общественное питание";"Дома / дворцы культуры"
"253";"Модуль, досуговый центр";"Домодедово";"Каширское шоссе, 107 ст7";"142004";="+79257117179";"";"";"https://vk.com/modul_dmd";"";"37.778627";"55.42067";"Досуг / Развлечения / Общественное питание";"Дома / дворцы культуры"
"254";"Гармония, дом культуры";"Белоозёрский";"Молодёжная, 34";"140250";="+74964451900";"";"";"https://vk.com/public135784832";"";"38.439906";"55.458933";"Досуг / Развлечения / Общественное питание";"Дома / дворцы культуры"
"255";"Рассвет, сельский центр культуры и досуга";"д. Соболиха";"Новослободская, 15";"143985";="+74955222781";"";"http://dcrassbet.ucoz.ru";"";"";"38.043074";"55.723018";"Досуг / Развлечения / Общественное питание";"Дома / дворцы культуры"
"256";"Ямкино, сельский дом культуры";"с. Ямкино";"Центральная усадьба, 43";"142430";="+74965127010, +74965127130";"";"http://dk-yamkino.ru";"https://vk.com/sdkyamkino";"";"38.393559";"55.930099";"Досуг / Развлечения / Общественное питание";"Дома / дворцы культуры"
"257";"Центр культуры им. Г.В. Калиниченко";"Ногинск";"Воздушных Десантников, 22";"142400";="+74965142202, +74965114550";"";"http://radoku.wixsite.com/mcki";"";"";"38.438202";"55.851937";"Досуг / Развлечения / Общественное питание";"Дома / дворцы культуры"
"258";"Алексеевский, дом культуры";"Москва";"Большая Марьинская, 15 к2 ст2";"129085";="+79299560508, +74956424403";"";"";"";"";"37.633338";"55.808145";"Досуг / Развлечения / Общественное питание";"Дома / дворцы культуры"
"259";"Дом культуры им. В.И. Ленина";"Красноармейск";"улица Спортивная, 5а";"141292";="+74965382727, +79295424032";"";"http://dklenin.ru";"https://vk.com/maykdklenina";"";"38.140971";"56.120229";"Досуг / Развлечения / Общественное питание";"Дома / дворцы культуры"
"260";"Восток, арт-кластер";"Москва";"Западная улица, 1";"105173";="+74997801638, +74997805951";"";"http://art-vostok.ru";"https://vk.com/public57760344";"";"37.858885";"55.819501";"Досуг / Развлечения / Общественное питание";"Дома / дворцы культуры"
"261";"Культурный центр";"Москва";"улица Академика Королёва, 8 к1";"129515";="+74993482149";"";"http://www.culturcenter.ru";"https://vk.com/culturcenter8k1";"";"37.624652";"55.822898";"Досуг / Развлечения / Общественное питание";"Дома / дворцы культуры"
"262";"Московский многофункциональный культурный центр, ММЦК на Коминтерна";"Москва";"Коминтерна, 11/7";"129327";="+74954714566";"";"http://m-c-m-c.ru";"https://vk.com/mcmc_ru";"";"37.679197";"55.864472";"Досуг / Развлечения / Общественное питание";"Дома / дворцы культуры"
"263";"Восток, арт-кластер";"Москва";"бульвар Маршала Рокоссовского, 3";"107370";="+74991683178";"";"http://art-vostok.ru";"https://vk.com/public57760344";"";"37.72583";"55.809001";"Досуг / Развлечения / Общественное питание";"Дома / дворцы культуры"
"264";"Берендей, дом культуры";"Москва";"улица Народного Ополчения, 12 к3";"123423";="+74959470664";"";"http://dkberendey.ru";"https://vk.com/dkberendey";"";"37.478458";"55.772059";"Досуг / Развлечения / Общественное питание";"Дома / дворцы культуры"
"265";"Оптимист, культурный центр";"Москва";"проспект Вернадского, 89 к4";"119526";="+74954332374";"";"http://optimistclub.ru";"https://vk.com/ksoptimist";"";"37.500794";"55.665052";"Досуг / Развлечения / Общественное питание";"Дома / дворцы культуры"
"266";"Сокол, центр культуры и досуга";"д. Федурново";"улица Авиарембаза, 7а";"143921";="+74955224010";"";"http://dk-raduga.ru";"https://vk.com/dk.sokol";"";"38.055499";"55.758676";"Досуг / Развлечения / Общественное питание";"Дома / дворцы культуры"
"267";"Буревестник, дом культуры";"с. Молоково";"Революционная, 161 к1";"142714";="+74987879279, +74987879276";"";"http://burevestnik.mo.muzkult.ru";"https://vk.com/dk_burevestnik";"";"37.872033";"55.561951";"Досуг / Развлечения / Общественное питание";"Дома / дворцы культуры"
"268";"Быково, дом культуры";"рп. Быково";"Прудовая, 41Б";"140150";="+74964621783, +79035315645";"";"http://dkbykovo.mo.muzkult.ru";"";"";"38.076739";"55.629191";"Досуг / Развлечения / Общественное питание";"Дома / дворцы культуры"
"269";"Луч, дом культуры";"с. Петрово-Дальнее";"Школьная улица, 24";"143422";="+74955612267";"";"http://дклуч.рф";"https://vk.com/mbuk_dkluch";"";"37.166778";"55.747282";"Досуг / Развлечения / Общественное питание";"Дома / дворцы культуры"
"270";"Дом культуры им. К.Маркса";"Электросталь";"Карла Маркса, 9";"144001";="+74965773504, +74965773655";"";"http://dkmarksa.ru";"https://vk.com/dkmarksa";"";"38.464057";"55.794071";"Досуг / Развлечения / Общественное питание";"Дома / дворцы культуры"
"271";"Объединение культурных центров центрального административного округа";"Москва";"Волгоградский проспект, 7";"109316";="+74956705856, +74956701038, +74956706320";"";"";"https://vk.com/dkstimul";"";"37.673931";"55.731622";"Досуг / Развлечения / Общественное питание";"Дома / дворцы культуры"
"272";"Феникс, культурный центр";"Москва";"улица Маршала Василевского, 1 к1";"123098";="";"";"http://club-fenix.ru";"https://vk.com/club_fenixcc";"";"37.474973";"55.802488";"Досуг / Развлечения / Общественное питание";"Дома / дворцы культуры, Аренда площадок для культурно-массовых мероприятий, Конференц-залы / Переговорные комнаты, Концертные залы"
"273";"Культурный центр, ГБУК г. Москвы";"Москва";"посёлок Акулово, 25";"105173";="+74956176414";"";"";"https://vk.com/klasterakulovo";"";"37.797614";"56.005658";"Досуг / Развлечения / Общественное питание";"Дома / дворцы культуры, Аренда площадок для культурно-массовых мероприятий, Концертные залы"
"274";"Клёново, дом культуры";"с. Кленово";"Центральная, 3";"108829";="+74958656383";"";"";"https://vk.com/public121522071";"";"37.345466";"55.323987";"Досуг / Развлечения / Общественное питание";"Дома / дворцы культуры"
"275";"МБУ Культурный Обухово, культурный центр";"рп. Обухово";"Советская, 25";"142440";="+74965122733, +74965122770";"";"http://кц-обухово.рф";"https://vk.com/kcobuhovo";"";"38.26911";"55.832566";"Досуг / Развлечения / Общественное питание";"Дома / дворцы культуры"
"276";"Объединение культурных центров восточного административного округа";"Москва";"13-я Парковая улица, 4";"105203";="+74991629757";"";"http://cbs-vao.ru";"";"";"37.812899";"55.794389";"Досуг / Развлечения / Общественное питание";"Дома / дворцы культуры"
"277";"Центр досуга Картино";"д. Картино";"деревня Картино, 73/1";"142717";="+74986573233, +79057309336";"";"http://cd-kartino.mo.muzkult.ru";"";"";"37.787667";"55.585862";"Досуг / Развлечения / Общественное питание";"Дома / дворцы культуры"
"278";"Культурный центр им. И.М. Астахова";"Москва";"улица Верхние Поля, 38 к1";"109451";="";"";"http://ccart.moscow/osp";"";"";"37.770831";"55.666921";"Досуг / Развлечения / Общественное питание";"Дома / дворцы культуры"
"279";"Спутник, городской дом культуры";"Щёлково";"Неделина, 18а";"141107";="+74965663692";"";"";"";"";"37.977159";"55.944489";"Досуг / Развлечения / Общественное питание";"Дома / дворцы культуры"
"280";"Заря, дом культуры";"с. Растуново";"Заря, 33";"142062";="+74967961405";"";"";"";"";"37.841247";"55.274884";"Досуг / Развлечения / Общественное питание";"Дома / дворцы культуры"
"281";"Дом музыки, дп. Кратово";"дп. Кратово";"Старомосковская, 63/15";"140130";="+79091656111, +79684969926";"";"";"https://vk.com/public199160024";"";"38.150915";"55.60445";"Досуг / Развлечения / Общественное питание";"Дома / дворцы культуры"
"282";"Огонек, дом культуры";"с. Введенское";"село Введенское, 156а ст1";"143069";="+74986906639";"";"";"https://vk.com/public156152389";"";"36.886047";"55.697741";"Досуг / Развлечения / Общественное питание";"Дома / дворцы культуры"
"283";"Успенский, дом культуры";"с. Успенское";"Учительская, 40а";"143030";="";"";"";"";"";"37.069559";"55.715184";"Досуг / Развлечения / Общественное питание";"Дома / дворцы культуры"
"284";"Быково, дом культуры";"рп. Быково";"Чапаева, 2";"140150";="+74964621783, +79035315645";"";"http://dkbykovo.mo.muzkult.ru";"";"";"38.085478";"55.643197";"Досуг / Развлечения / Общественное питание";"Дома / дворцы культуры"
"285";"Гайдаровец, дом культуры";"Москва";"Новослободская, 73 ст1";"127055";="+79164551431";"";"http://okccao.ru";"https://vk.com/dkgaidarovec";"";"37.590022";"55.7903";"Досуг / Развлечения / Общественное питание";"Дома / дворцы культуры"
"286";"Нагатино, дом культуры";"Москва";"Судостроительная, 28 к1";"115407";="+74996166066";"";"http://www.nagati.ru";"https://vk.com/dknagatino";"";"37.685432";"55.682347";"Досуг / Развлечения / Общественное питание";"Дома / дворцы культуры"
"287";"Каравелла, дом культуры";"Москва";"Олеко Дундича, 39 к2";"121108";="+74991466525";"";"http://www.tks-fili.ru";"https://vk.com/filidavidkovo";"";"37.480469";"55.737169";"Досуг / Развлечения / Общественное питание";"Дома / дворцы культуры"
"288";"Берендей, дом культуры";"Москва";"улица Народного Ополчения, 12 к4";"123423";="+74959470664";"";"http://dkberendey.ru";"https://vk.com/dkberendey";"";"37.479711";"55.771902";"Досуг / Развлечения / Общественное питание";"Дома / дворцы культуры"
"289";"Берендей, дом культуры";"Москва";"улица Народного Ополчения, 4";"123423";="+74959470664";"";"http://dkberendey.ru";"https://vk.com/dkberendey";"";"37.476419";"55.770105";"Досуг / Развлечения / Общественное питание";"Дома / дворцы культуры"
"290";"Оптимист, культурный центр";"Москва";"Мичуринский проспект, 54 к3";"119192";="+74959326948";"";"http://optimistclub.ru";"https://vk.com/ksoptimist";"";"37.488209";"55.694621";"Досуг / Развлечения / Общественное питание";"Дома / дворцы культуры"
"291";"Планета, дом культуры";"Москва";"Очаковское шоссе, 21 к2";"119530";="+74954419500, +79267626433, +79776295977";"";"http://tksplaneta.mos.ru";"https://vk.com/tksplaneta";"";"37.451921";"55.690586";"Досуг / Развлечения / Общественное питание";"Дома / дворцы культуры"
"292";"Центр культуры, пос. совхоза им. Ленина";"пос. совхоза им. Ленина";"посёлок совхоза им. Ленина, 18Б";"142715";="+74955486781, +74955488683, +74955486783";"";"http://dksovhoz.ru";"https://vk.com/sovhoz.culture";"";"37.730027";"55.585062";"Досуг / Развлечения / Общественное питание";"Дома / дворцы культуры"
"293";"Пироговский, дом культуры";"д. Пирогово";"Школьная, 1а";"141033";="+74955881966";"";"http://ck-podmoskovie.ru";"https://vk.com/dkpodmoskovie";"";"37.729769";"55.98097";"Досуг / Развлечения / Общественное питание";"Дома / дворцы культуры"
"294";"Леонидовка, культурно-информационный центр";"Мытищи";"2-й Щёлковский проезд, 7";"141007";="+74955835210";"";"http://leonidovka.kulturammr.ru";"https://vk.com/leonidowka";"";"37.784203";"55.92141";"Досуг / Развлечения / Общественное питание";"Дома / дворцы культуры"
"295";"Люберецкий дворец культуры, центр культуры и отдыха";"Люберцы";"3 Почтовое отделение, 30 ст1";"140003";="+74955590594, +74955016357";"";"http://l-d-k.ru";"";"";"37.876807";"55.680754";"Досуг / Развлечения / Общественное питание";"Дома / дворцы культуры"
"296";"Внуково, культурный центр";"Москва";"Авиаконструктора Петлякова, 13";"108850";="+74951090300, +74951090570";"";"http://www.ccvnukovo.ru";"https://vk.com/cc.vnukovo";"";"37.305844";"55.620623";"Досуг / Развлечения / Общественное питание";"Дома / дворцы культуры"
"297";"Ватутинки, культурный центр";"Москва";"6-я Нововатутинская улица, 3 к2";"108836";="+74958415098";"";"http://www.vatutinki-kultura.ru";"https://vk.com/vatutinkikultura";"";"37.354232";"55.515834";"Досуг / Развлечения / Общественное питание";"Дома / дворцы культуры"
"298";"Дом культуры";"Химки";"Речная, 20";"141441";="+74955740288";"";"http://domkulturi-khimki.ru";"https://vk.com/dkfirsanovka";"";"37.272198";"55.963561";"Досуг / Развлечения / Общественное питание";"Дома / дворцы культуры"
"299";"Заречный, дом культуры";"Щёлково";"Пролетарский проспект, 11";"141109";="+74965621990";"";"http://dk-im-chkalova.mo.muzkult.ru";"https://vk.com/gdk.zarechny";"";"37.998794";"55.925507";"Досуг / Развлечения / Общественное питание";"Дома / дворцы культуры"
"300";"Троицкий центр культуры и творчества";"Троицк";"Сиреневый бульвар, 2";"108840";="+74958511000";"";"http://ktc.newshow.ru";"";"";"37.297333";"55.468838";"Досуг / Развлечения / Общественное питание";"Дома / дворцы культуры"
"301";"Сириус, дом культуры";"рп. Лесной";"Школьная, 7";"141231";="+74965370157, +74965370158";"";"http://дк-сириус.рф";"https://vk.com/dksirius1";"";"37.932235";"56.063482";"Досуг / Развлечения / Общественное питание";"Дома / дворцы культуры"
"302";"Андреевка, дом культуры";"рп. Андреевка";"Староандреевская улица, 59";"141551";="+74995042909";"";"http://www.mukandreevka.ru";"https://vk.com/dkandreevka";"";"37.132035";"55.979719";"Досуг / Развлечения / Общественное питание";"Дома / дворцы культуры"
"303";"Чеховский городской дом культуры";"Чехов";"Гагарина, 15";"142304";="+74967276627";"";"http://chekhovtheatre.ru";"https://vk.com/chekhovtheatrevk";"";"37.423719";"55.170543";"Досуг / Развлечения / Общественное питание";"Дома / дворцы культуры"
"304";"Испытатель, дом культуры";"Солнечногорск";"Центральная, 20";"141504";="+74962623758";"";"http://dk-ispytatel.mo.muzkult.ru";"https://vk.com/club157681916";"";"36.956149";"56.167682";"Досуг / Развлечения / Общественное питание";"Дома / дворцы культуры"
"305";"Филимоновский, дом культуры";"Павловский Посад";"1 Мая, 66";"142506";="+74964325414";"";"http://dk.filimonovskiy.ru";"https://vk.com/club124772662";"";"38.617734";"55.781625";"Досуг / Развлечения / Общественное питание";"Дома / дворцы культуры"
"306";"Буньковский сельский дом культуры";"д. Большое Буньково";"микрорайон Фабрики, 37а";"142438";="+79267063906";"";"http://bsksk.mo.muzkult.ru";"https://vk.com/club157407086";"";"38.598526";"55.851006";"Досуг / Развлечения / Общественное питание";"Дома / дворцы культуры"
"307";"Дом культуры на площади Пушкина";"Орехово-Зуево";"Урицкого 1-й проезд, 4";"142605";="+74964224422";"";"http://dk.mosreg.ru/dk/na-pushkina";"https://vk.com/dk_na_pushkina";"";"38.97097";"55.816962";"Досуг / Развлечения / Общественное питание";"Дома / дворцы культуры"
"308";"Дом культуры на площади Пушкина";"Орехово-Зуево";"улица Галочкина, 6";"142605";="+74964221602";"";"http://dk-pushkina.ru";"";"";"38.97767";"55.81465";"Досуг / Развлечения / Общественное питание";"Дома / дворцы культуры"
"309";"Цементник, дом культуры";"Коломна";"Советская, 60а";"140414";="+74966139257";"";"http://dkcementnik.mo.muzkult.ru";"https://vk.com/dk_cementnik_kolomna";"";"38.844428";"55.052242";"Досуг / Развлечения / Общественное питание";"Дома / дворцы культуры"
"310";"Чулковский, дом культуры";"пос. им. Тельмана";"посёлок Тельмана, 15а";"140125";="";"";"http://dk-chulkovo.mo.muzkult.ru";"";"";"38.039938";"55.562879";"Досуг / Развлечения / Общественное питание";"Дома / дворцы культуры"
"311";"Авиатор, центр культуры и досуга";"Домодедово";"площадь Гагарина, 1";"142007";="+74967925355, +74967925356, +74967927204";"";"";"";"";"37.836465";"55.414754";"Досуг / Развлечения / Общественное питание";"Дома / дворцы культуры"
"312";"Михневский дом культуры";"рп. Михнево";"Московская, 26";"142842";="";"";"http://mbukktc-mihnevskiydk.simplesite.com";"https://vk.com/clubmihnevodk";"";"37.945303";"55.122457";"Досуг / Развлечения / Общественное питание";"Дома / дворцы культуры"
"313";"Загорянский, дом культуры";"дп. Загорянский";"улица Сергея Лазо, ст7";"141181";="+74965631294, +74962501018";"";"";"https://vk.com/proryv50";"";"37.939075";"55.907597";"Досуг / Развлечения / Общественное питание";"Дома / дворцы культуры"
"314";"Островецкий, дом культуры";"д. Островцы";"Молодёжная, 45";"140125";="+79999025525";"";"";"";"";"37.979751";"55.60133";"Досуг / Развлечения / Общественное питание";"Дома / дворцы культуры"
"315";"Губкинец, дворец культуры";"Москва";"Ленинский проспект, 65 к4";"119296";="+74995078010";"";"http://gubkin.ru/university_life/dk/index.php";"";"";"37.556449";"55.690999";"Досуг / Развлечения / Общественное питание";"Дома / дворцы культуры"
"316";"Центр культуры и досуга";"Киржач";"Островского, 32";"601012";="+74923724951";"";"";"";"";"38.878137";"56.141967";"Досуг / Развлечения / Общественное питание";"Дома / дворцы культуры"
"317";"Гармония, культурный центр";"Москва";"Дубнинская, 73а";"127591";="+74994810139";"";"http://garmos.ru";"";"";"37.556769";"55.882802";"Досуг / Развлечения / Общественное питание";"Дома / дворцы культуры"
"318";"Новосельцево, дом культуры";"д. Новосельцево";"Центральная, 83";"141051";="+79268665876, +79266700153";"";"http://dkmarfino.ru/kontakty-novoselsevo/";"";"";"37.58675";"56.006699";"Досуг / Развлечения / Общественное питание";"Дома / дворцы культуры"
"319";"Дом космонавтов";"пос. Звездный городок";"Звёздный городок посёлок, 7";"141160";="+74989502936";"";"http://dkzg.ru";"";"";"38.105478";"55.877711";"Досуг / Развлечения / Общественное питание";"Дома / дворцы культуры"
"320";"Ровесник, сельский дом культуры";"д. Съяново-2";"";"";="";"";"http://rai-kult.ru";"";"";"";"";"Досуг / Развлечения / Общественное питание";"Дома / дворцы культуры"
"321";"Дом культуры";"рп. Фряново";"площадь Ленина, 8";"141146";="+74965635223";"";"http://fryanovo-cks.ru";"https://vk.com/public90108765";"";"38.446606";"56.134926";"Досуг / Развлечения / Общественное питание";"Дома / дворцы культуры"
"322";"Всеволодово, сельский дом культуры";"д. Всеволодово";"посёлок Ногинск-5, 36";"142405";="";"";"";"https://vk.com/n5club";"";"38.48246";"55.703897";"Досуг / Развлечения / Общественное питание";"Дома / дворцы культуры"
"323";"Алфимовский дом культуры";"д. Алфимово";"Новосёлов, 20";"142860";="+74966459310";"";"http://ktc-alfimovskijdk.nethouse.ru";"";"";"38.337252";"55.112053";"Досуг / Развлечения / Общественное питание";"Дома / дворцы культуры"
"324";"Дом ученых научного центра РАН";"Черноголовка";"Институтский проспект, 7";"142432";="+74965223787";"";"http://duchg.ru";"https://vk.com/du_chg";"";"38.377868";"56.010326";"Досуг / Развлечения / Общественное питание";"Дома / дворцы культуры"
"325";"Шаховский сельский дом культуры";"пос. Красный Путь";"Гвардейская, 21";"142301";="+74967945919";"";"";"";"";"37.889628";"55.324511";"Досуг / Развлечения / Общественное питание";"Дома / дворцы культуры"
"326";"Десна, дом культуры";"пос. Птичное";"Центральная, 101";"108807";="+74958457373, +74958457050";"";"";"";"";"37.216705";"55.521489";"Досуг / Развлечения / Общественное питание";"Дома / дворцы культуры"
"327";"Фортуна, дом культуры";"с. Талалихино";"Спортивная, 2л";"142370";="+74992709500";"";"";"";"";"37.677554";"55.21606";"Досуг / Развлечения / Общественное питание";"Дома / дворцы культуры"
"328";"Барыбино, сельский дом культуры";"д. Гальчино";"бульвар 60 лет СССР, 1";"142060";="+74967964506";"";"";"https://vk.com/dk_barybino";"";"37.908033";"55.277517";"Досуг / Развлечения / Общественное питание";"Дома / дворцы культуры"
"329";"Ложки, дом культуры";"д. Ложки";"Центральная, 9а";"141595";="+74962637694";"";"";"";"";"37.113706";"56.092573";"Досуг / Развлечения / Общественное питание";"Дома / дворцы культуры"
"330";"Лира, дом культуры";"пос. Пролетарский";"40 лет Октября, 21";"142271";="+74967708187";"";"";"";"";"37.390341";"55.025091";"Досуг / Развлечения / Общественное питание";"Дома / дворцы культуры"
"331";"15 Дом культуры Российской Армии";"д. Маринки";"улица Королёва, 97а";"249166";="+74843224156, +79637166122";"";"";"";"";"37.020687";"55.092811";"Досуг / Развлечения / Общественное питание";"Дома / дворцы культуры"
"332";"Песковский дом культуры";"пос. Пески";"Советская улица, 19";"140477";="+74966174279";"";"";"https://vk.com/peski_dk";"";"38.772009";"55.209849";"Досуг / Развлечения / Общественное питание";"Дома / дворцы культуры"
"333";"Заря, дом культуры";"д. Чепелёво";"Вокзальная улица, 14";"142301";="+74992707199, +79859627831, +74967279184";"";"";"https://vk.com/club146370377";"";"37.481431";"55.180747";"Досуг / Развлечения / Общественное питание";"Дома / дворцы культуры"
"334";"Государственный центр русского фольклора";"Москва";"Сверчков переулок, 8 ст3";"101000";="+74956241113, +74956219117";"";"http://folkcentr.ru";"https://vk.com/folkcentr";"";"37.640259";"55.759941";"Досуг / Развлечения / Общественное питание";"Дома / дворцы культуры"
"335";"Гайдаровец, дом культуры";"Москва";"Лялин переулок, 11-13/1 ст1";"101000";="+79164551431, +74959161313";"";"http://okccao.ru";"https://vk.com/dkgaidarovec";"";"37.65269";"55.759069";"Досуг / Развлечения / Общественное питание";"Дома / дворцы культуры"
"336";"Гайдаровец, дом культуры";"Москва";"Большой Казённый переулок, 8 ст2";"105064";="+79164551431, +74959161313";"";"http://okccao.ru";"https://vk.com/dkgaidarovec";"";"37.655994";"55.759662";"Досуг / Развлечения / Общественное питание";"Дома / дворцы культуры"
"337";"Гагаринец, дом культуры";"Москва";"Матвеевская, 18 к1";"119517";="+74954412344";"";"http://tksplaneta.mos.ru";"https://vk.com/dkgagarinec";"";"37.467847";"55.702412";"Досуг / Развлечения / Общественное питание";"Дома / дворцы культуры"
"338";"Восход, дом культуры";"Москва";"Маршала Федоренко, 2 к2";"125599";="+74954867371";"";"http://www.dkvoshod.ru";"https://vk.com/club60418423";"";"37.49459";"55.878958";"Досуг / Развлечения / Общественное питание";"Дома / дворцы культуры"
"339";"Объединение культурных центров Западного административного округа";"Москва";"Озёрная улица, 11";"119361";="+74954375386";"";"http://tksplaneta.mos.ru";"https://vk.com/tksplaneta";"";"37.460372";"55.681721";"Досуг / Развлечения / Общественное питание";"Дома / дворцы культуры"
"340";"Поведники, дом культуры";"пос. Поведники";"посёлок Поведники, 1Б";"141044";="+74959260712";"";"http://ck-podmoskovie.ru";"";"";"37.607421";"55.979465";"Досуг / Развлечения / Общественное питание";"Дома / дворцы культуры"
"341";"Импульс, дом культуры";"пос. Челюскинский";"улица Школьная, 1а";"141220";="+74965378739";"";"http://dkimpuls.ru";"https://vk.com/dkimpuls";"";"37.80902";"55.949327";"Досуг / Развлечения / Общественное питание";"Дома / дворцы культуры"
"342";"Красная горка, дом культуры";"д. Красная Горка";"Светлая, 16";"141051";="+74954089573, +74954089545";"";"http://dkmarfino.ru";"https://vk.com/club123191488";"";"37.530701";"55.993373";"Досуг / Развлечения / Общественное питание";"Дома / дворцы культуры"
"343";"Дубковский городской дом культуры";"с. Дубки";"Советская, 7";"143081";="+74986989705";"";"http://dk-dubki.mo.muzkult.ru";"https://vk.com/id354652728";"";"37.21254";"55.663523";"Досуг / Развлечения / Общественное питание";"Дома / дворцы культуры"
"344";"Надежда, сельский дом культуры";"пос. Железнодорожный";"Большая Серпуховская, 200";"142181";="+79261286546, +79775705264, +79032461105";"";"http://sdknadezhda.ru/";"";"";"37.541555";"55.389974";"Досуг / Развлечения / Общественное питание";"Дома / дворцы культуры"
"345";"Подмосковье, центр культуры";"Мытищи";"Пионерская, ст2";"141033";="+74955882812, +74955882843";"";"http://ck-podmoskovie.ru";"https://vk.com/dkpodmoskovie";"";"37.745269";"55.980361";"Досуг / Развлечения / Общественное питание";"Дома / дворцы культуры"
"346";"Люберецкий дворец культуры, центр культуры и отдыха";"Люберцы";"Шоссейная, 8";"140011";="+74955590594";"";"http://l-d-k.ru";"https://vk.com/ldk_cko";"";"37.870697";"55.672978";"Досуг / Развлечения / Общественное питание";"Дома / дворцы культуры"
"347";"Внуково, культурный центр";"д. Марушкино";"Липовая аллея, 10";"108809";="+74951090300";"";"http://www.ccvnukovo.ru";"https://vk.com/cc.vnukovo";"";"37.206161";"55.593962";"Досуг / Развлечения / Общественное питание";"Дома / дворцы культуры"
"348";"Факел, Отдел краеведения";"Фрязино";"Горького, 14";"141191";="+74965672397, +79651353688";"";"http://frfakel.ru";"https://vk.com/club131439976";"";"38.032436";"55.959765";"Досуг / Развлечения / Общественное питание";"Дома / дворцы культуры"
"349";"Молодёжный, дом культуры";"пос. Молодёжный";"Молодёжный посёлок, 18а";"142113";="+74967624286";"";"http://www.dkmol.ru";"https://vk.com/dkmol";"";"37.487587";"55.326392";"Досуг / Развлечения / Общественное питание";"Дома / дворцы культуры"
"350";"Власиха, дворец культуры";"пос. Власиха";"Маршала Жукова, 9";"143010";="+79260927789, +79257835289";"";"http://dkvlasiha.ru";"";"";"37.190653";"55.680788";"Досуг / Развлечения / Общественное питание";"Дома / дворцы культуры"
"351";"Некрасовский, центр культурного развития";"рп. Некрасовский";"микрорайон Строителей, 12";"141865";="+74962270319";"";"http://цкр-некрасовский.рф";"";"";"37.498589";"56.130534";"Досуг / Развлечения / Общественное питание";"Дома / дворцы культуры"
"352";"Созвездие, дом культуры";"рп. Свердловский";"Михаила Марченко, 13";"141140";="+79777073365";"";"http://dk-sozvezdie.mo.muzkult.ru";"https://vk.com/dk.sozvezdie";"";"38.132325";"55.895582";"Досуг / Развлечения / Общественное питание";"Дома / дворцы культуры"
"353";"Истринский культурно-досуговый комплекс";"д. Покровское";"Центральная, 16";"143582";="+74983157750, +79055395447";"";"http://istracult.ru";"";"";"37.006922";"55.81051";"Досуг / Развлечения / Общественное питание";"Дома / дворцы культуры"
"354";"Центр культуры и искусств";"Электроугли";"Парковая, 14";"142455";="+74965131225";"";"http://цки-электроугли.рф";"https://vk.com/centerofculture";"";"38.215148";"55.713722";"Досуг / Развлечения / Общественное питание";"Дома / дворцы культуры"
"355";"Ивановский дом культуры";"с. Ивановское";"Парковая, 11";"142832";="+79154578015";"";"http://ивановскоедк.рф/";"https://vk.com/club140419745";"";"37.837396";"55.076988";"Досуг / Развлечения / Общественное питание";"Дома / дворцы культуры"
"356";"Юровский, дом культуры";"д. Юрово";"Мира, 13";"140152";="+74964641106";"";"http://dk-urov.ru";"https://vk.com/club119459635";"";"38.366128";"55.500901";"Досуг / Развлечения / Общественное питание";"Дома / дворцы культуры"
"357";"Дом культуры";"пос. Первомайский";"Первомайский посёлок, 33";"143550";="+74983169428";"";"http://istracult.ru";"https://vk.com/luchdk";"";"36.795695";"55.913101";"Досуг / Развлечения / Общественное питание";"Дома / дворцы культуры"
"358";"Аксиньинский дом культуры";"с. Аксиньино";"Шоссейная, 12";"142854";="+74966457248";"";"http://dkaksinino.wixsite.com/mysite-1";"https://vk.com/public174543142";"";"38.290119";"55.147608";"Досуг / Развлечения / Общественное питание";"Дома / дворцы культуры"
"359";"Мамонтовский сельский дом культуры";"с. Мамонтово";"Зелёная улица, 34а";"142439";="+79260001203";"";"http://www.mamontovodk.ru";"https://vk.com/mamontovodk";"";"38.557311";"55.951602";"Досуг / Развлечения / Общественное питание";"Дома / дворцы культуры"
"360";"Рахмановский центральный дом культуры";"с. Рахманово";"село Рахманово, 160Б";"142520";="+74964377199";"";"http://rksmuk.mo.muzkult.ru";"https://vk.com/mukrks";"";"38.613396";"55.74376";"Досуг / Развлечения / Общественное питание";"Дома / дворцы культуры"
"361";"Объединение культурных центров центрального административного округа";"Москва";"Садовническая улица, 21";"115035";="+79055421313";"";"";"https://vk.com/dkstimul";"";"37.633786";"55.746951";"Досуг / Развлечения / Общественное питание";"Дома / дворцы культуры"
"362";"Юбилейный, дворец культуры";"Воскресенск";"улица Андреса, 1Б";"140204";="+74964456537, +74964456538";"";"http://дк-1969.рф";"https://vk.com/dkjubileynii1969";"";"38.719939";"55.341712";"Досуг / Развлечения / Общественное питание";"Дома / дворцы культуры"
"363";"Демиховский, дворец культуры";"д. Демихово";"Заводская улица, 8";"142632";="+74964160517, +74964160088";"";"http://dk-demikhovo.ru/";"https://vk.com/club151214544";"";"38.886103";"55.796278";"Досуг / Развлечения / Общественное питание";"Дома / дворцы культуры"
"364";"Протасово, дом культуры";"д. Протасово";"Камышовая, ст16а";"141054";="";"";"http://dkmarfino.ru";"https://vk.com/dkprotasovo";"";"37.600205";"56.133034";"Досуг / Развлечения / Общественное питание";"Дома / дворцы культуры"
"365";"Островок, детский творческий клуб";"пос. Рыбхоз";"Бисеровское шоссе, 1 ст2";"142451";="";"";"http://www.ck-akrikhin.ru";"";"";"38.135595";"55.788023";"Досуг / Развлечения / Общественное питание";"Дома / дворцы культуры"
"366";"Жостовский, дом культуры";"д. Жостово";"Живописная, 2";"141036";="+74955888454";"";"";"";"";"37.65152";"56.001281";"Досуг / Развлечения / Общественное питание";"Дома / дворцы культуры"
"367";"Константиновский, сельский дом культуры";"пос. государственного племенного завода "Константиново"";"Гагарина, 1а";"142032";="+74967968338";"";"";"https://vk.com/dkkonst";"";"37.715467";"55.436453";"Досуг / Развлечения / Общественное питание";"Дома / дворцы культуры"
"368";"Сельский дом культуры пос. Александровка";"пос. Александровка";"Центральная, 41";"142103";="+79670391164";"";"";"";"";"37.622292";"55.416676";"Досуг / Развлечения / Общественное питание";"Дома / дворцы культуры"
"369";"Мальцево, культурно-спортивный комплекс";"пос. Краснознаменский";"Краснознаменский посёлок, 8г";"141113";="+74965668738";"";"";"https://vk.com/ksk_malcevo";"";"37.932439";"55.937094";"Досуг / Развлечения / Общественное питание";"Дома / дворцы культуры"
"370";"Левковский сельский дом культуры";"с. Левково";"село Левково, 20а";"141202";="+74965854576";"";"";"https://vk.com/id474258603";"";"37.950997";"56.012194";"Досуг / Развлечения / Общественное питание";"Дома / дворцы культуры"
"371";"Салют, дворец культуры";"Красногорск";"Первомайская, 8";"143403";="+74955612522, +74955618076";"";"";"";"";"37.328988";"55.832923";"Досуг / Развлечения / Общественное питание";"Дома / дворцы культуры"
"372";"Химик, Касса";"Воскресенск";"площадь Ленина, 1";"140200";="";"";"";"";"";"38.671279";"55.322355";"Досуг / Развлечения / Общественное питание";"Дома / дворцы культуры"
"373";"Родник, дом культуры";"с. Сынково";"село Сынково, 24";"142184";="+79160529934";"";"";"";"";"37.627797";"55.351196";"Досуг / Развлечения / Общественное питание";"Дома / дворцы культуры"
"374";"Строитель, Сектор Созвездие";"дп. Зеленоградский";"микрорайон Зелёный Город, 4";"141253";="+79055753545";"";"";"https://vk.com/sozvezdiekdc";"";"37.898679";"56.090665";"Досуг / Развлечения / Общественное питание";"Дома / дворцы культуры"
"375";"Первомайское, дом культуры";"пос. Первомайское";"Центральная, 5а";"108808";="+74958459657, +74958459520";"";"";"";"";"37.159401";"55.537511";"Досуг / Развлечения / Общественное питание";"Дома / дворцы культуры"
"376";"Каскад, дом культуры";"пос. Васькино";"посёлок Васькино, 4";"142326";="+74967244186";"";"";"https://vk.com/vaskino_cdk";"";"37.603041";"55.131338";"Досуг / Развлечения / Общественное питание";"Дома / дворцы культуры"
"377";"Юбилейный, дом культуры";"с. Саввинская Слобода";"Юбилейная, вл1";"143056";="+74986906427";"";"";"";"";"36.786126";"55.721339";"Досуг / Развлечения / Общественное питание";"Дома / дворцы культуры"
"378";"Пегас, центр культуры и досуга";"Егорьевск";"Советская, 39";"140301";="+74964045858, +74964045449, +74964045843";"";"";"";"";"39.030734";"55.38671";"Досуг / Развлечения / Общественное питание";"Дома / дворцы культуры"
"379";"Центр культуры и досуга";"Киржач";"Первомайская, 4";"601021";="+74923761372, +74923724951";"";"";"https://vk.com/kinokvam";"";"38.873108";"56.116811";"Досуг / Развлечения / Общественное питание";"Дома / дворцы культуры"
"380";"Петровский дом культуры";"";"п/о Петровское, 14";"142703";="+74955929397";"";"http://yunostgorki.ru";"";"";"37.78868";"55.540135";"Досуг / Развлечения / Общественное питание";"Дома / дворцы культуры"
"381";"Луч, дом культуры";"Москва";"Чоботовский проезд, 7";"119619";="+74954356633";"";"http://www.tks-np.ru/dk-luch.html";"";"";"37.352889";"55.653237";"Досуг / Развлечения / Общественное питание";"Дома / дворцы культуры"
"382";"Богословский дом культуры";"д. Богослово";"деревня Богослово, 11";"141196";="";"";"";"";"";"38.071318";"56.01536";"Досуг / Развлечения / Общественное питание";"Дома / дворцы культуры"
"383";"Городской дворец культуры";"Красноармейск";"Академика Янгеля, 33";"141290";="+74965382070, +74965382195";"";"http://krasnogdk.ru";"https://vk.com/krasnogdk";"";"38.12538";"56.100248";"Досуг / Развлечения / Общественное питание";"Дома / дворцы культуры"
"384";"Дом детского творчества";"Бронницы";"Комсомольский переулок, 60";"140170";="+74964666987";"";"http://bronddt.edumsko.ru";"";"";"38.253409";"55.416648";"Досуг / Развлечения / Общественное питание";"Дома / дворцы культуры"
"385";"Березнецовский, дом культуры";"с. Березнецово";"Центральный проезд, 4";"142825";="+74966458369";"";"http://berezdk.simplesite.com";"https://vk.com/berezdk";"";"38.160049";"55.113122";"Досуг / Развлечения / Общественное питание";"Дома / дворцы культуры"
"386";"Казанский клуб";"с. Казанское";"Казанское село, 42";"142520";="+74964377199";"";"http://rksmuk.mo.muzkult.ru";"https://vk.com/mukrks";"";"38.562276";"55.738882";"Досуг / Развлечения / Общественное питание";"Дома / дворцы культуры"
"387";"Фатеевский клуб";"д. Фатеево";"деревня Фатеево, 27а";"142520";="+74964377199";"";"http://rksmuk.mo.muzkult.ru";"https://vk.com/mukrks";"";"38.643513";"55.745178";"Досуг / Развлечения / Общественное питание";"Дома / дворцы культуры"
"388";"Триумф, центральный дом культуры Орехово-Зуевского городского округа Московской области";"д. Давыдово";"2-й микрорайон, 31";"142641";="+74964174393, +74964174183";"";"http://cdktriumf.ru";"https://vk.com/club120015907";"";"38.868064";"55.60454";"Досуг / Развлечения / Общественное питание";"Дома / дворцы культуры"
"389";"Анциферовский сельский дом культуры";"д. Анциферово";"Школьная, 49";"142642";="+74964174183";"";"http://cdktriumf.ru";"https://vk.com/club191159092";"";"38.811793";"55.555446";"Досуг / Развлечения / Общественное питание";"Дома / дворцы культуры"
"390";"Пирочи, центр досуга и культуры";"с. Пирочи";"Центральная, 5";"140479";="+74966192943";"";"http://cdik-pirochi.ru";"https://vk.com/club35551851";"";"38.956657";"55.074242";"Досуг / Развлечения / Общественное питание";"Дома / дворцы культуры"
"391";"Юность, дом культуры";"Москва";"Шушенская улица, 7";"129327";="+74991843594";"";"";"";"";"37.683203";"55.869735";"Досуг / Развлечения / Общественное питание";"Дома / дворцы культуры"
"392";"Бородино, дом культуры";"Мытищи";"Осташковское шоссе, 22 к3";"141032";="+74986586074";"";"";"https://vk.com/club79379791";"";"37.669067";"55.963454";"Досуг / Развлечения / Общественное питание";"Дома / дворцы культуры"
"393";"Сорокинский, клуб";"д. Сорокино";"деревня Сорокино, 47";"141015";="+74955888027";"";"";"";"";"37.664365";"55.984298";"Досуг / Развлечения / Общественное питание";"Дома / дворцы культуры"
"394";"Оболдинский сельский дом культуры";"дп. Загорянский";"деревня Оболдино, 60";"141134";="+74965613719";"";"";"";"";"37.937822";"55.880637";"Досуг / Развлечения / Общественное питание";"Дома / дворцы культуры"
"395";"Ермолино, сельский дом культуры";"пос. опытного хозяйства "Ермолино"";"Центральная, 13";"141863";="+74962223001";"";"";"";"";"37.49084";"56.149978";"Досуг / Развлечения / Общественное питание";"Дома / дворцы культуры"
"396";"Метролог, культурно-досуговый центр";"рп. Менделеево";"Куйбышева, 11";"141570";="+74955462454";"";"";"";"";"37.232522";"56.039976";"Досуг / Развлечения / Общественное питание";"Дома / дворцы культуры"
"397";"Константиновский, дом культуры";"с. Константиново";"село Константиново, вл4";"140162";="+74964624846";"";"";"";"";"37.980879";"55.486169";"Досуг / Развлечения / Общественное питание";"Дома / дворцы культуры"
"398";"Дружба, городской дом культуры";"Домодедово";"Агрохимиков, 4а";"142060";="+74967962643";"";"";"";"";"37.880052";"55.279066";"Досуг / Развлечения / Общественное питание";"Дома / дворцы культуры"
"399";"Бригантина, дворец культуры";"пос. дома отдыха "Горки"";"посёлок дома отдыха Горки, вл4";"141897";="+74962292464";"";"";"https://vk.com/dkbrigantina";"";"37.344819";"56.194235";"Досуг / Развлечения / Общественное питание";"Дома / дворцы культуры"
"400";"Литвиново, дом культуры";"пос. Литвиново";"посёлок Литвиново, 3а";"141138";="+74965636196";"";"";"";"";"38.137592";"56.008162";"Досуг / Развлечения / Общественное питание";"Дома / дворцы культуры"
"401";"Родник, дом культуры";"с. Шарапово";"Ленина, 7";"142323";="+74967276974";"";"";"https://vk.com/club134925997";"";"37.260758";"55.189451";"Досуг / Развлечения / Общественное питание";"Дома / дворцы культуры"
"402";"Тарутино, сельский дом культуры";"с. Тарутино";"Центральная, 3";"249165";="+74843221338";"";"";"";"";"36.938904";"55.120713";"Досуг / Развлечения / Общественное питание";"Дома / дворцы культуры"
"403";"Барановское, дом культуры";"с. Усадище";"Королькова, 102";"140237";="+74964453259";"";"";"";"";"38.760508";"55.401559";"Досуг / Развлечения / Общественное питание";"Дома / дворцы культуры"
"404";"Биорковский сельский дом культуры";"пос. Биорки";"посёлок Биорки, 25";"140452";="+74966179947";"";"";"";"";"38.609401";"55.051651";"Досуг / Развлечения / Общественное питание";"Дома / дворцы культуры"
"405";"Степаньково, сельский дом культуры";"д. Степаньково";"Центральная, 32а";"141232";="";"";"";"";"";"37.813391";"56.064369";"Досуг / Развлечения / Общественное питание";"Дома / дворцы культуры"
"406";"Русь, дом культуры";"д. Манушкино";"деревня Манушкино, 28";"142321";="+74967279186, +79099906933";"";"http://dkrus-manushkino.vsite.biz";"https://vk.com/dkrus_manushkino";"";"37.450871";"55.114358";"Досуг / Развлечения / Общественное питание";"Дома / дворцы культуры"
"407";"Восток, арт-кластер";"Москва";"Мартеновская, 7";"111399";="+74991629757, +74953047367, +74953047357";"";"http://cbs-vao.ru";"https://vk.com/public57760344";"";"37.805295";"55.757748";"Досуг / Развлечения / Общественное питание";"Дома / дворцы культуры"
"408";"Всероссийский НИИ автоматики им. Н.Л. Духова, Дом культуры";"Москва";"Новосущёвская, 3";"127055";="+74999787803";"";"http://www.vniia.ru";"";"";"37.603615";"55.784396";"Досуг / Развлечения / Общественное питание";"Дома / дворцы культуры"
"409";"Дом культуры, д. Бужарово";"д. Бужарово";"Центральная, 1";"143514";="+74983163260";"";"";"https://vk.com/club105732950";"";"36.79051";"55.987304";"Досуг / Развлечения / Общественное питание";"Дома / дворцы культуры"
"410";"Маяк, дом культуры";"Москва";"Газопровод, 9а";"117405";="+74953818578, +74953818988";"";"";"https://vk.com/dkmayakmsk";"";"37.607158";"55.591178";"Досуг / Развлечения / Общественное питание";"Дома / дворцы культуры"
"411";"Гребнево, центр культуры и досуга";"д. Гребнево";"деревня Гребнево, 37";"141196";="+74962555487";"";"http://greb-cdk.mo.muzkult.ru";"https://vk.com/ckdgrebnevo";"";"38.073762";"55.954978";"Досуг / Развлечения / Общественное питание";"Дома / дворцы культуры"
"412";"Дворец культуры, микрорайон Щербинка";"Щербинка";"Молодёжная, 1";"108852";="+74958670323";"";"http://дворец-культуры.рф";"https://vk.com/dvorec_k";"";"37.533724";"55.510657";"Досуг / Развлечения / Общественное питание";"Дома / дворцы культуры"
"413";"Октябрь, дом культуры";"Лосино-Петровский";"Пушкина, 13";"141151";="+74965674300";"";"http://лп-дкоктябрь.рф";"https://vk.com/public52752792";"";"38.193058";"55.864723";"Досуг / Развлечения / Общественное питание";"Дома / дворцы культуры"
"414";"Агрокомплекс, дом культуры";"пос. Горки-2";"посёлок Горки 2, 5";"143033";="+74955981005";"";"";"";"";"37.160765";"55.724808";"Досуг / Развлечения / Общественное питание";"Дома / дворцы культуры"
"415";"Восток, арт-кластер";"Москва";"Суздальская, 38 к2";"111672";="+74957025890, +74957010870";"";"http://art-vostok.ru";"https://vk.com/public57760344";"";"37.872746";"55.7455";"Досуг / Развлечения / Общественное питание";"Дома / дворцы культуры"
"416";"Внуково, культурный центр";"пос. Минвнешторга";"Ленина, 23";"108817";="+74951090300, +74957366465";"";"http://www.ccvnukovo.ru";"https://vk.com/cc.vnukovo";"";"37.258291";"55.63533";"Досуг / Развлечения / Общественное питание";"Дома / дворцы культуры"
"417";"Восход, дом культуры";"Москва";"Маршала Федоренко, 2 к1";"125599";="+74954867371";"";"http://www.dkvoshod.ru";"https://vk.com/club60418423";"";"37.494007";"55.879214";"Досуг / Развлечения / Общественное питание";"Дома / дворцы культуры"
"418";"Луч, дом культуры";"пос. Мечниково";"посёлок Мечниково, 22";"143422";="";"";"";"";"";"37.162712";"55.751711";"Досуг / Развлечения / Общественное питание";"Дома / дворцы культуры"
"419";"Объединение культурных центров центрального административного округа";"Москва";"Нижегородская улица, 26";"109029";="+74956700786, +74956706320";"";"";"https://vk.com/dkstimul";"";"37.686613";"55.737212";"Досуг / Развлечения / Общественное питание";"Дома / дворцы культуры"
"420";"Дом культуры им. К.А. Тимирязева";"Москва";"Лиственничная аллея, 12 ст3";"127434";="+74999764603";"";"";"";"";"37.564673";"55.834667";"Досуг / Развлечения / Общественное питание";"Дома / дворцы культуры"
"421";"Центр молодежи, дом культуры";"Лыткарино";"Парковая, 16";"140081";="+74955521617, +74955521663, +74955524340";"";"http://dk-cm.ru";"";"";"37.911381";"55.574941";"Досуг / Развлечения / Общественное питание";"Дома / дворцы культуры"
"422";"Вертикаль, дворец культуры";"Дзержинский";"Дзержинская, 19а";"140090";="+74955507406, +74955510036";"";"http://dcvertikal.ru";"https://vk.com/dkvertikal";"";"37.85338";"55.624858";"Досуг / Развлечения / Общественное питание";"Дома / дворцы культуры"
"423";"Никольско-Архангельский, дом культуры";"Балашиха";"9-я линия, 60";"143914";="+74955241104";"";"";"";"";"37.897505";"55.770744";"Досуг / Развлечения / Общественное питание";"Дома / дворцы культуры"
"424";"Квант, культурно-досуговый центр";"Электроугли";"Школьная, 57";"142455";="+74965132068";"";"http://kvant.mo.muzkult.ru";"https://vk.com/mbukkdckvant";"";"38.230967";"55.718851";"Досуг / Развлечения / Общественное питание";"Дома / дворцы культуры"
"425";"Оптимист, культурный центр";"Москва";"улица Лобачевского, 100 к3";"119607";="+74959327830";"";"http://optimistclub.ru";"https://vk.com/ksoptimist";"";"37.483482";"55.685166";"Досуг / Развлечения / Общественное питание";"Дома / дворцы культуры"
"426";"Поваровский культурный центр";"дп. Поварово";"Клубная улица, 1а";"141540";="+74962672321, +74962672779";"";"http://povarovo-kultura.ru";"https://vk.com/kulturapovarovo";"";"37.068675";"56.080047";"Досуг / Развлечения / Общественное питание";"Дома / дворцы культуры"
"427";"Геофизик, дом культуры";"дп. Поварово";"микрорайон Поваровка, 23";"141540";="+74962673333";"";"http://povarovo-kultura.ru/dkgeofizik";"";"";"37.073181";"56.064779";"Досуг / Развлечения / Общественное питание";"Дома / дворцы культуры"
"428";"Родники, дворец культуры";"дп. Родники";"Трудовая, 3";"140143";="+74964622487";"";"http://dk-rodniki.mo.muzkult.ru";"https://vk.com/mukdkrodniki";"";"38.048792";"55.648881";"Досуг / Развлечения / Общественное питание";"Дома / дворцы культуры"
"429";"Надежда, сельский дом культуры";"пос. Подольской машинно-испытательной станции";"посёлок МИС, 25";"142184";="+74967613752";"";"http://sdknadezhda.ru";"";"";"37.55248";"55.345853";"Досуг / Развлечения / Общественное питание";"Дома / дворцы культуры"
"430";"Полтево, сельский клуб";"д. Полтево";"деревня Полтево, ст79а";"143985";="+74955221024";"";"";"";"";"38.136493";"55.707852";"Досуг / Развлечения / Общественное питание";"Дома / дворцы культуры"
"431";"Романцево, сельский дом культуры";"пос. радиоцентра "Романцево"";"посёлок радиоцентра Романцево, 10";"142153";="+74967565899";"";"";"https://vk.com/club66271069";"";"37.580926";"55.31189";"Досуг / Развлечения / Общественное питание";"Дома / дворцы культуры"
"432";"Хуторской дом культуры";"с. Константиновское";"Колхозная, вл2";"142842";="";"";"";"";"";"37.964031";"55.162779";"Досуг / Развлечения / Общественное питание";"Дома / дворцы культуры"
"433";"Ермолинский дом культуры";"пос. Агрогородок";"посёлок Агрогородок, 23";"143511";="+74983141616, +74983169292";"";"";"";"";"36.959101";"55.922524";"Досуг / Развлечения / Общественное питание";"Дома / дворцы культуры"
"434";"Дом культуры, пос. Северный";"пос. Северный";"Северный посёлок, 24";"143500";="+74983159543";"";"";"";"";"36.839734";"55.944589";"Досуг / Развлечения / Общественное питание";"Дома / дворцы культуры"
"435";"Северянка, Дом культуры";"с. Никоновское";"Центральная, 50";"140135";="+74964663051, +74964663052";"";"http://severyanka.mo.muzkult.ru/";"https://vk.com/dk.severyanka";"";"38.155445";"55.280311";"Досуг / Развлечения / Общественное питание";"Дома / дворцы культуры"
"436";"Рождественский дом культуры";"с. Рождествено";"Микрорайонная, 5";"143591";="+74983164613, +79777143876";"";"";"https://vk.com/dk_rozhdestveno";"";"37.038935";"55.857662";"Досуг / Развлечения / Общественное питание";"Дома / дворцы культуры"
"437";"Бородино, дом культуры";"д. Беляниново";"улица Центральная, ст1";"141032";="+74957442161";"";"";"https://vk.com/club79379791";"";"37.646985";"55.954088";"Досуг / Развлечения / Общественное питание";"Дома / дворцы культуры"
"438";"Большеалексеевский дом культуры";"с. Большое Алексеевское";"Центральная, 5";"142853";="+74966459621";"";"http://dkalekseevskoe.nethouse.ru/";"https://vk.com/dkbalekseevskoe";"";"38.210462";"55.241931";"Досуг / Развлечения / Общественное питание";"Дома / дворцы культуры"
"439";"Современник, дом культуры";"пос. Ганусово";"посёлок Ганусово, 150";"140144";="";"";"";"https://vk.com/dksovremennik";"";"38.115928";"55.355582";"Досуг / Развлечения / Общественное питание";"Дома / дворцы культуры"
"440";"Бухловский сельский дом культуры";"д. Бухловка";"деревня Бухловка, 47";"249163";="";"";"";"";"";"36.908306";"55.190633";"Досуг / Развлечения / Общественное питание";"Дома / дворцы культуры"
"441";"Захаровский дом культуры";"пос. Летний отдых";"Зелёная, 9а";"143022";="+74986940190";"";"http://dom-kultury.mo.muzkult.ru";"https://vk.com/id354526485";"";"36.975929";"55.640432";"Досуг / Развлечения / Общественное питание";"Дома / дворцы культуры"
"442";"Сельский дом культуры, пос. РАОС";"пос. Раменской агрохимстанции (РАОС)";"Раменской агрохимстанции (РАОС) посёлок, 5 ст1";"140126";="+74964662067";"";"";"https://vk.com/dk.raos";"";"38.087489";"55.520228";"Досуг / Развлечения / Общественное питание";"Дома / дворцы культуры"
"443";"Буревестник, дом культуры";"д. Мисайлово";"Молодёжный бульвар, 2";"142721";="+74987879279";"";"http://burevestnik.mo.muzkult.ru";"https://vk.com/dk_burevestnik";"";"37.81067";"55.55926";"Досуг / Развлечения / Общественное питание";"Дома / дворцы культуры"
"444";"Солнечный, дом культуры";"пос. Курилово";"Центральная, 32";"108827";="+74958408955";"";"";"";"";"37.378046";"55.371636";"Досуг / Развлечения / Общественное питание";"Дома / дворцы культуры"
"445";"Центр культуры, пос. совхоза им. Ленина";"пос. Развилка";"посёлок Развилка, 7 ст2";"142717";="+74955486781, +74955488683";"";"http://dksovhoz.ru";"https://vk.com/sovhoz.culture";"";"37.746779";"55.596737";"Досуг / Развлечения / Общественное питание";"Дома / дворцы культуры"
"446";"Керамик, дом культуры";"рп. Некрасовский";"Заводская, 41";"141865";="+74986728490";"";"";"https://vk.com/dkkeramik";"";"37.500459";"56.094863";"Досуг / Развлечения / Общественное питание";"Дома / дворцы культуры"
"447";"Горки-10, дом культуры";"пос. Горки-10";"посёлок Горки 10, 6а";"143032";="+74956340577";"";"http://dk-gorki10.ru";"";"";"37.025592";"55.701278";"Досуг / Развлечения / Общественное питание";"Дома / дворцы культуры"
"448";"Михайловское, дом культуры";"пос. Шишкин Лес";"посёлок Шишкин Лес, ст35";"108833";="+74958505651";"";"http://dkmihailovskoe.ru";"https://vk.com/club132193809";"";"37.188992";"55.41338";"Досуг / Развлечения / Общественное питание";"Дома / дворцы культуры"
"449";"Барвиха, культурный центр";"д. Жуковка";"деревня Жуковка, 113а ст1";"143082";="+74956356265, +74956354839";"";"http://ccbarviha.ru/";"";"";"37.246448";"55.73957";"Досуг / Развлечения / Общественное питание";"Дома / дворцы культуры"
"450";"Дворец культуры, РГСУ";"Москва";"Стромынский переулок, 18 к4";"107076";="";"";"http://dk.rgsu.net";"";"";"37.694865";"55.792696";"Досуг / Развлечения / Общественное питание";"Дома / дворцы культуры"
"451";"Юбилейный, дом культуры";"Москва";"село Былово, 8а";"108828";="+74958493485";"";"";"https://vk.com/public160021367";"";"37.242742";"55.447202";"Досуг / Развлечения / Общественное питание";"Дома / дворцы культуры"
"452";"Дом культуры, г. Электрогорск";"Электрогорск";"Пионерская, 6а";"142530";="+74964332006";"";"http://dkelgorsk.ru";"";"";"38.77566";"55.893197";"Досуг / Развлечения / Общественное питание";"Дома / дворцы культуры"
"453";"Повадинский сельский дом культуры";"с. Вельяминово";"Школьная, ст10";"142063";="+74967960631";"";"";"https://vk.com/povadinskiysdk";"";"37.870917";"55.191016";"Досуг / Развлечения / Общественное питание";"Дома / дворцы культуры"
"454";"Снегири, дом культуры";"дп. Снегири";"улица Станционная, 22";"143590";="+74983166273, +74983166400";"";"";"";"";"37.031382";"55.881933";"Досуг / Развлечения / Общественное питание";"Дома / дворцы культуры"
"455";"Ильичевка, дом культуры";"х. Ильичевка";"хутор Ильичевка, 5";"108807";="+74958493098";"";"";"";"";"37.272824";"55.506191";"Досуг / Развлечения / Общественное питание";"Дома / дворцы культуры"
"456";"Берёзка, дом культуры";"рп. Ильинский";"Островского, 1а";"140121";="+74964621039";"";"http://dkberezka.ru";"https://vk.com/dk_berezka";"";"38.12484";"55.624871";"Досуг / Развлечения / Общественное питание";"Дома / дворцы культуры"
"457";"Быково, дом культуры";"рп. Быково";"Полевая, 1";"140150";="+74964621783, +79035315645";"";"http://dkbykovo.mo.muzkult.ru";"";"";"38.075323";"55.622987";"Досуг / Развлечения / Общественное питание";"Дома / дворцы культуры"
"458";"Юбилейный, дом культуры";"пос. Рогово";"Юбилейная, 1а";"108835";="+74958509842, +79652537430";"";"";"";"";"37.073979";"55.214706";"Досуг / Развлечения / Общественное питание";"Дома / дворцы культуры"
"459";"Павловский сельский дом культуры";"д. Павловское";"Вокзальная, 18";"142029";="+74967962361";"";"";"https://vk.com/sdk79";"";"37.724681";"55.488858";"Досуг / Развлечения / Общественное питание";"Дома / дворцы культуры"
"460";"93 Дом Культуры Российской Армии";"с. Стромынь";"Матроса Железняка, 1а";"142436";="+74965226087";"";"";"";"";"38.505912";"56.076853";"Досуг / Развлечения / Общественное питание";"Дома / дворцы культуры"
"461";"Дом культуры";"д. Новая";"Центральная, 40";"141591";="+74962633650";"";"";"";"";"36.913777";"56.08033";"Досуг / Развлечения / Общественное питание";"Дома / дворцы культуры"
"462";"Дом культуры";"д. Мишнево";"Садовая, 132а";"141132";="+79267195817";"";"";"https://vk.com/public197485791";"";"38.201429";"55.988978";"Досуг / Развлечения / Общественное питание";"Дома / дворцы культуры"
"463";"Киржачский районный дом культуры";"Киржач";"Гагарина, 22";"601010";="+74923724941";"";"http://рдккиржач.рф";"https://vk.com/krdk_1";"";"38.871402";"56.16078";"Досуг / Развлечения / Общественное питание";"Дома / дворцы культуры"
"464";"Центр культуры и досуга, г. Куровское";"Куровское";"Вокзальная, 7";"142620";="+74964110605, +74964113600";"";"";"https://vk.com/dk.kurovskoe";"";"38.923804";"55.577226";"Досуг / Развлечения / Общественное питание";"Дома / дворцы культуры"
"465";"Дальний, дом культуры";"рп. Софрино";"Дальняя, 2а";"141270";="+74959932495, +79267929131";"";"";"https://vk.com/dkdsofrino";"";"37.959365";"56.139702";"Досуг / Развлечения / Общественное питание";"Дома / дворцы культуры"
"466";"Икша, дом культуры";"рп. Икша";"Комсомольская, 20а";"141860";="";"";"http://цкр-некрасовский.рф/";"https://vk.com/dkiksha";"";"37.498675";"56.174174";"Досуг / Развлечения / Общественное питание";"Дома / дворцы культуры"
"467";"Дулёвский, культурно-досуговый центр";"Ликино-Дулёво";"Степана Морозкина, 1";"142672";="+74964140411, +74964141582";"";"http://kdcdulevsky.ru";"";"";"38.948861";"55.717441";"Досуг / Развлечения / Общественное питание";"Дома / дворцы культуры"
"468";"Истринский культурно-досуговый комплекс";"с. Павловская Слобода";"Луначарского, 7";"143581";="+74983199622";"";"";"https://vk.com/p.s_kdk";"";"37.085868";"55.81651";"Досуг / Развлечения / Общественное питание";"Дома / дворцы культуры"
"469";"Центр досуга и культуры Непецино";"с. Непецино";"Тимохина, 14";"140473";="+74966177657";"";"http://cdiknepetsino.mo.muzkult.ru";"https://vk.com/club177568176";"";"38.604773";"55.19934";"Досуг / Развлечения / Общественное питание";"Дома / дворцы культуры"
"470";"Белостолбовский городской Дом культуры";"Домодедово";"Авенариуса, 1а";"142050";="+74967963164";"";"http://bsgdk.ru";"https://vk.com/bsgdk";"";"37.837109";"55.326449";"Досуг / Развлечения / Общественное питание";"Дома / дворцы культуры"
"471";"Дворец культуры им. Потапова А.С.";"Павловский Посад";"Интернациональный переулок, 29/1";"142505";="+74964359029";"";"";"";"";"38.705865";"55.772131";"Досуг / Развлечения / Общественное питание";"Дома / дворцы культуры"
"472";"Созвездие, дом культуры";"рп. Свердловский";"Дзержинского, 1";"141140";="+79777073365";"";"http://dk-sozvezdie.mo.muzkult.ru";"https://vk.com/dk.sozvezdie";"";"38.131322";"55.89773";"Досуг / Развлечения / Общественное питание";"Дома / дворцы культуры"
"473";"Истра, культурно-спортивный центр";"д. Кривцово";"деревня Кривцово, 5";"141554";="+74962671010";"";"";"";"";"36.89455";"56.141838";"Досуг / Развлечения / Общественное питание";"Дома / дворцы культуры"
"474";"Центр досуга Дроздово";"д. Мильково";"деревня Мильково, 105/1";"142717";="+74952876097";"";"http://centrdrozdovo.ru";"";"";"37.794622";"55.603552";"Досуг / Развлечения / Общественное питание";"Дома / дворцы культуры"
"475";"Юбилейный, дом культуры";"рп. Софрино";"Крайняя, 2";"141270";="+74965313264";"";"http://дк-юбилейный-софрино.рф";"https://vk.com/public116062177";"";"37.91326";"56.130992";"Досуг / Развлечения / Общественное питание";"Дома / дворцы культуры"
"476";"Черкизово, центр досуга и культуры";"с. Черкизово";"село Черкизово, 20";"140476";="+74966171672, +74966171645";"";"";"https://vk.com/mbucdikcherkizovo";"";"38.745192";"55.194084";"Досуг / Развлечения / Общественное питание";"Дома / дворцы культуры"
"477";"Тамань, дворец культуры и спорта";"рп. Калининец";"посёлок Калининец, 246";"143371";="+74963415805, +74963426558";"";"http://дкис-тамань.рф";"https://vk.com/fakelsveta";"";"36.973281";"55.553801";"Досуг / Развлечения / Общественное питание";"Дома / дворцы культуры"
"478";"Тамань, Подразделение Петровское";"с. Петровское";"село Петровское, 1д";"143395";="+74963415805, +74963429039";"";"http://дкис-тамань.рф";"https://vk.com/fakelsveta";"";"36.992154";"55.534163";"Досуг / Развлечения / Общественное питание";"Дома / дворцы культуры"
"479";"Головинский сельский дом культуры";"д. Головино";"деревня Головино, 20а";"141146";="+74965635223";"";"http://fryanovo-cks.ru";"https://vk.com/club164820419";"";"38.421331";"56.125977";"Досуг / Развлечения / Общественное питание";"Дома / дворцы культуры"
"480";"Булаковский сельский дом культуры";"д. Булаково";"деревня Булаково, 26";"141137";="+74965635223";"";"http://fryanovo-cks.ru";"https://vk.com/club135364803";"";"38.372488";"56.184033";"Досуг / Развлечения / Общественное питание";"Дома / дворцы культуры"
"481";"Биорковский сельский дом культуры";"пос. Лесной";"Школьная, 3";"140451";="+74966179947, +79166467221";"";"";"";"";"38.621196";"55.034133";"Досуг / Развлечения / Общественное питание";"Дома / дворцы культуры"
"482";"Солнышко, дом культуры";"Голицыно";"Коммунистический проспект, 9";"143041";="";"";"";"https://vk.com/kdcoktyabr";"";"36.988035";"55.613556";"Досуг / Развлечения / Общественное питание";"Дома / дворцы культуры"
"483";"Красный холм, дом культуры";"Белоозёрский";"50 лет Октября, 6";"140251";="+74964472180";"";"";"";"";"38.480149";"55.448212";"Досуг / Развлечения / Общественное питание";"Дома / дворцы культуры"
"484";"КТЦ, Дом культуры";"с. Шугарово";"Совхозная, 15";"142830";="+74966497361";"";"";"";"";"37.98327";"55.05544";"Досуг / Развлечения / Общественное питание";"Дома / дворцы культуры"
"485";"Хорлово, дом культуры";"рп. Хорлово";"площадь Ленина, 3";"140235";="+74964449743";"";"";"https://vk.com/id214363332";"";"38.815654";"55.326391";"Досуг / Развлечения / Общественное питание";"Дома / дворцы культуры"
"486";"Красный горняк, дом культуры";"рп. Фосфоритный";"Интернациональная, 4";"140241";="+74964443259";"";"";"https://vk.com/id388014971";"";"38.898136";"55.326385";"Досуг / Развлечения / Общественное питание";"Дома / дворцы культуры"
"487";"Сельский клуб, д. Елкино";"д. Ёлкино";"Советская, 84";"140235";="+74964449968";"";"";"https://vk.com/elkino_klub";"";"38.836588";"55.31354";"Досуг / Развлечения / Общественное питание";"Дома / дворцы культуры"
"488";"Малинский, дом культуры";"рп. Малино";"Промышленная, 6";"142850";="+74966455242";"";"http://malinoclub.nethouse.ru";"https://vk.com/malinoclub";"";"38.177503";"55.102812";"Досуг / Развлечения / Общественное питание";"Дома / дворцы культуры"
"489";"Солнечный, дом культуры";"пос. Щапово";"посёлок Щапово, 23";"108825";="+74958656741, +74958656059";"";"http://dk-solnechniy.msk.muzkult.ru";"https://vk.com/shapovodk";"";"37.4087";"55.417588";"Досуг / Развлечения / Общественное питание";"Дома / дворцы культуры"
"490";"Лукерьинский, дом культуры";"с. Лукерьино";"село Лукерьино, 80";"140472";="+74966173333";"";"";"https://vk.com/sdk_lukerino";"";"38.655684";"55.100673";"Досуг / Развлечения / Общественное питание";"Дома / дворцы культуры"
"491";"Орбита, дом культуры";"д. Крюково";"Заводская, 3";"142324";="+74967275854";"";"";"https://vk.com/dkorbita";"";"37.543751";"55.096435";"Досуг / Развлечения / Общественное питание";"Дома / дворцы культуры"
"492";"Сергиевский дом культуры";"с. Пестриково";"Советская, 102";"140490";="";"";"";"https://vk.com/sergievskiyclub";"";"38.864118";"55.087291";"Досуг / Развлечения / Общественное питание";"Дома / дворцы культуры"
"493";"Семеновский дом культуры";"с. Семёновское";"Набережная улица, 1";"142833";="+79154191229, +74966492890";"";"http://semenovskiydk6.wixsite.com/mysite";"https://vk.com/club73113459";"";"37.762272";"55.054393";"Досуг / Развлечения / Общественное питание";"Дома / дворцы культуры"
"494";"Елизаветино, сельский дом культуры";"пос. Елизаветино";"Центральная, 29а";"142470";="+74965745864";"";"http://сдк-елизаветино.рф";"https://vk.com/id272072877";"";"38.508149";"55.727481";"Досуг / Развлечения / Общественное питание";"Дома / дворцы культуры"
"495";"Малодубенский дом культуры";"д. Малая Дубна";"деревня Малая Дубна, 15а";"142631";="+74964163520, +74964163538";"";"";"https://vk.com/mbukmddk";"";"38.957233";"55.877506";"Досуг / Развлечения / Общественное питание";"Дома / дворцы культуры"
"496";"Современник, дом культуры";"д. Кабаново";"деревня Кабаново, вл155";"142664";="+79032332346";"";"";"https://vk.com/club153078065";"";"38.929989";"55.754308";"Досуг / Развлечения / Общественное питание";"Дома / дворцы культуры"
"497";"Большедворский, дом культуры";"рп. Большие Дворы";"проезд Чкалова, 2";"142541";="+74964379587";"";"";"https://vk.com/club66418452";"";"38.644753";"55.815739";"Досуг / Развлечения / Общественное питание";"Дома / дворцы культуры"
"498";"Новые дома, сельский дом культуры";"пос. Новые дома";"посёлок Новые дома, 6";"142470";="";"";"http://сдк-елизаветино.рф";"https://vk.com/club43637865";"";"38.466168";"55.715746";"Досуг / Развлечения / Общественное питание";"Дома / дворцы культуры"
"499";"Ашитково, дом культуры";"с. Ашитково";"Парковая, 1";"140231";="+74964477136";"";"http://цкс-радость.рф/dk-s.-ashitkovo.html";"https://vk.com/dkashitkovo";"";"38.58465";"55.435774";"Досуг / Развлечения / Общественное питание";"Дома / дворцы культуры"
"500";"Досуг, центральный дом культуры";"д. Новое";"Юбилейная, 2а";"142643";="+74964177307";"";"http://цдкдосуг.рф";"https://vk.com/club119971864";"";"38.919345";"55.631066";"Досуг / Развлечения / Общественное питание";"Дома / дворцы культуры"
"501";"Конобеево, дом культуры";"с. Конобеево";"Центральная улица, 123а";"140220";="+74964458803";"";"";"https://vk.com/dkonobeevo";"";"38.662708";"55.410603";"Досуг / Развлечения / Общественное питание";"Дома / дворцы культуры"
"502";"Непецино, центр досуга и культуры";"д. Андреевка";"деревня Андреевка, 132";"140473";="+74966177849";"";"";"https://vk.com/andreevkasdk";"";"38.563506";"55.222736";"Досуг / Развлечения / Общественное питание";"Дома / дворцы культуры"
"503";"Ново-Загарский ДК";"д. Ново-Загарье";"деревня Ново-Загарье, 109а";"142516";="";"";"";"https://vk.com/club79384480";"";"38.762817";"55.64844";"Досуг / Развлечения / Общественное питание";"Дома / дворцы культуры"
"504";"Гребнево, центр культуры и досуга";"д. Богослово";"деревня Богослово, 11";"141196";="";"";"";"";"";"38.071318";"56.01536";"Досуг / Развлечения / Общественное питание";"Дома / дворцы культуры"
"505";"Управление по культуре, спорту и работе с молодежью Администрации городского округа Павловский Посад Московской области";"Павловский Посад";"площадь Революции, 15";"142500";="+74964328300, +74964328020, +74964328008";"";"";"";"";"38.650045";"55.780684";"Досуг / Развлечения / Общественное питание";"Дома / дворцы культуры"
"506";"Дом культуры";"пос. Биокомбината";"посёлок Биокомбината, 17а";"141142";="+74965632111";"";"http://cksbio.ru";"";"";"38.10757";"55.916203";"Досуг / Развлечения / Общественное питание";"Дома / дворцы культуры"
"507";"Огуднево, сельский дом культуры";"д. Огуднево";"деревня Огуднево, 16";"141135";="+74965634356";"";"";"";"";"38.260086";"56.064388";"Досуг / Развлечения / Общественное питание";"Дома / дворцы культуры"
"508";"Леонтьевский сельский дом культуры";"д. Леонтьево";"Молодёжная, 1";"142861";="+74966411335";"";"";"";"";"38.284279";"55.062008";"Досуг / Развлечения / Общественное питание";"Дома / дворцы культуры"
"509";"Ровесник, дом культуры";"рп. Столбовая";"Парковая, 2";"142350";="+74967269671";"";"";"";"";"37.495638";"55.249861";"Досуг / Развлечения / Общественное питание";"Дома / дворцы культуры"
"510";"Лодыгино, центр культуры и досуга";"пос. Володарского";"Зелёная, 42";"142713";="+74987879017";"";"";"https://vk.com/lodygino";"";"37.948565";"55.503006";"Досуг / Развлечения / Общественное питание";"Дома / дворцы культуры"
"511";"Лодыгино, центр культуры и досуга";"пос. Володарского";"Центральная улица, 25/1";"142713";="+74987879017, +74987879217";"";"http://lodigino.mo.muzkult.ru";"https://vk.com/lodygino";"";"37.944046";"55.501368";"Досуг / Развлечения / Общественное питание";"Дома / дворцы культуры"
"512";"Горизонт, муниципальное бюджетное учреждение";"д. Житнево";"деревня Житнево, 16а";"142033";="+74967965324";"";"";"";"";"37.908348";"55.341241";"Досуг / Развлечения / Общественное питание";"Дома / дворцы культуры"
"513";"Русь, сельский дом культуры";"пос. Красный Путь";"Центральная, 2";"142033";="+74967965405";"";"";"https://vk.com/sdk_rus";"";"37.92681";"55.343504";"Досуг / Развлечения / Общественное питание";"Дома / дворцы культуры"
"514";"Востряковский городской Дом культуры";"Домодедово";"Луговая, 1а/1";"142006";="+74967967638";"";"";"https://vk.com/dkvostryakovo";"";"37.818599";"55.397147";"Досуг / Развлечения / Общественное питание";"Дома / дворцы культуры"
"515";"Импульс, центр культуры и досуга";"Домодедово";"Текстильщиков, 41а";"142002";="+74967948089";"";"http://kkdms-dom.ru";"";"";"37.737744";"55.433617";"Досуг / Развлечения / Общественное питание";"Дома / дворцы культуры"
"516";"Импульс, Подмосковный сельский дом культуры";"пос. санатория "Подмосковье"";"посёлок санатория Подмосковье, 9";"142072";="";"";"";"";"";"37.773355";"55.377877";"Досуг / Развлечения / Общественное питание";"Дома / дворцы культуры"
"517";"Дом культуры, с. Федино";"с. Федино";"село Федино, 1а";"140209";="+74964457409";"";"http://центристоки.рф";"https://vk.com/centristokivsk";"";"38.623996";"55.309482";"Досуг / Развлечения / Общественное питание";"Дома / дворцы культуры"
"518";"Дом культуры, с. Анискино";"с. Анискино";"Центральная, 19";"141142";="";"";"";"";"";"38.10193";"55.908523";"Досуг / Развлечения / Общественное питание";"Дома / дворцы культуры"
"519";"Дубневский, дом культуры";"д. Дубнево";"Новые дома, 18";"142825";="+74966458120";"";"http://dkdubnevo.nethouse.ru";"https://vk.com/dkdubnevo2015";"";"38.108732";"55.105276";"Досуг / Развлечения / Общественное питание";"Дома / дворцы культуры"
"520";"Луч, дом культуры";"с. Стремилово";"Мира, 9";"142341";="+74967276975, +79636722058";"";"";"https://vk.com/dkluchstremilovo";"";"37.152184";"55.14652";"Досуг / Развлечения / Общественное питание";"Дома / дворцы культуры"
"521";"Победа, сельский дом культуры";"пос. Совхоз "Победа"";"Центральная, 17";"249167";="";"";"";"";"";"36.761433";"55.171196";"Досуг / Развлечения / Общественное питание";"Дома / дворцы культуры"
"522";"Мир, дом культуры";"дп. Кратово";"Мира, 12а";"140130";="+79998312265";"";"";"https://vk.com/public192905279";"";"38.161104";"55.612363";"Досуг / Развлечения / Общественное питание";"Дома / дворцы культуры"
"523";"ЛАД, дом культуры";"Егорьевск";"Совхозная, 45";"140301";="+74964030264";"";"";"https://vk.com/id371001723";"";"39.007849";"55.36206";"Досуг / Развлечения / Общественное питание";"Дома / дворцы культуры"
