"id";"name";"city_name";"geometry_name";"post_code";"phone";"email";"website";"vkontakte";"instagram";"lon";"lat";"category";"subcategory"
"1";"Робостанция, научно-развлекательная выставка";"Москва";"проспект Мира (ВДНХ), 119 ст2";"129223";="+74951345969";"robostation@robostation.ru";"http://робостанция.рф";"https://vk.com/robocorpmoscow";"";"37.63158";"55.828671";"Культура / Искусство / Религия";"Музеи, Организация выставок, Организация и проведение праздников, Художественные выставки / Галереи, Детские игровые залы / Игротеки"
"2";"Усадьба Гребнево, Музей";"д. Гребнево";"Усадьба Гребнево, 53/1";"";="+74993980893, +79252142964, +79161017960";"event@usadbagrebnevo.com";"http://usadbagrebnevo.com";"https://vk.com/usadbagrebnevo";"";"38.088477";"55.949063";"Культура / Искусство / Религия";"Музеи"
"3";"Brick star, музей лего";"Москва";"Трубная площадь, 2";"107031";="+74959998558";"brickstar-museum@yandex.ru";"http://brickstar.ru";"https://vk.com/brickstar";"";"37.621462";"55.76618";"Культура / Искусство / Религия";"Музеи, Игрушки"
"4";"Big Creative Company, Музей эротики";"Москва";"улица Новый Арбат, 15 ст1";"119019";="88006005808";"info@bigcreative.fun, info@tochkag.net";"http://tochkag.net";"https://vk.com/museum_tochka_g";"";"37.591942";"55.751785";"Культура / Искусство / Религия";"Музеи"
"5";"Музей мертвых кукол";"Москва";"Малая Молчановка, 8 ст2";"121069";="+79951166611";"info@dead-dolls.museum";"http://dead-dolls.museum";"";"";"37.592266";"55.754003";"Культура / Искусство / Религия";"Музеи"
"6";"Царь-макет, музей";"Москва";"Константинова, 11а";"129164";="+74951092096";"info@tsar-maket.ru";"http://tsar-maket.ru";"https://vk.com/tsarmaket";"";"37.655383";"55.817197";"Культура / Искусство / Религия";"Музеи"
"7";"Дедушкин чердак, интерактивный политехнический музей для детей от 1 до 101 года";"Москва";"Измайловское шоссе, 73ж";"105187";="+79164415554, +79015018085";"museumcherdak@gmail.com";"http://www.museumcherdak.ru";"https://vk.com/museum_cherdak";"";"37.749293";"55.794253";"Культура / Искусство / Религия";"Музеи, Организация и проведение праздников"
"8";"Оружейный подвал на Никольской, контактный музей";"Москва";"улица Никольская, 11-13 ст1";"109012";="+79017063372";"guns@guns.moscow";"http://taplink.cc/guns.moscow";"https://vk.com/guns.moscow";"";"37.621711";"55.756834";"Культура / Искусство / Религия";"Музеи"
"9";"Лес, интерактивное мультимедийное пространство";"Москва";"проспект Мира (ВДНХ), 119 пав17";"129223";="+79686028008";"les.gallery.17@gmail.com";"http://les.gallery";"https://vk.com/les.gallery";"";"37.623906";"55.831377";"Досуг / Развлечения / Общественное питание";"Детские игровые залы / Игротеки, Музеи, Аттракционы, Кофейни, Продажа кофе"
"10";"Государственный музей изобразительных искусств им. А.С. Пушкина";"Москва";"улица Волхонка, 12 ст1";"119019";="+74956099520, +74956977412, +74956979578";"";"http://pushkinmuseum.art";"https://vk.com/theartsmuseum";"";"37.605861";"55.747094";"Культура / Искусство / Религия";"Музеи, Интересные здания"
"11";"Московский Кремль";"Москва";"Манежная, 2-10";"109012";="+74956970349, +74956954146";"";"http://www.kreml.ru";"https://vk.com/kremlinmuseums";"";"37.612798";"55.752427";"Культура / Искусство / Религия";"Музеи"
"12";"Кусково, музей-усадьба";"Москва";"Юности, 2";"111402";="+74953753131, +74953700160";"";"http://www.mos.ru/afisha/venues/130211/";"https://vk.com/museum_kuskovo";"";"37.809024";"55.73502";"Культура / Искусство / Религия";"Музеи, Парки культуры и отдыха"
"13";"Патриот, военно-патриотический парк культуры и отдыха Вооруженных Сил РФ";"";"Минское шоссе 55 км, 1";"143070";="88007070107";"";"http://patriotp.ru";"https://vk.com/parkpatriot";"";"36.830767";"55.570894";"Досуг / Развлечения / Общественное питание";"Парки культуры и отдыха, Музеи"
"14";"Архангельское, музей-заповедник";"пос. Архангельское";"Музей-усадьба Архангельское, 1";"143420";="+74986538660, +74957975409";"";"http://www.arhangelskoe.su";"https://vk.com/public96891566";"";"37.284647";"55.787583";"Культура / Искусство / Религия";"Музеи"
"15";"Государственный Дарвиновский музей";"Москва";"улица Вавилова, 57";"117292";="+74997832253, +74991321047";"";"http://darwinmuseum.ru";"https://vk.com/darwinmuseum";"";"37.561723";"55.69085";"Культура / Искусство / Религия";"Музеи"
"16";"Музей космонавтики";"Москва";"проспект Мира, 111";"129515";="+74997502300,,,1016";"";"http://jivo.chat/2sY5UIoauC";"https://vk.com/kosmo_museum";"";"37.639845";"55.823354";"Культура / Искусство / Религия";"Музеи, Интересные здания"
"17";"Переделкино, дом творчества писателей";"пос. ДСК "Мичуринец"";"Погодина, 4";"108816";="+74994600940";"";"http://pro-peredelkino.org";"https://vk.com/peredelkino_dt";"";"37.334285";"55.657428";"Культура / Искусство / Религия";"Музеи, Библиотеки"
"18";"Московский музей современного искусства";"Москва";"улица Петровка, 25 ст1";"107031";="+74956906870";"";"http://www.mmoma.ru";"https://vk.com/id77591204";"";"37.614058";"55.767213";"Культура / Искусство / Религия";"Музеи"
"19";"Оружейная палата";"Москва";"Кремль, 1р";"109012";="+74956954631, +74956970349, +74956214720";"";"http://www.kreml.ru";"https://vk.com/kremlinmuseums";"";"37.613194";"55.749223";"Культура / Искусство / Религия";"Музеи, Интересные здания"
"20";"Государственный исторический музей";"Москва";"Красная площадь, 1";"109012";="+74956923731, +74956924019";"";"http://www.shm.ru";"https://vk.com/gim";"";"37.618099";"55.755381";"Культура / Искусство / Религия";"Музеи, Интересные здания"
"21";"Бункер-42 на Таганке, музей Холодной войны";"Москва";"5-й Котельнический переулок, 11";"115172";="+74955000554, +79857900082";"";"http://www.bunker42.com";"https://vk.com/bunker42com";"";"37.649216";"55.741679";"Культура / Искусство / Религия";"Музеи"
"22";"Кусково, музей-усадьба";"Москва";"Юности, 2 ст1";"111402";="+74953753131";"";"http://www.kuskovo.ru";"https://vk.com/museum_kuskovo";"";"37.80751";"55.7352";"Культура / Искусство / Религия";"Музеи"
"23";"Палеонтологический музей им. Ю.А. Орлова";"Москва";"Профсоюзная, 123";"117647";="+74953394544, +74953391500, +79169968134";"";"http://www.paleo.ru";"https://vk.com/paleomuseum";"";"37.514209";"55.624334";"Культура / Искусство / Религия";"Музеи"
"24";"Царицыно, Хлебный дом";"Москва";"Дольская улица, 1 ст4";"115569";="+74953224433";"";"http://tsaritsyno-museum.ru";"https://vk.com/tsaritsynomuseum";"";"37.68464";"55.61605";"Культура / Искусство / Религия";"Музеи, Интересные здания"
"25";"Храм Василия Блаженного, Покровский собор";"Москва";"Красная площадь, 2";"109012";="+74956983304";"";"http://www.shm.ru";"https://vk.com/club51240869";"";"37.623158";"55.75269";"Культура / Искусство / Религия";"Музеи, Интересные здания"
"26";"Государственный музей истории ГУЛАГа";"Москва";"1-й Самотёчный переулок, 9";"127473";="+74956217310, +74956818882";"";"http://www.gmig.ru";"https://vk.com/gulagmuseum";"";"37.6137";"55.777131";"Культура / Искусство / Религия";"Музеи"
"27";"Garage, музей современного искусства";"Москва";"Крымский Вал улица, 9 ст32";"119049";="+74956450520";"";"http://www.garagemca.org";"https://vk.com/garagemca";"";"37.601436";"55.727542";"Культура / Искусство / Религия";"Музеи, Библиотеки"
"28";"Еврейский музей и центр толерантности";"Москва";"улица Образцова, 11 ст1а";"127055";="+74956450550";"";"http://www.jewish-museum.ru";"https://vk.com/j_museum";"";"37.606877";"55.7894";"Культура / Искусство / Религия";"Музеи"
"29";"Центральный музей ВОВ 1941-1945 гг.";"Москва";"площадь Победы, 3";"121170";="+74994498181";"";"http://victorymuseum.ru";"https://vk.com/muzeypobedy";"";"37.505141";"55.73102";"Культура / Искусство / Религия";"Музеи"
"30";"Макет Москвы, выставочный центр";"Москва";"проспект Мира (ВДНХ), 119 ст75а";"129223";="+79252373728, +79252373729";"";"http://www.maketmoskvy.ru";"https://vk.com/maketmoskvy";"";"37.630547";"55.834396";"Культура / Искусство / Религия";"Музеи"
"31";"Булгаковский Дом, музей-театр";"Москва";"Большая Садовая улица, 10";"123001";="+74959700619, +74957759461, +79037680204";"";"http://www.dombulgakova.ru";"https://vk.com/bulgakov_house";"";"37.59363";"55.767184";"Культура / Искусство / Религия";"Музеи"
"32";"Государственный музей А.С. Пушкина";"Москва";"улица Пречистенка, 12/2 ст6";"119034";="+74956375674";"";"http://www.pushkinmuseum.ru";"https://vk.com/club41276547";"";"37.596857";"55.744098";"Культура / Искусство / Религия";"Музеи"
"33";"Музей М.А. Булгакова";"Москва";"Большая Садовая улица, 10";"123001";="+74956995366";"";"http://www.bulgakovmuseum.ru";"https://vk.com/bulgakovmuseum";"";"37.593892";"55.767044";"Культура / Искусство / Религия";"Музеи"
"34";"Россия – Моя История, исторический парк";"Москва";"проспект Мира (ВДНХ), 119 пав57";"129223";="88005551263";"";"http://myhistorypark.ru";"https://vk.com/myhistory_project";"";"37.626327";"55.833776";"Культура / Искусство / Религия";"Музеи"
"35";"Музей Москвы, музейное объединение";"Москва";"Зубовский бульвар, 2 ст1";"119021";="+74957390008";"";"http://mosmuseum.ru";"https://vk.com/moscowmuseum";"";"37.593565";"55.736418";"Культура / Искусство / Религия";"Музеи"
"36";"Рабочий и колхозница, музейно-выставочный центр";"Москва";"проспект Мира, 123Б";"129223";="";"";"http://znanie.vdnh.ru";"https://vk.com/vdnh";"";"37.646689";"55.828107";"Культура / Искусство / Религия";"Музеи"
"37";"Бородинская битва, музей-панорама";"Москва";"Кутузовский проспект, 38 ст1";"121170";="+74991481927, +74991481875";"";"http://www.1812panorama.ru";"https://vk.com/panoramaborodino";"";"37.523363";"55.738626";"Культура / Искусство / Религия";"Музеи, Интересные здания"
"38";"Автомобили мира, музей";"Москва";"Самокатная, 4 ст34";"111033";="+74959888040";"";"http://automuseum.ru";"https://vk.com/autoretromuseum";"";"37.675536";"55.754941";"Культура / Искусство / Религия";"Музеи"
"39";"Гараж особого назначения ФСО России, музей";"Москва";"проспект Мира (ВДНХ), 119 ст53";"129223";="+74956380820";"";"http://gon-museum.ru";"https://vk.com/gon_museum";"";"37.621394";"55.837079";"Культура / Искусство / Религия";"Музеи"
"40";"Дом Пашкова";"Москва";"улица Воздвиженка, 3/5 ст1";"119019";="88001005790, +74956099590, +74995570470,,,12, +74995570470,,,71";"";"http://pashkovdom.rsl.ru";"https://vk.com/leninka_ru";"";"37.608284";"55.749847";"Культура / Искусство / Религия";"Музеи, Аренда площадок для культурно-массовых мероприятий, Библиотеки"
"41";"Музей Покровского монастыря и Блаженной Матроны Московской";"Москва";"Таганская улица, 58";"109147";="+74959114920";"";"http://www.pokrov-monastir.ru/news/muzey_pokrovskogo_monastyrya";"";"";"37.67113";"55.738804";"Культура / Искусство / Религия";"Музеи"
"42";"Государственный Дарвиновский музей";"Москва";"улица Вавилова, 57 ст1";"117292";="+74997832253, +74991321047";"";"http://darwinmuseum.ru";"https://vk.com/darwinmuseum";"";"37.562235";"55.690874";"Культура / Искусство / Религия";"Музеи"
"43";"Музей Отечественной войны 1812 года";"Москва";"площадь Революции, 2/3";"109012";="+74956923731";"";"http://www.shm.ru";"https://vk.com/gim";"";"37.618385";"55.756354";"Культура / Искусство / Религия";"Музеи, Интересные здания"
"44";"Государственный музей искусства народов Востока";"Москва";"Никитский бульвар, 12а";"119019";="+74956910212, +74956914966";"";"http://www.orientmuseum.ru";"https://vk.com/club51591430";"";"37.599761";"55.756366";"Культура / Искусство / Религия";"Музеи"
"45";"Алмазный фонд, выставочный зал";"Москва";"Кремль, 1р";"109012";="+74956292036";"";"";"";"";"37.613816";"55.749525";"Культура / Искусство / Религия";"Музеи"
"46";"Дворец царя Алексея Михайловича в Коломенском";"Москва";"проспект Андропова, 39 к69";"115487";="+74997828903";"";"http://www.mgomz.ru";"";"";"37.655969";"55.65628";"Культура / Искусство / Религия";"Музеи"
"47";"Музей Москвы, музейное объединение";"Москва";"Зубовский бульвар, 2 ст7";"119021";="+74957390008";"";"http://mosmuseum.ru";"https://vk.com/moscowmuseum";"";"37.594315";"55.736681";"Культура / Искусство / Религия";"Музеи"
"48";"Московский музей современного искусства";"Москва";"Гоголевский бульвар, 10 ст2";"119019";="+74956906870, +74952314410";"";"http://www.mmoma.ru";"https://vk.com/id77591204";"";"37.600488";"55.746353";"Культура / Искусство / Религия";"Музеи"
"49";"Музей эмоций";"Москва";"Нижний Сусальный переулок, 5 ст18";"105064";="+79958877788";"";"http://museumofemotions.ru/msk";"https://vk.com/museumofemotions";"";"37.664704";"55.759047";"Культура / Искусство / Религия";"Музеи, Художественные выставки / Галереи"
"50";"Государственный культурный центр-музей В.С. Высоцкого";"Москва";"Высоцкого, 3 ст1";"109240";="+74959152979, +74959157578";"";"http://www.visotsky.ru";"https://vk.com/club122558565";"";"37.651737";"55.744509";"Культура / Искусство / Религия";"Музеи"
"51";"Государственный центральный театральный музей им. Бахрушина А.А.";"Москва";"Бахрушина, 31";"115054";="+74994847777, 88007777484, +74959537875";"";"http://www.gctm.ru";"https://vk.com/bahrushinmuseum";"";"37.6377";"55.731951";"Культура / Искусство / Религия";"Музеи, Интересные здания"
"52";"Русский быт, экологический центр";"Москва";"Бумажная просека, 21 ст2";"129338";="+74953238885";"";"http://losinyiostrov.ru/";"https://vk.com/losiny_ostrov";"";"37.729409";"55.862725";"Культура / Искусство / Религия";"Музеи"
"53";"Музей железнодорожного транспорта Московской железной дороги, Экспозиционная площадка";"Москва";"Рижская площадь, 3 ст5";"129272";="+74992668208";"";"http://www.rzd-expo.ru/museums/museum_of_the_moscow_railway/";"";"";"37.632398";"55.794004";"Культура / Искусство / Религия";"Музеи"
"54";"Кукольный дом Ольги Окуджава";"Москва";"Плотников переулок, 21 ст1";"119002";="+74992415534, +74992415518";"";"http://dombulata.ru";"";"";"37.588092";"55.74757";"Культура / Искусство / Религия";"Музеи"
"55";"Музей московского художественного театра им А.П. Чехова";"Москва";"Глинищевский переулок, 5/7";"125009";="+74956505391";"";"";"";"";"37.611149";"55.763764";"Культура / Искусство / Религия";"Музеи"
"56";"Творческая мастерская С.Т. Конёнкова, мемориальный музей";"Москва";"Тверской бульвар, 28/17";"125009";="+74956296139, +74956294472";"";"";"";"";"37.605286";"55.763995";"Культура / Искусство / Религия";"Музеи"
"57";"Ингосстрах, музей";"Москва";"Пятницкая улица, 14 ст12";"115035";="+74959565555";"";"http://www.ingos.ru";"";"";"37.626593";"55.743066";"Культура / Искусство / Религия";"Музеи"
"58";"Музей Почты России";"Москва";"Чистопрудный бульвар, 2 ст6";"101000";="+74952765555,,,02505, +79266018405";"";"";"https://vk.com/moscowpostmuseum";"";"37.638011";"55.764327";"Культура / Искусство / Религия";"Музеи"
"59";"Научно-мемориальный музей профессора Н.Е. Жуковского";"Москва";"улица Радио, 17 к5";"105005";="+74959169061, +74959169060";"";"http://zhukovskymuseum.ru";"https://vk.com/zhukovskymuseum";"";"37.679156";"55.76357";"Культура / Искусство / Религия";"Музеи, Интересные здания"
"60";"Музей органической культуры";"Коломна";"Казакова, 10";"140400";="+74966186572, +79030014865, +74966186817, +74966186729";"";"http://www.museumart.ru";"";"";"38.756039";"55.104188";"Культура / Искусство / Религия";"Музеи"
"61";"Музеи наукограда Королёв, Отдел новейшей истории города";"Королёв";"Терешковой, 1";"141070";="+74955166066";"";"http://museumkorolev.ru";"https://vk.com/museumkorolev";"";"37.813632";"55.918528";"Культура / Искусство / Религия";"Музеи"
"62";"Кабинет и квартира В.И. Ленина в Кремле";"рп. Горки Ленинские";"посёлок Горки Ленинские, 1 ст5";"142712";="+74955489023";"";"http://mgorki.ru";"https://vk.com/gorkilen";"";"37.762588";"55.499113";"Культура / Искусство / Религия";"Музеи"
"63";"Знаменское-Губайлово, культурно-выставочный комплекс";"Красногорск";"Красная Горка, 35";"143404";="+74953692346";"";"http://usadbagubailovo.ru";"https://vk.com/znamenskoegubailovo";"";"37.321375";"55.8217";"Культура / Искусство / Религия";"Музеи"
"64";"Камышмаш, выставочный зал автомобилей";"д. Большое Сареево";"Речная, 42";"143033";="+74957558801";"";"http://kmz-zavod.ru";"";"";"37.183631";"55.715858";"Культура / Искусство / Религия";"Музеи"
"65";"Музей Краснознаменска и космоса";"Краснознаменск";"площадь Ленина, 1";"143090";="+79360020147, +74955902345,,,112";"";"http://do-kz.ru";"";"";"37.042609";"55.600872";"Культура / Искусство / Религия";"Музеи"
"66";"Let`s go, музей лего";"Звенигород";"Ратехинское шоссе, ст1";"143180";="+79067736137";"";"http://letsgo-museum.ru";"https://vk.com/letsgomuseum";"";"36.824625";"55.733332";"Культура / Искусство / Религия";"Музеи"
"67";"Музей ватной игрушки";"Москва";"Шоссейная улица, 82 ст1";"109383";="";"";"http://www.manufactura-mi.ru/museum";"";"";"37.718755";"55.669638";"Культура / Искусство / Религия";"Музеи"
"68";"Школа Ремесел, выставочный зал";"Коломна";"Чкалова, 24";"140402";="+74966132533, +79684040266, +74966162533";"";"http://kolomna-shkolaremesel.ru";"https://vk.com/kolomna_shkolaremesel";"";"38.795724";"55.075512";"Культура / Искусство / Религия";"Музеи"
"69";"Славянский кремль Виталия Сундакова, музей";"д. Лопаткино";"деревня Лопаткино, вл1";"142143";="";"";"http://slavkreml.ru";"https://vk.com/slav_kreml";"";"37.652607";"55.316353";"Культура / Искусство / Религия";"Музеи"
"70";"Академгородок, музей быта советских ученых";"Москва";"улица Маршала Новикова, 1";"123098";="+74991960659, +74991960949";"";"";"https://vk.com/public214088535";"";"37.469896";"55.800554";"Культура / Искусство / Религия";"Музеи"
"71";"Живая история, музей";"Москва";"Земляной Вал улица, 27 ст3";"105064";="+79055481101, +79197842003";"";"http://zhivayaistoriya.com";"https://vk.com/club42652868";"";"37.658728";"55.759177";"Культура / Искусство / Религия";"Музеи"
"72";"Музей современной модной куклы";"Солнечногорск";"Красная улица, 65";"141503";="+79854323566";"";"";"https://vk.com/solndollmuseum";"";"36.97852";"56.186426";"Культура / Искусство / Религия";"Музеи"
"73";"Музей железнодорожного транспорта Московской железной дороги";"Москва";"улица Кожевническая, 2";"115114";="";"";"http://mzd.rzd.ru/ru/3917";"";"";"37.64215";"55.728704";"Культура / Искусство / Религия";"Музеи"
"74";"ВПК НПО машиностроения, музей";"Реутов";"Гагарина, 33 к4";"143966";="+74955287154";"";"http://www.npomash.ru/museum/ru/museum_npo.htm";"";"";"37.874537";"55.758015";"Культура / Искусство / Религия";"Музеи"
"75";"Галерея Анастасии Чижовой, музей кукол";"Москва";"проспект Мира (ВДНХ), 119 ст16";"129223";="+79854208155";"";"http://agallery.ru";"https://vk.com/vdnh";"";"37.622815";"55.830434";"Культура / Искусство / Религия";"Музеи"
"76";"Тапан, музей";"Москва";"Олимпийский проспект, 9 ст2";"129272";="+74956810765";"";"http://armenianchurch.ru/tapan?section=news";"https://vk.com/muzem_tapan";"";"37.621965";"55.787907";"Культура / Искусство / Религия";"Музеи"
"77";"Железное царство, музей";"д. Коростово";"деревня Коростово, 24";"143442";="+79857841049";"";"";"";"";"37.302322";"55.899908";"Культура / Искусство / Религия";"Музеи"
"78";"Имена и эпохи, музей пластилиновой мини-скульптуры";"Москва";"Измайловское шоссе, 73ж";"105187";="+79036148487, +79037464140";"";"http://www.сладкарня-марципан.рф";"https://vk.com/plastmuseum";"";"37.751585";"55.79401";"Культура / Искусство / Религия";"Музеи"
"79";"Музей истории основания Российского флота";"Москва";"Измайловское шоссе, 73ж ст20";"105187";="+74952155437";"";"http://kremlin-izmailovo.com";"";"";"37.754801";"55.794194";"Культура / Искусство / Религия";"Музеи"
"80";"Усадьба Лопасня-Зачатьевское, музей";"Чехов";"Пушкина, 10";"142306";="+74967230389";"";"http://chekhovmuseum.com/museum/branches/museum-estate-lopasnya-conception/";"";"";"37.445784";"55.139603";"Культура / Искусство / Религия";"Музеи"
"81";"Наша Эпоха, музей";"Москва";"Олсуфьевский переулок, 6 ст2";"119021";="+74992452185";"";"http://www.nashaepoha.ru";"";"";"37.580944";"55.732711";"Культура / Искусство / Религия";"Музеи"
"82";"Музей печатной графики";"Москва";"Хрустальный переулок, 1";"109012";="+79265555947";"";"http://printmuseum.ru";"";"";"37.625454";"55.752878";"Культура / Искусство / Религия";"Музеи"
"83";"Музей истории Черноморского флота";"Москва";"Большая Черёмушкинская, 38";"117218";="+79152871821, +79266363080";"";"http://dpish.mskobr.ru/muzej_istorii_chernomorskogo_flota";"";"";"37.580505";"55.678795";"Культура / Искусство / Религия";"Музеи"
"84";"Музей ангелов на Арбате";"Москва";"улица Арбат, 4 ст1-1а";"119019";="+79154505606";"";"http://дом-ангелов.рф";"";"";"37.598976";"55.752384";"Культура / Искусство / Религия";"Музеи"
"85";"Негосударственный музей американского искусства";"Москва";"улица Поварская, 22 ст1а";"121069";="+79250383420";"";"http://www.sam-house-museum.com";"";"";"37.59481";"55.754692";"Культура / Искусство / Религия";"Музеи"
"86";"Мемориальный музей-квартира Е.Ф. Гнесиной";"Москва";"улица Поварская, 30-36 ст1";"121069";="+74956904505";"";"http://gnesina-museum.com";"https://vk.com/gnesina_museum";"";"37.59113";"55.75581";"Культура / Искусство / Религия";"Музеи"
"87";"Центр противопожарной пропаганды и общественных связей, Главное управление МЧС России по г. Москве";"Москва";"Дурова, 49";"129090";="+74956844538";"";"http://вдпо.рф";"https://vk.com/club203015498";"";"37.629536";"55.778456";"Культура / Искусство / Религия";"Музеи"
"88";"Музей-квартира им. Е. Вахтангова";"Москва";"Денежный переулок, 12";"119002";="+74992413765";"";"http://vakhtangov.ru";"https://vk.com/vakhtangov_theatre";"";"37.587853";"55.743806";"Культура / Искусство / Религия";"Музеи"
"89";"Музей истории ВОГ";"Москва";"улица 1905 года, 10а";"123022";="+74952556704";"";"http://www.voginfo.ru";"https://vk.com/voginfo";"";"37.5592";"55.767354";"Культура / Искусство / Религия";"Музеи"
"90";"Церковный музей Московской епархии русской православной церкви";"Москва";"Новодевичий проезд, 1 ст1";"119435";="+74992468526";"";"http://www.ndm-museum.ru";"";"";"37.557695";"55.726921";"Культура / Искусство / Религия";"Музеи"
"91";"Музей русских гуслей и китайского гуциня";"Москва";"5-й Лучевой просек, 5а ст4";"107014";="+79163450978";"";"http://guslimuseum.ru";"";"";"37.674447";"55.798156";"Культура / Искусство / Религия";"Музеи"
"92";"Музей Храма святителя Николая Мирликийского у Соломенной сторожки";"Москва";"Ивановская, 3 ст1";"127434";="+79154903864, +79296642421, +74999779931, +79851708503";"";"http://agios-nicolos.ru";"";"";"37.568418";"55.818345";"Культура / Искусство / Религия";"Музеи"
"93";"Мульт-мастерская дедушки Мультфильмыча";"Москва";"Измайловское шоссе, 73ж";"105187";="+74959406960, +74959406980, +79104380804";"";"http://animamuseum.ru";"";"";"37.749318";"55.794333";"Культура / Искусство / Религия";"Музеи"
"94";"Мемориальный дом-музей академика И.В. Курчатова";"Москва";"площадь Академика Курчатова, 1 ст42";"123060";="+74991969226";"";"http://www.museum.ru/m1719";"";"";"37.476319";"55.798364";"Культура / Искусство / Религия";"Музеи"
"95";"Егорьевский историко-художественный музей";"Егорьевск";"Советская, 73/20";"140301";="+74964024185";"";"http://egmuseum.ru";"https://vk.com/egmuseum";"";"39.034603";"55.384113";"Культура / Искусство / Религия";"Музеи"
"96";"Энергия, музей";"Королёв";"Ленина, 4а";"141070";="+74955138996";"";"http://www.energia.ru/energia/history/museum/museum.html";"";"";"37.804056";"55.920414";"Культура / Искусство / Религия";"Музеи"
"97";"Картинка, музей детской книжной иллюстрации";"Балашиха";"Пролетарская, 8";"143980";="+74955229220";"";"http://muzeykartinka.ru";"https://vk.com/public173992166";"";"38.007998";"55.74711";"Культура / Искусство / Религия";"Музеи"
"98";"Шёлковая фабрика, музей-лаборатория";"Коломна";"Уманская, 3д";"140415";="+79581830020";"";"http://silkfactory.ru";"https://vk.com/kolomnasilkfactory";"";"38.766868";"55.100712";"Культура / Искусство / Религия";"Музеи, Коворкинг, Курсы творчества и рукоделия для взрослых"
"99";"Музей академического театра Российской армии";"Москва";"Суворовская площадь, 2а";"129110";="+74956815120, +74956815719";"";"http://teatrarmii.ru/projects";"";"";"37.614417";"55.782487";"Культура / Искусство / Религия";"Музеи"
"100";"Радиомузей Валерия Громова";"Москва";"Сущёвская, 9 ст4";"127030";="+74957441070, +74999724200";"";"http://rkk-museum.ru";"";"";"37.601308";"55.780528";"Культура / Искусство / Религия";"Музеи"
"101";"Старо-Никольское, усадьба";"пос. Первомайское";"Парковая улица, 18";"108808";="+74999180861";"";"";"";"";"37.153819";"55.535813";"Культура / Искусство / Религия";"Музеи"
"102";"Музей Российского общества Красного Креста и Августейших владельцев имения Ильинское-Усово";"с. Ильинское";"улица Ленина, 3а";"143421";="";"";"";"";"";"37.234191";"55.757541";"Культура / Искусство / Религия";"Музеи"
"103";"Объединение Гжель, музей";"д. Турыгино";"деревня Турыгино, 149 ст1";"140155";="+79060552357";"";"http://gzhel.ru";"";"";"38.507797";"55.586168";"Культура / Искусство / Религия";"Музеи"
"104";"Куровский народный историко-краеведческий музей";"Куровское";"Вокзальная, 7";"142620";="+74964113601";"";"";"";"";"38.923804";"55.577226";"Культура / Искусство / Религия";"Музеи"
"105";"Музей Орловского рысака и Русской Тройки";"Москва";"6-й Лучевой просек, 21 ст9";"107014";="+79032057554, +79039611874";"";"http://museum-trotter.ru";"";"";"37.682003";"55.813136";"Культура / Искусство / Религия";"Музеи"
"106";"Водяная мельница на речке Жуже, музей";"Москва";"проспект Андропова, 39 ст62";"115487";="+74996152768, +74996152771";"";"http://mgomz.ru";"https://vk.com/mgomz";"";"37.680169";"55.672057";"Культура / Искусство / Религия";"Музеи"
"107";"Демонстрационный центр, Центральный аэрогидродинамический институт им. профессора Н.Е. Жуковского";"Жуковский";"Жуковского, 1 к1";"140181";="+79031416085";"";"http://tsagi.ru/institute/Demo_center";"https://vk.com/tsagi_official";"";"38.111415";"55.596634";"Культура / Искусство / Религия";"Музеи"
"108";"Победные дни отчизны, музей воинской славы";"Москва";"Вешняковская, 24а";"111395";="";"";"";"";"";"37.818392";"55.719989";"Культура / Искусство / Религия";"Музеи"
"109";"Кадашевская слобода, музей";"Москва";"Кадашёвский тупик, 2 ст5";"115035";="+79258393051, +79175718020, +79104466277, +79104133775";"";"http://www.museumkadashi.com";"";"";"37.623025";"55.743171";"Культура / Искусство / Религия";"Музеи"
"110";"Экскурсионное бюро, Московская Соборная мечеть";"Москва";"Выползов переулок, 7 ст2";"129090";="+74951205589, +79160884561";"";"http://www.mihrab.ru";"";"";"37.627045";"55.779441";"Культура / Искусство / Религия";"Музеи"
"111";"Школа 204 им. А.М. Горького, музей";"Москва";"Тихвинская, 39 ст2";"127055";="+79099104036";"";"http://www.museum204.com";"";"";"37.598799";"55.792131";"Культура / Искусство / Религия";"Музеи"
"112";"Мемориальная квартира А.И. Сумбатова-Южина";"Москва";"Большой Палашёвский переулок, 5/1";"123104";="+79168798490";"";"http://www.maly.ru/yuzhin";"";"";"37.598686";"55.764288";"Культура / Искусство / Религия";"Музеи"
"113";"Государственный музейно-выставочный центр росизо";"Москва";"проспект Мира (ВДНХ), 119 ст516";"129223";="+74953500544";"";"http://rosizo.ru";"https://vk.com/rosizo";"";"37.61998";"55.830112";"Культура / Искусство / Религия";"Музеи"
"114";"Музей современной оловянной военно-исторической миниатюры";"Москва";"Варшавское шоссе, вл132/2";"117519";="+79778954802";"";"http://оловянныесолдатики.рф";"";"";"37.608735";"55.620345";"Культура / Искусство / Религия";"Музеи, Сувениры"
"115";"Музей-библиотека им Н.Ф. Фёдорова";"Москва";"Профсоюзная, 92";"117485";="+74953355722";"";"http://nffedorov.ru";"";"";"37.529002";"55.648845";"Культура / Искусство / Религия";"Музеи"
"116";"Музей боевой славы 43-й армии";"Москва";"Профсоюзная, 142 к5";"117321";="+74954207044, +74953383200";"";"http://gym1507uz.mskobr.ru/obrazovanie/muzei/muzej_43_armii";"";"";"37.504463";"55.626772";"Культура / Искусство / Религия";"Музеи"
"117";"Музеи наукограда Королёв, Отдел новейшей истории города микрорайона Юбилейного";"Королёв";"М.К. Тихонравова, 23";"141091";="+74955166066, +74986281008";"";"http://museumkorolev.ru";"https://vk.com/museumkorolev";"";"37.834545";"55.938836";"Культура / Искусство / Религия";"Музеи"
"118";"Музей крестьянского быта";"д. Горки";"деревня Горки, 9";"142712";="+74955489933";"";"http://mgorki.ru";"https://vk.com/gorkilen";"";"37.756298";"55.510339";"Культура / Искусство / Религия";"Музеи"
"119";"Государственный центр современного искусства, Пушкинский музей";"Москва";"Зоологическая, 13 ст2";"123242";="+74992548492";"";"http://pushkinmuseum.art";"";"";"37.581533";"55.764355";"Культура / Искусство / Религия";"Музеи"
"120";"Музей истории г. Лобня";"Лобня";"Жирохова, 2";"141733";="+74986195535";"";"http://museum-lobnya.mo.muzkult.ru";"";"";"37.472515";"56.023787";"Культура / Искусство / Религия";"Музеи"
"121";"Пушкинский Краеведческий Музей, Дача Струковых";"Пушкино";"Серебрянская 1-я улица, 3";"141207";="+74965320309";"";"http://museumpushkino.ru";"";"";"37.845149";"56.018534";"Культура / Искусство / Религия";"Музеи"
"122";"Музей Люберецкого техникума им. Героя Советского Союза, лётчика-космонавта Ю.А. Гагарина";"Люберцы";"Октябрьский проспект, 136";"140005";="+74955031090, +74955034577";"";"http://luberteh.ru/muzey-gagarina.htm";"";"";"37.886719";"55.681274";"Культура / Искусство / Религия";"Музеи"
"123";"Музей Зеленограда";"Зеленоград";"Зеленоград, к1410";"124617";="+74997314512, +74997171602";"";"http://www.zelmuseum.ru";"https://vk.com/zelmuseum";"";"37.146676";"55.986717";"Культура / Искусство / Религия";"Музеи"
"124";"Музей памяти Лопасненского края";"Чехов";"Московская улица, 22";"142306";="+74967267770";"";"http://мплк.рф";"";"";"37.452266";"55.143297";"Культура / Искусство / Религия";"Музеи"
"125";"Музей Гжельского промысла";"с. Речицы";"Молодёжная, 24/1";"140145";="+74964647404, +74964647154, +79151324840, +79268373854";"";"http://www.krez.ru";"https://vk.com/gzhel_galaktika";"";"38.452166";"55.598433";"Культура / Искусство / Религия";"Музеи"
"126";"Музей С.И. Танеева в Дютькове";"Звенигород";"Дютьково микрорайон, 23а";"143078";="+74957275008, +79857275008";"";"http://www.m-dutkovo.ru";"";"";"36.806475";"55.752337";"Культура / Искусство / Религия";"Музеи"
"127";"Музей космонавта Валерия Быковского";"Павловский Посад";"площадь Революции, 15";"142500";="+79857515331";"";"http://ppmvk.ru/";"https://vk.com/museumbykovskiy";"";"38.650045";"55.780684";"Культура / Искусство / Религия";"Музеи"
"128";"Музей русской охоты";"Москва";"Трёхпрудный переулок, 11/13 ст2";"123001";="+79168000000";"";"";"";"";"37.596484";"55.765518";"Культура / Искусство / Религия";"Музеи"
"129";"Музей Священника Павла Флоренского";"Москва";"улица Бурденко, 16/12";"119121";="+74992465490, +79096969051";"";"";"";"";"37.580522";"55.739117";"Культура / Искусство / Религия";"Музеи"
"130";"Музей традиции";"Коломна";"Казакова, 6";"140400";="+79030014865";"";"http://www.museumart.ru";"";"";"38.755673";"55.104228";"Культура / Искусство / Религия";"Музеи"
"131";"Музей далёкой галактики";"Москва";"Загородное шоссе, 9 к1";"117152";="+74956824222,,,2575, +79154327879, +79169143347";"";"";"https://vk.com/muzeidalekoigalaktiki";"";"37.607495";"55.692874";"Культура / Искусство / Религия";"Музеи"
"132";"Музей Московского государственного технического университета им. Н.Э. Баумана";"Москва";"Бауманская 2-я, 5 ст1";"105005";="+74992636386";"";"";"https://vk.com/bmstu1830";"";"37.684401";"55.76624";"Культура / Искусство / Религия";"Музеи"
"133";"Патриот, центр управления";"";"Парк Патриот, ст2а";"";="88007070107";"";"http://patriotp.ru";"";"";"36.826451";"55.565732";"Культура / Искусство / Религия";"Музеи"
"134";"Музей боевой славы 70-й стрелковой дивизии";"Московский";"3-й микрорайон, 8";"108811";="";"";"http://museum2065.ru";"";"";"37.346743";"55.595651";"Культура / Искусство / Религия";"Музеи"
"135";"Музей-студия головоломок";"Москва";"Багратионовский проезд, 7 к3";"121087";="+74957688273, +79857688273";"";"http://www.puzzlemuseum.ru";"https://vk.com/puzzlemuseum";"";"37.503042";"55.741716";"Культура / Искусство / Религия";"Музеи"
"136";"Митино, культурный центр";"Москва";"Пятницкое шоссе, 45";"125310";="+74957514890, +74957512804, +74957940500";"";"";"";"";"37.349296";"55.858201";"Досуг / Развлечения / Общественное питание";"Детские / подростковые клубы, Культурно-досуговые центры для взрослых, Музеи"
"137";"ЗЕНИТ, музей";"Красногорск";"Речная улица, 8 ст13";"143402";="+74955618008";"";"";"";"";"37.331475";"55.831281";"Культура / Искусство / Религия";"Музеи"
"138";"Музей боевой славы 171-ой стрелковой дивизии им. Героя Советского Союза К.Я. Самсонова";"Москва";"Востряковский проезд, 13а";"117403";="";"";"";"";"";"37.645288";"55.577717";"Культура / Искусство / Религия";"Музеи"
"139";"Путь русской славы, музей";"Химки";"Ленинградская, 39 ст6";"141402";="+79213283418";"";"http://skazdvor.ru";"";"";"37.414835";"55.908359";"Культура / Искусство / Религия";"Музеи"
"140";"Климо, музей русской деревянной игрушки";"Подольск";"Фабричный проезд, 2";"142180";="+74994004009, +79255984834";"";"http://www.klimo.ru";"";"";"37.508558";"55.345858";"Культура / Искусство / Религия";"Музеи"
"141";"Музей колоколов, Православная школа им. Преподобного Сергия Радонежского в усадьбе Свиблово";"Москва";"Лазоревый проезд, 15 ст2";"129323";="";"";"http://sviblovoprav.mskobr.ru";"https://vk.com/club155073465";"";"37.631015";"55.853328";"Культура / Искусство / Религия";"Музеи"
"142";"У Троицы, музей";"Москва";"Троицкая, 7/1";"129090";="+74956811104";"";"";"";"";"37.62235";"55.774857";"Культура / Искусство / Религия";"Музеи"
"143";"Музей боевой славы 327-й авиадивизии 4-й воздушной армии";"Москва";"Ясеневая улица, 35 к2";"115597";="+74953985035";"";"";"";"";"37.738754";"55.607791";"Культура / Искусство / Религия";"Музеи"
"144";"Музей боевой славы 139-й Рославльской Краснознаменной ордена Суворова стрелковой дивизии";"Москва";"11-я Парковая улица, 50";"105215";="+79852709095";"";"";"https://vk.com/museum139";"";"37.806387";"55.807284";"Культура / Искусство / Религия";"Музеи"
"145";"Музей истории разведки и контрразведки России";"Москва";"Севастопольский проспект, 20а";"117447";="";"";"";"";"";"37.597272";"55.68218";"Культура / Искусство / Религия";"Музеи"
"146";"Музей боевой славы";"Коломна";"Непобедимого, 1";"140407";="+74966165230, +74966165231";"";"http://kolomnamuzej.ru";"https://vk.com/muzejboevojslavi";"";"38.771596";"55.093822";"Культура / Искусство / Религия";"Музеи"
"147";"Музей меди и латуни";"Киржач";"Ленинградская, 15";"601010";="+79612563020, +74923729181";"";"";"https://vk.com/club135035242";"";"38.870966";"56.159404";"Культура / Искусство / Религия";"Музеи"
"148";"Музей реставрации памятников архитектуры";"Коломна";"Красногвардейская, 17";"140400";="+79251528575";"";"";"";"";"38.762017";"55.100279";"Культура / Искусство / Религия";"Музеи"
"149";"Музей Зюзинской волости";"Москва";"Перекопская, 9а";"117209";="+74997894491";"";"";"";"";"37.579154";"55.657791";"Культура / Искусство / Религия";"Музеи"
"150";"Музей транспорта Москвы";"Москва";"Новорязанская, 27 ст1";"105066";="+74953692675";"";"http://www.mtmuseum.com";"https://vk.com/mtmuseum";"";"37.666545";"55.772148";"Культура / Искусство / Религия";"Музеи"
"151";"Музей еврейского наследия и Холокоста";"Москва";"Кутузовский проспект, 53";"121170";="+74991481907, +74991480887";"";"";"";"";"37.496221";"55.730258";"Культура / Искусство / Религия";"Музеи"
"152";"Янтарная галерея";"Москва";"улица Арбат, 23 ст1";"119002";="+74012310864, +79097851701";"";"http://ambercombine.ru";"";"";"37.595282";"55.750486";"Культура / Искусство / Религия";"Музеи"
"153";"Терракотовая армия";"Москва";"проспект Мира (ВДНХ), 119 пав21";"129223";="+74996438238";"";"http://terracottaarmy.ru";"";"";"37.620273";"55.832472";"Культура / Искусство / Религия";"Художественные выставки / Галереи, Музеи"
"154";"Музей барона Мюнхгаузена";"Москва";"улица Народного Ополчения, 12 к6";"123423";="+74957288864";"";"http://баронмюнхаузен.рф";"";"";"37.480976";"55.771804";"Культура / Искусство / Религия";"Музеи"
"155";"Музей морского космического флота";"Москва";"Пятницкое шоссе, 45";"125310";="+74957512804, +79859926100, +79175077511";"";"";"";"";"37.349296";"55.858201";"Культура / Искусство / Религия";"Музеи"
"156";"Музей-квартира В.Н. Плучека";"Москва";"улица Большая Бронная, 2/6";"123104";="+74994847777";"";"http://www.gctm.ru";"";"";"37.597562";"55.759996";"Культура / Искусство / Религия";"Музеи"
"157";"Stella art found, фонд поддержки культуры";"Москва";"Скарятинский переулок, 7";"121069";="+74956913407";"";"http://www.safmuseum.org";"https://vk.com/safmuseum";"";"37.589636";"55.758685";"Культура / Искусство / Религия";"Музеи"
"158";"Творческое наследие академика Юрия Орехова, музей";"Москва";"Земледельческий переулок, 7";"119121";="+74992480246";"";"http://www.sculptura.ru";"";"";"37.578174";"55.740336";"Культура / Искусство / Религия";"Музеи"
"159";"Центр соколиной охоты Константина Соколова";"д. Лысково";"";"";="+79175116961";"";"http://соколинаяохота.рф";"https://vk.com/falconry_museum";"";"";"";"Культура / Искусство / Религия";"Музеи"
"160";"Музей Индустриализации Земледелия им. В.П. Горячкина";"Москва";"улица Прянишникова, 14 ст3";"127434";="+74999763521";"";"";"";"";"37.557077";"55.836422";"Культура / Искусство / Религия";"Музеи"
"161";"Музей истории, МГУ им. М.В. Ломоносова";"Москва";"Ломоносовский проспект, 27";"119192";="+74959393552";"";"http://msu.ru";"";"";"37.524201";"55.698713";"Культура / Искусство / Религия";"Музеи"
"162";"Русский музей детского искусства";"Москва";"Якорная, 4";"115470";="+79646406335";"";"http://sobyanina.ru";"";"";"37.681513";"55.687752";"Культура / Искусство / Религия";"Музеи"
"163";"Княжий Двор";"рп. Большие Дворы";"Маяковского, 130";"142541";="+74964350389";"";"http://ppmvk.ru";"";"";"38.646885";"55.817693";"Культура / Искусство / Религия";"Музеи"
"164";"Музей охоты и рыболовства";"Москва";"Головинское шоссе, 1";"125212";="+74954591134, +74956466719";"";"http://www.rors.ru";"";"";"37.48871";"55.839611";"Культура / Искусство / Религия";"Музеи"
"165";"Музеи наукограда Королёв, Мемориальный дом-музей С.Н. Дурылина";"Королёв";"Свободная, 12";"141060";="+74955166066, +74955190080";"";"http://museumkorolev.ru";"https://vk.com/museumkorolev";"";"37.858911";"55.933309";"Культура / Искусство / Религия";"Музеи"
"166";"Музей антибольшевистского сопротивления";"Подольск";"Плещеевская, 43а";"142101";="+79261062388";"";"http://elan-kazak.org";"https://vk.com/elankazak";"";"37.598745";"55.457013";"Культура / Искусство / Религия";"Музеи"
"167";"Лыткаринский историко-краеведческий музей";"Лыткарино";"7-й квартал, 6";"140081";="+74955524980";"";"http://lytkarinomuseum.ru";"https://vk.com/lytkarinomuseum";"";"37.90053";"55.580479";"Культура / Искусство / Религия";"Музеи"
"168";"Климовский историко-краеведческий музей";"Подольск";"проспект 50 лет Октября, 24а";"142184";="+74967628004";"";"http://икм-климовск.рф";"https://vk.com/club197410339";"";"37.537428";"55.368725";"Культура / Искусство / Религия";"Музеи"
"169";"Музейно-выставочный комплекс";"Люберцы";"Звуковая, 3";"140000";="+74955014244";"";"";"https://vk.com/malmus";"";"37.894145";"55.676957";"Культура / Искусство / Религия";"Музеи"
"170";"Метро на даче, музей";"д. Санники";"Полис киз, 18";"143362";="+79031089841";"";"http://metro-na-dache.clients.site/";"https://vk.com/counthmetro";"";"37.04133";"55.56768";"Культура / Искусство / Религия";"Музеи"
"171";"Онлайн музей";"Москва";"Кутузовский проспект, 18";"121151";="";"";"http://ballsfootball.online";"";"";"37.551582";"55.746651";"Культура / Искусство / Религия";"Музеи"
"172";"Усадьба фабриканта Думнова, музей";"с. Заречье";"Центральная, 19";"601015";="+79161343172";"";"http://domdumnova.ru";"";"";"38.600364";"55.997956";"Культура / Искусство / Религия";"Музеи"
"173";"Купеческий дом, музей";"Москва";"Троицкая, 7/1 ст1";"129090";="+74956811104";"";"";"";"";"37.62235";"55.774857";"Культура / Искусство / Религия";"Музеи"
"174";"Экскурсионное бюро Храма Христа Спасителя";"Москва";"улица Волхонка, вл15 ст1";"119019";="+74956372847, +74956372967";"";"";"";"";"37.604222";"55.744743";"Спорт / Отдых / Туризм";"Круизы / Морские, речные прогулки, Музеи"
"175";"Музей органической культуры, Выставочный зал";"Коломна";"Брусенский переулок, 31";"140400";="+74966186572";"";"http://www.museumart.ru";"";"";"38.752545";"55.103849";"Культура / Искусство / Религия";"Музеи"
"176";"Музей, МПГУ им. М.А. Шолохова";"Москва";"проспект Вернадского, 88";"119571";="";"";"http://мпгу.рф/ob-mpgu/muzey-mpgu";"https://vk.com/museum_mspu";"";"37.476794";"55.657837";"Культура / Искусство / Религия";"Музеи"
"177";"Музей истории вычислительной техники";"Москва";"Егерская, 4";"107014";="+79057482646";"";"";"";"";"37.684356";"55.793586";"Культура / Искусство / Религия";"Музеи"
"178";"Мемориальный кабинет-музей академика А.П. Виноградова";"Москва";"Косыгина, 19 ст1";"119334";="+74959397700, +74959397020";"";"";"";"";"37.551986";"55.706051";"Культура / Искусство / Религия";"Музеи"
"179";"Музей усадьбы Тимохово-Салазкино";"Видное";"Школьная, 79а/1";"142703";="+74957405825";"";"";"";"";"37.691912";"55.551026";"Культура / Искусство / Религия";"Музеи"
"180";"Музей психологии";"Люберцы";"проспект Гагарина, 26 к2";"140010";="+79959175999";"";"";"https://vk.com/muzeipsihologii";"";"37.918966";"55.690855";"Культура / Искусство / Религия";"Музеи"
"181";"Квартирка, арт-студия";"Москва";"2-я Нововатутинская улица, 5";"108836";="+79264112240";"";"";"";"";"37.351727";"55.518298";"Образование / Работа / Карьера";"Курсы творчества и рукоделия для взрослых, Детские / подростковые клубы, Музеи"
"182";"Историко-краеведческий музей, г. Ивантеевка";"Ивантеевка";"Центральный проезд, 1";"141282";="+74965361390";"";"";"";"";"37.908615";"55.967116";"Культура / Искусство / Религия";"Музеи"
"183";"Жуковская палата ремесел";"Жуковский";"улица Фрунзе, 12";"140181";="+79637505609";"";"";"https://vk.com/public24685601";"";"38.124583";"55.599036";"Культура / Искусство / Религия";"Музеи, Библиотеки"
"184";"Музей экспозиция города Старая Купавна";"Старая Купавна";"Большая Московская улица, 116";"142450";="+74965195332";"";"";"";"";"38.182309";"55.811226";"Культура / Искусство / Религия";"Музеи"
"185";"Дом Салтыкова, музейно-выставочный центр";"с. Речицы";"Художника, 1в";"140145";="+79168804554";"";"";"https://vk.com/id483183960";"";"38.468586";"55.597183";"Культура / Искусство / Религия";"Музеи"
"186";"Краеведческий музей";"Ликино-Дулёво";"Советская, 34";"142671";="+74964140724";"";"";"";"";"38.95774";"55.723468";"Культура / Искусство / Религия";"Музеи"
"187";"Музей песка";"Королёв";"проспект Космонавтов, 34Б";"141080";="";"";"";"";"";"37.86624";"55.909437";"Культура / Искусство / Религия";"Музеи, Аренда помещений"
"188";"Музей столярных инструментов";"Пушкино";"Оранжерейная, 28а";"141207";="+79261675957, +79164373423";"";"http://museumtools.ru";"";"";"37.837474";"56.004057";"Культура / Искусство / Религия";"Музеи"
"189";"Ломовой, музей";"Балашиха";"Жилгородок, 4а";"143989";="+79099922111";"";"http://romanlomov.ru";"https://vk.com/folk.museum";"";"37.994697";"55.748453";"Культура / Искусство / Религия";"Музеи"
"190";"Софрино, музей";"рп. Софрино";"Патриарха Пимена, 3";"141270";="+74959932449";"";"http://sofrino.ru";"";"";"37.937906";"56.149108";"Культура / Искусство / Религия";"Музеи"
"191";"Музейно-выставочный центр национальной микроэлектроники им. А.И. Шокина";"Зеленоград";"площадь Шокина, 2 ст3";"124498";="";"";"";"";"";"37.21369";"55.981857";"Культура / Искусство / Религия";"Музеи"
"192";"Мелиховская школа, музей";"с. Мелихово";"село Мелихово, 2а";"142326";="+79164847247, +79057812910";"";"http://chekhovmuseum.com";"https://vk.com/chekhovmuseum";"";"37.652935";"55.114522";"Культура / Искусство / Религия";"Музеи"
"193";"Музей кофеграфии, музей";"Москва";"Большой Головин переулок, 25";"107045";="+79995574747";"";"";"";"";"37.630351";"55.769524";"Культура / Искусство / Религия";"Музеи"
"194";"Городищинский историко-краеведческий музей";"пос. Городищи";"Советская, 21а";"601130";="+79190044056";"";"http://gorodischi33.info";"";"";"39.081594";"55.866121";"Культура / Искусство / Религия";"Музеи"
"195";"Еда Руси, интерактивный музей древнерусской кухни";"д. Жаворонки";"деревня Жаворонки, 5";"141420";="";"";"http://www.едаруси.рф";"";"";"37.274002";"55.927297";"Культура / Искусство / Религия";"Музеи"
"196";"Музей 157-й Неманской стрелковой дивизии";"Москва";"улица Зои и Александра Космодемьянских, 6а";"125171";="+74991501413, +74991507901, +74991500151";"";"";"https://vk.com/museum157";"";"37.507099";"55.817919";"Культура / Искусство / Религия";"Музеи"
"197";"Геолого-палеонтологический школьный музей";"Москва";"Соколово-Мещерская, 25 к2";"125466";="+74997131419";"";"";"";"";"37.383322";"55.903";"Культура / Искусство / Религия";"Музеи"
"198";"Музей Дворцового села Ильинское";"с. Ильинское";"Советская улица, 2";"143421";="+74955614332";"";"";"";"";"37.23417";"55.75849";"Культура / Искусство / Религия";"Музеи"
"199";"Музей VI съезда коммунистической партии Китая";"пос. Первомайское";"Парковая улица, 18";"108808";="+74999180861";"";"";"";"";"37.153977";"55.535724";"Культура / Искусство / Религия";"Музеи"
"200";"Сокол, музей";"Москва";"улица Электрозаводская, 24";"107023";="";"";"";"";"";"37.708158";"55.788999";"Культура / Искусство / Религия";"Музеи"
"201";"Музей памяти";"Москва";"Удальцова, 40";"119607";="";"";"";"";"";"37.493259";"55.684518";"Культура / Искусство / Религия";"Музеи"
"202";"Историко-художественный музей им. Б.И. Тимофеева";"с. Растуново";"Заря, 18";"142062";="";"";"";"";"";"37.839637";"55.275889";"Культура / Искусство / Религия";"Музеи"
"203";"Государственный центральный театральный музей им. Бахрушина А.А., Дирекция";"Москва";"Бахрушина, 29";"115054";="+74994847777, 88007777484";"";"http://www.gctm.ru";"https://vk.com/bahrushinmuseum";"";"37.637573";"55.732151";"Культура / Искусство / Религия";"Музеи"
"204";"Музейно-выставочный центр";"Электросталь";"Николаева, 30а";"144003";="+74965711572, +74965710288";"";"http://el-museum.ru";"https://vk.com/museum_and_exhibition";"";"38.438795";"55.783606";"Культура / Искусство / Религия";"Музеи"
"205";"Музей железнодорожных войск РФ";"дп. Загорянский";"улица Розы Люксембург, вл5";"141181";="+74965667386";"";"";"";"";"37.95089";"55.902608";"Культура / Искусство / Религия";"Музеи"
"206";"Слава русского оружия им. В.И. Полосухина, музей";"Москва";"Ясеневая улица, 35 к2";"115597";="";"";"";"";"";"37.738754";"55.607791";"Культура / Искусство / Религия";"Музеи"
"207";"Московский музей современного искусства, Мастерская музея";"Москва";"улица Зорге, 5 ст1";"123308";="+74956906870";"";"http://www.mmoma.ru";"https://vk.com/id77591204";"";"37.511076";"55.780864";"Культура / Искусство / Религия";"Музеи"
"208";"Музей-заповедник А.П. Чехова";"с. Новоселки";"село Новоселки, 60/1";"142326";="+74999410314, +74967276256, +74967276752";"";"http://chekhovmuseum.com";"";"";"37.541158";"55.127926";"Культура / Искусство / Религия";"Музеи"
"209";"Абрамцево, экологический центр";"Балашиха";"квартал Абрамцево, ст1";"143909";="+74957981709";"";"http://elkisland.ru";"";"";"37.82566";"55.837101";"Культура / Искусство / Религия";"Музеи"
"210";"Федеральный музей профессионального образования г. Подольск";"Подольск";"Парковая, 1";"142110";="+74967547104";"";"http://www.muz-prof.ru";"";"";"37.521286";"55.434646";"Культура / Искусство / Религия";"Музеи"
"211";"Московский дом Ахматовой, музей";"Москва";"Никитский переулок, 4а ст1";"125009";="";"";"";"";"";"37.610585";"55.757108";"Культура / Искусство / Религия";"Музеи"
"212";"Белая Дача, музей";"Котельники";"микрорайон Белая Дача, 1а";"140055";="+74955599666";"";"http://belaya-dacha.ru";"";"";"37.850418";"55.660544";"Культура / Искусство / Религия";"Музеи"
"213";"Музей истории гигиены труда и профпатологии, НИИ медицины труда им. академика Н.Ф. Измерова";"Москва";"проспект Будённого, 31";"105275";="+74959183010, +74953660977";"";"";"";"";"37.731479";"55.767304";"Культура / Искусство / Религия";"Музеи"
"214";"Музей Аэрофлота";"Химки";"Шереметьево аэропорт, к6";"125445";="+74995007233,,,3030, +74995007233,,,5582";"";"";"";"";"37.407756";"55.9827";"Культура / Искусство / Религия";"Музеи"
"215";"Музей землеведения";"Москва";"Ленинские Горы, 1";"119234";="+74959392976, +74959391415";"";"http://www.museum.msu.ru";"";"";"37.530641";"55.702895";"Культура / Искусство / Религия";"Музеи"
"216";"Московский музей современного искусства";"Москва";"Тверской бульвар, 9";"123104";="+74956906870";"";"http://www.mmoma.ru";"https://vk.com/id77591204";"";"37.599313";"55.759547";"Культура / Искусство / Религия";"Музеи"
"217";"3D GALLERY, музей скульптуры";"Химки";"Чапаева, 3а";"141402";="";"";"";"";"";"37.447943";"55.889923";"Культура / Искусство / Религия";"Музеи"
"218";"Музей истории науки и техники";"Москва";"Яковоапостольский переулок, 9 ст1";"105064";="+79104234042";"";"";"https://vk.com/mint.museum";"";"37.654459";"55.758792";"Культура / Искусство / Религия";"Музеи"
"219";"Музей истории газового хозяйства";"Москва";"Мрузовский переулок, 11 ст1";"105120";="88007007104";"";"http://mos-gaz.ru";"";"";"37.66775";"55.757424";"Культура / Искусство / Религия";"Музеи"
"220";"Музей кнута и пряника";"Москва";"Измайловское шоссе, 73ж";"105187";="+79859691404";"";"http://csmuseum.business.site";"";"";"37.750803";"55.794549";"Культура / Искусство / Религия";"Музеи"
"221";"Музей спортивной славы, район Лианозово";"Москва";"Алтуфьевское шоссе, 87";"127576";="+74992090995";"";"";"";"";"37.585604";"55.892068";"Культура / Искусство / Религия";"Музеи"
"222";"Царская охота, экологический центр";"Балашиха";"улица Лукино, 55в";"";="+74953238885";"";"";"https://vk.com/losiny_ostrov";"";"37.91195";"55.835368";"Культура / Искусство / Религия";"Музеи"
"223";"Егорьевский историко-художественный музей";"Егорьевск";"Советская, 58";"140301";="+74964024185";"";"";"";"";"39.031951";"55.384968";"Культура / Искусство / Религия";"Музеи"
"224";"Музеи наукограда Королёв, Усадьба Костино";"Королёв";"улица Ильича, 1";"141080";="+74955166066, +74955196265";"";"http://museumkorolev.ru";"https://vk.com/museumkorolev";"";"37.854868";"55.912632";"Культура / Искусство / Религия";"Музеи"
"225";"Музей мебели";"д. Лужки";"коттеджный посёлок Лужки-2, 2";"143541";="+79258416282, +79039689604";"";"";"";"";"36.964621";"55.85882";"Культура / Искусство / Религия";"Музеи"
"226";"Лыткаринский историко-краеведческий музей, Выставочный зал";"Лыткарино";"Коммунистическая, 10";"140081";="+74955524980";"";"http://lytkarinomuseum.ru";"https://vk.com/lytkarinomuseum";"";"37.900021";"55.581274";"Культура / Искусство / Религия";"Музеи"
"227";"Лыткаринский историко-краеведческий музей, Интерактивный оптический центр";"Лыткарино";"Парковая, 1а";"140080";="+74955524980";"";"http://lytkarinomuseum.ru";"https://vk.com/lytkarinomuseum";"";"37.918948";"55.578548";"Культура / Искусство / Религия";"Музеи"
"228";"Дом-музей Героя Советского Союза И.И. Иванова";"д. Чижово";"деревня Чижово, 65";"141196";="";"";"http://geroy-ivanov.narod.ru";"";"";"38.064554";"55.956375";"Культура / Искусство / Религия";"Музеи"
"229";"Музей истории, РЭУ им. Г.В. Плеханова";"Москва";"Стремянный переулок, 28 ст1";"115054";="+74992379231";"";"http://rea.ru";"";"";"37.629131";"55.727359";"Культура / Искусство / Религия";"Музеи"
"230";"Музей Апрелевского завода граммофонных пластинок";"Апрелевка";"Августовская улица, 24а";"143360";="";"";"";"";"";"37.073291";"55.551974";"Культура / Искусство / Религия";"Музеи"
"231";"Центральный музей им. Б.В. Зимина";"Москва";"улица Куусинена, 19а";"125252";="+74951234718";"";"http://museum-ksrk.ru";"";"";"37.511519";"55.787765";"Культура / Искусство / Религия";"Музеи"
"232";"Мемориальный музей Ю.А. Сенкевича";"Москва";"Селезнёвская, 11 ст3";"127473";="+74956843480, +79168218284";"";"";"";"";"37.605081";"55.781097";"Культура / Искусство / Религия";"Музеи"
"233";"Музей памяти Лопасненского края";"Чехов";"Чехова, 28";"142306";="+74967268578, +74967267770";"";"http://мплк.рф";"";"";"37.460374";"55.140852";"Культура / Искусство / Религия";"Музеи"
"234";"Сокольники и флот, музей";"Москва";"улица Короленко, 2/23 к6";"107014";="+79036790302, +74959648107";"";"";"";"";"37.687233";"55.797855";"Культура / Искусство / Религия";"Музеи"
"235";"Музей-ризница, Николо-Угрешский монастырь";"Дзержинский";"площадь Святителя Николая, 1 к19";"140090";="+74955512643";"";"http://ugresha.org";"";"";"37.839878";"55.622425";"Культура / Искусство / Религия";"Музеи"
"236";"Военно-исторический музей Тарутино";"с. Тарутино";"Кутузовская, 1а";"249165";="+74843221320";"";"";"";"";"36.930211";"55.111426";"Культура / Искусство / Религия";"Музеи"
"237";"Национальный музей радио";"с. Петровское";"село Петровское, 82";"143395";="+79057400943";"";"";"";"";"36.984479";"55.534245";"Культура / Искусство / Религия";"Музеи"
"238";"Троицкий музей имени М.Н. Лялько";"Троицк";"улица Нагорная, 9";"108841";="+74958430220";"";"http://troick-museum.ru";"";"";"37.299196";"55.49171";"Культура / Искусство / Религия";"Музеи"
"239";"Родные истоки, музей";"Москва";"Текстильщиков 8-я, 14";"109129";="+74991791101";"";"";"";"";"37.746592";"55.70194";"Культура / Искусство / Религия";"Музеи"
"240";"Музей, Финансовый университет при Правительстве РФ";"Москва";"Ленинградский проспект, 49";"125057";="+74952495226";"";"http://fa.ru";"";"";"37.529191";"55.800246";"Культура / Искусство / Религия";"Музеи"
"241";"В.Д. Берестов и его окружение, литературный музей";"Москва";"Седова, 4 к1";"129323";="+79166141578";"";"http://muz-berestov.jimdo.com";"";"";"37.641688";"55.852913";"Культура / Искусство / Религия";"Музеи"
"242";"Живая история, музей";"Москва";"Автозаводская, 20 ст5";"115280";="+79055481101";"";"";"";"";"37.63858";"55.706152";"Культура / Искусство / Религия";"Музеи"
"243";"Пушкари, военно-исторический клуб";"д. Огуднево";"деревня Огуднево, 1/1";"141135";="+79067866452";"";"http://clubpushkari.ru";"https://vk.com/rekrutskoedepo_1812";"";"38.277991";"56.067935";"Культура / Искусство / Религия";"Музеи"
"244";"Народный музей музыкальных инструментов";"Москва";"Сущёвская, 14";"127030";="+79629852013";"";"http://musmuseum.ru";"https://vk.com/musmuseum";"";"37.602426";"55.781326";"Культура / Искусство / Религия";"Музеи"
"245";"Музей подстаканников и принадлежностей для чаепития";"Мытищи";"Благовещенская, 9";"141018";="+79652624525, +79851842627";"";"http://музей-подстаканников.рф";"";"";"37.710144";"55.900477";"Культура / Искусство / Религия";"Музеи"
"246";"Ногинский музейно-выставочный центр";"Ногинск";"Рогожская, 74";"142400";="+79465145714";"";"";"";"";"38.43883";"55.856379";"Культура / Искусство / Религия";"Музеи"
"247";"Выставочный зал";"Электросталь";"Чернышевского, 38";"144003";="+74965711572, +74965746528";"";"http://el-museum.ru";"https://vk.com/museum_and_exhibition";"";"38.437298";"55.782479";"Культура / Искусство / Религия";"Музеи"
"248";"Музейно-выставочный центр";"Электросталь";"Расковой, 37";"144003";="+74965711572";"";"http://el-museum.ru";"https://vk.com/museum_and_exhibition";"";"38.436282";"55.782179";"Культура / Искусство / Религия";"Музеи"
"249";"Орехово-Зуевский историко-краеведческий городской музей";"Ликино-Дулёво";"Октябрьская, 42";"142672";="";"";"http://ozmuseum.ru";"https://vk.com/ozmuseum";"";"38.956886";"55.714783";"Культура / Искусство / Религия";"Музеи"
"250";"Мемориальный кабинет-квартира академика Н.Н. Семенова";"Черноголовка";"Третья, 7";"142432";="+74965225788, +79037350442";"";"";"";"";"38.392452";"56.007334";"Культура / Искусство / Религия";"Музеи"
"251";"Музей истории г. Бронницы";"Бронницы";"Советская, 71";"140170";="+74964665986, +79854216771";"";"http://bronmus.ru";"https://vk.com/bronmus";"";"38.267946";"55.424779";"Культура / Искусство / Религия";"Музеи"
"252";"Музей скорой помощи, Станция скорой и неотложной медицинской помощи им. Пучкова А.С.";"Москва";"1-й Коптельский переулок, 3 ст1";"129090";="";"";"http://mos03.ru/rubrics/about-the-museum/informatsiya-o-muzee-ssinmp-im-a-s-puchkova/";"";"";"37.63759";"55.77363";"Культура / Искусство / Религия";"Музеи"
"253";"Красная поляна, музей";"Лобня";"Спортивная, 3";"141734";="+79852061513";"";"";"https://vk.com/krasnajapoljanamusey";"";"37.422077";"56.025672";"Культура / Искусство / Религия";"Музеи"
"254";"Коломенский завод, музей";"Коломна";"Партизан, 42";"140408";="+74966138354";"";"";"";"";"38.803245";"55.088489";"Культура / Искусство / Религия";"Музеи"
"255";"Экспозиция меда и пчеловодства, Дирекция природных территорий Кузьминки-Люблино";"Москва";"Заречье, 10 ст1";"109472";="+74953773593, +74952584560";"";"http://kuzpark.ru";"https://vk.com/kuzpark";"";"37.788135";"55.693389";"Культура / Искусство / Религия";"Музеи"
"256";"Центр изучения истории и наследия Златоустовского монастыря, Храм святых бессребреников и чудотворцев Космы и Дамиана на Маросейке";"Москва";"Малый Златоустинский переулок, 5 ст1";"101000";="+79859669363, +79165640645";"";"http://zlatoustmonastyr.ru";"https://vk.com/club182018187";"";"37.634255";"55.759042";"Город / Власть";"Общественные организации, Музеи, Организация экскурсий по городу"
"257";"Музей Пожарного дела Богородска-Ногинска";"Ногинск";"шоссе Энтузиастов, 129";"142401";="+74965142864, +74965143191";"";"";"";"";"38.491923";"55.858431";"Культура / Искусство / Религия";"Музеи"
"258";"Музей истории народного образования г. Коломна";"Коломна";"улица Октябрьской революции, 232";"140400";="+74966186292, +74966133353";"";"";"";"";"38.760152";"55.098261";"Культура / Искусство / Религия";"Музеи"
"259";"Музей истории УВД, УВД по Воскресенскому муниципальному району Московской области";"Воскресенск";"улица Андреса, 45";"140204";="+74964459047";"";"";"";"";"38.731208";"55.34018";"Культура / Искусство / Религия";"Музеи"
"260";"Разрушенный, но живой, музей истории Московского Златоустовского монастыря";"Москва";"Малый Златоустинский переулок, 5 ст1";"101000";="+79859669363, +79165640645";"";"http://zlatoustmonastyr.ru";"https://vk.com/club182018187";"";"37.634255";"55.759042";"Культура / Искусство / Религия";"Музеи, Организация экскурсий по городу"
"261";"Галерея - Картины художников, интерактивный музей";"Пушкино";"Набережная улица, 35 к7";"141205";="+74993489298";"";"http://posterclub.ru/";"";"";"37.860239";"56.020296";"Культура / Искусство / Религия";"Музеи, Багетные мастерские, Полиграфические услуги, Копировальные услуги, Оперативная полиграфия, Фото на документы, Широкоформатная печать, Фотоцентры"
"262";"Музей наличника";"Киржач";"Гагарина, 36";"601010";="+79612563020, +74923729181";"";"";"";"";"38.874132";"56.162199";"Культура / Искусство / Религия";"Музеи"
"263";"Дом аргуна, музей";"Киржач";"Ленинградская, 15Б";"601010";="+74923729181, +79612563020, +79066149393";"";"";"https://vk.com/club135035242";"";"38.870678";"56.159568";"Культура / Искусство / Религия";"Музеи"
"264";"Музей истории МОНИКИ";"Москва";"Щепкина, 61/2 ст55";"129110";="+74996740709";"";"http://www.monikiweb.ru";"";"";"37.625766";"55.787375";"Культура / Искусство / Религия";"Музеи"
"265";"Московская оружейная фабрика Бр. Юдиных, музей";"Москва";"2-й Лихачёвский переулок, 9 ст1";"125438";="+74951428056";"";"http://mof.group";"https://vk.com/moscow_arms_factory";"";"37.536507";"55.846447";"Культура / Искусство / Религия";"Музеи"
"266";"Шаболовский Смотритель, историко-краеведческая студия";"Москва";"улица Большая Грузинская, 39";"123056";="+79035604163";"";"";"";"";"37.581269";"55.770586";"Культура / Искусство / Религия";"Музеи"
"267";"Нима, музей скульптуры";"Москва";"Барашёвский переулок, 4";"101000";="+79855293697";"";"";"";"";"37.648887";"55.759324";"Культура / Искусство / Религия";"Музеи"
"268";"Радогостье, клуб народной культуры";"";"СНТ Здоровье, 72";"";="+79157562175";"";"";"";"";"39.094258";"55.97761";"Культура / Искусство / Религия";"Музеи"
"269";"Экскурсионное бюро, Государственный музей Л.Н. Толстого";"Москва";"улица Пречистенка, 11/8";"119034";="+74956377410, +74997669328";"";"http://tolstoymuseum.ru";"https://vk.com/tolstoymuseum";"";"37.597127";"55.742797";"Культура / Искусство / Религия";"Музеи"
"270";"Мазмус, интерактивный экомузей";"Егорьевск";"Меланжистов, 3Б";"140301";="+79258787100";"";"";"https://vk.com/muzmus";"";"39.02331";"55.385787";"Культура / Искусство / Религия";"Музеи"
"271";"Степановский краеведческий музей";"д. Степановка";"деревня Степановка, 103г";"142650";="+79162326128";"";"http://ok4220979.wixsite.com/stepanovka";"https://vk.com/izbamuseum";"";"39.042574";"55.536428";"Культура / Искусство / Религия";"Музеи"
"272";"Арт-Изба, музей";"д. Аверкиево";"деревня Аверкиево, 63";"142516";="+79104341132";"";"http://art-izbaaverkievo.ru";"https://vk.com/art_izba_averkievo";"";"38.636557";"55.653107";"Культура / Искусство / Религия";"Музеи, Художественные мастерские"
"273";"Музей А.Ф. Малявко";"Пушкино";"Чеховская улица, 19";"141230";="+79013552352";"";"";"";"";"37.834352";"55.986966";"Культура / Искусство / Религия";"Музеи"
"274";"Музей народного быта";"";"СНТ Здоровье, 72";"";="+79157561488";"";"";"https://vk.com/club160409701";"";"39.094419";"55.977566";"Культура / Искусство / Религия";"Музеи"
"275";"Музей русских самоваров";"Ивантеевка";"Нижняя 1-я, 29";"141281";="+79060657055";"";"";"";"";"37.920407";"55.967107";"Культура / Искусство / Религия";"Музеи"
"276";"Музей, Храм иконы Божией Матери всех скорбящих радость на большой Ордынке";"Москва";"3-й Кадашёвский переулок, 3 ст6";"115035";="";"";"http://ordynka.com/index.php/prihod/muzeum";"";"";"37.623972";"55.741682";"Культура / Искусство / Религия";"Музеи"
"277";"Мемориальный кабинет Гайдара, музей";"Москва";"Газетный переулок, 5 ст1";"125009";="+74956294713";"";"http://www.iep.ru/ru/e-t-gaydar/muzey-egora-gaydara.php";"https://vk.com/gaidarinstitute";"";"37.607213";"55.757556";"Культура / Искусство / Религия";"Музеи"
"278";"Дача-музей им. А.С. Новикова-Прибоя";"дп. Черкизово";"Береговая, 7";"141221";="";"";"";"";"";"37.809035";"55.968187";"Культура / Искусство / Религия";"Музеи"
"279";"Музей иконописи и реставрации";"Киржач";"Гагарина, 26";"601010";="+79157635826";"";"";"";"";"38.872624";"56.161472";"Культура / Искусство / Религия";"Музеи"
"280";"Горький Плюс, музей";"Москва";"улица Сергея Эйзенштейна, 8";"129226";="+74991816200";"";"";"";"";"37.638454";"55.833144";"Культура / Искусство / Религия";"Музеи"
"281";"Вера и люди в Советском Союзе, музей";"Москва";"Крапивенский переулок, 4 ст2";"127051";="+79168897250";"";"http://podspudom.ru";"https://vk.com/club21515963";"";"37.617651";"55.766879";"Культура / Искусство / Религия";"Музеи"
"282";"Музейный центр";"Москва";"улица Изюмская, 61 к1";"117624";="+74997431168, +79197759983";"";"http://andreevleonid.ru";"";"";"37.561735";"55.542046";"Культура / Искусство / Религия";"Музеи"
"283";"Музей";"пос. Развилка";"Проектируемый 5537-й проезд, вл15 ст1";"142717";="";"";"";"https://vk.com/museum_vniigaz";"";"37.737231";"55.592392";"Культура / Искусство / Религия";"Музеи"
"284";"Музей истории МФТИ";"Долгопрудный";"Первомайская, 5";"141701";="+74954088777, +79262773839";"";"http://mipt-museum.ru";"https://vk.com/mfti_museum";"";"37.520649";"55.929498";"Культура / Искусство / Религия";"Музеи"
"285";"Дом гармони";"Орехово-Зуево";"улица Островского, 68";"142608";="";"";"http://svistok-oz.ru";"";"";"38.945299";"55.810473";"Культура / Искусство / Религия";"Музеи"
"286";"Локомотив истории, музей";"рп. Большие Вязёмы";"Большие Вязёмы рп., 144";"143050";="+79851350155";"";"";"";"";"36.978876";"55.630391";"Культура / Искусство / Религия";"Музеи"
"287";"1000 и 1 кошка";"Москва";"проспект Мира (ВДНХ), 119 ст519";"129223";="+79031797808";"";"";"";"";"37.631138";"55.832993";"Культура / Искусство / Религия";"Музеи"
"288";"Новое старое, музей живой архаики";"с. Воздвиженское";"Воздвиженское село, 65а";"141362";="+79035337524";"";"http://novoestaroe.ru";"https://vk.com/novoestaroezodchestvo";"";"38.054539";"56.195496";"Культура / Искусство / Религия";"Музеи"
"289";"Космонавтика и авиация, музей";"Москва";"проспект Мира (ВДНХ), 119 ст34";"129223";="+74955443400";"";"http://cosmos.vdnh.ru";"https://vk.com/cosmos_vdnh";"";"37.622153";"55.834857";"Культура / Искусство / Религия";"Музеи"
"290";"Дом Н.В. Гоголя, мемориальный музей";"Москва";"Никитский бульвар, 7а";"119019";="+74956905881";"";"http://www.domgogolya.ru";"https://vk.com/domgogolya";"";"37.599881";"55.75408";"Культура / Искусство / Религия";"Музеи, Библиотеки"
"291";"Точка-G, музей эротического искусства";"Москва";"улица Новый Арбат, 15 ст1";"119019";="88006005808";"";"http://tochkag.net";"https://vk.com/museum_tochka_g";"";"37.591942";"55.751785";"Культура / Искусство / Религия";"Музеи"
"292";"Музей техники Вадима Задорожного";"пос. Архангельское";"Ильинское шоссе 4 км, ст9";"143420";="+74956623818";"";"http://www.tmuseum.ru";"https://vk.com/technicalmuseum";"";"37.296576";"55.796163";"Культура / Искусство / Религия";"Музеи"
"293";"Центральный музей вооруженных сил Российской Федерации";"Москва";"улица Советской Армии, 2 ст1";"129272";="+74956811880, +74956816303, +74956814877";"";"http://taplink.cc/cmaf";"https://vk.com/cmaf_rf";"";"37.616853";"55.784914";"Культура / Искусство / Религия";"Музеи"
"294";"Петровский путевой дворец";"Москва";"Ленинградский проспект, 40";"125167";="+74952665974, +74956377005";"";"http://mosmuseum.ru/tours/p/petrovskiy-putevoy-dvorets";"https://vk.com/moscowmuseum";"";"37.551945";"55.793392";"Культура / Искусство / Религия";"Музеи, Интересные здания"
"295";"Государственный музей архитектуры им. А.В. Щусева";"Москва";"улица Воздвиженка, 5/25 ст1";"119019";="+74956912109, +74956900551, +74956971306";"";"http://muar.ru";"https://vk.com/archmuseum";"";"37.606938";"55.752614";"Культура / Искусство / Религия";"Музеи"
"296";"Дом-музей Марины Цветаевой";"Москва";"Борисоглебский переулок, 6 ст1";"121069";="+79055848490, +74956975369, +74956953543";"";"http://www.dommuseum.ru";"https://vk.com/domtsvetaevoi";"";"37.590035";"55.754252";"Культура / Искусство / Религия";"Музеи, Интересные здания"
"297";"Музей киноконцерна Мосфильм";"Москва";"Мосфильмовская улица, 1 ст21";"119285";="+74991439599";"";"http://www.mosfilm.ru";"https://vk.com/mosfilm_official";"";"37.530512";"55.722746";"Культура / Искусство / Религия";"Музеи"
"298";"Усадьба Середниково, музей";"пос. санатория "Мцыри"";"посёлок санатория Мцыри, вл1";"141421";="+79253043507, +79251629053";"";"http://www.serednikovo.su";"";"";"37.24143";"55.929347";"Культура / Искусство / Религия";"Музеи"
"299";"Дом Бурганова, музей";"Москва";"Большой Афанасьевский переулок, 15 ст9";"119019";="+74956950429, +74956950418";"";"http://www.burganov.ru";"https://vk.com/dom_burganova";"";"37.597341";"55.746571";"Культура / Искусство / Религия";"Музеи"
"300";"Эльдар, киноклуб";"Москва";"Ленинский проспект, 105";"119421";="+74957359968";"";"http://kinoklub-eldar.ru";"https://vk.com/kinoklubeldar";"";"37.513706";"55.665538";"Досуг / Развлечения / Общественное питание";"Концертные залы, Кинотеатры, Аренда площадок для культурно-массовых мероприятий, Музеи, Интересные здания"
"301";"Московский государственный объединенный музей-заповедник территории Измайлово";"Москва";"Баумана городок, 2 ст14";"105037";="+74991651336, +74991651236";"";"http://www.mgomz.ru";"https://vk.com/mgomz";"";"37.763322";"55.792085";"Культура / Искусство / Религия";"Музеи, Интересные здания"
"302";"Мемориальный музей-квартира им. А.М. Горького";"Москва";"улица Малая Никитская, 6/2 ст5";"121069";="+74956905130, +74956900535, +74956973241";"";"http://museum.imli.ru";"";"";"37.596423";"55.758267";"Культура / Искусство / Религия";"Музеи, Интересные здания"
"303";"Государственный центральный музей современной истории России";"Москва";"Тверская улица, 21 ст1";"125009";="+74956995217, +74956995458, +74956996724";"";"http://www.sovrhistory.ru";"https://vk.com/sovr.history";"";"37.60174";"55.766196";"Культура / Искусство / Религия";"Музеи, Интересные здания"
"304";"Государственный Биологический музей им. К.А. Тимирязева";"Москва";"Малая Грузинская, 15";"123557";="+74992523681";"";"http://www.gbmt.ru";"https://vk.com/club18506554";"";"37.571609";"55.764257";"Культура / Искусство / Религия";"Музеи"
"305";"Центральный музей Военно-Воздушных Сил РФ";"рп. Монино";"Музейная, 1";"141170";="+74962501189, +74957864412";"";"http://www.cmvvs.ru";"https://vk.com/cmvvs_official";"";"38.188832";"55.830906";"Культура / Искусство / Религия";"Музеи"
"306";"Музей Зураба Церетели";"Москва";"улица Большая Грузинская, 15";"123557";="+74957774850, +74957774859";"";"http://mmoma.ru";"";"";"37.577037";"55.766158";"Культура / Искусство / Религия";"Музеи"
"307";"Всероссийский музей декоративного искусства";"Москва";"Делегатская, 3 ст1";"127473";="+74999733214, +74956090146, +79295757506";"";"http://damuseum.ru";"https://vk.com/damuseum";"";"37.609841";"55.774638";"Культура / Искусство / Религия";"Музеи"
"308";"Новый Иерусалим, музейно-выставочный комплекс";"Истра";"улица Ново-Иерусалимская Набережная, 1";"143500";="+74983172910, +74983140236";"";"http://njerusalem.ru";"";"";"36.844322";"55.926683";"Культура / Искусство / Религия";"Музеи, Интересные здания"
"309";"Геологический Государственный музей им. В.И. Вернадского";"Москва";"улица Моховая, 11 к11";"125009";="+74956920943";"";"http://www.sgm.ru";"https://vk.com/sgm_ran";"";"37.612626";"55.755892";"Культура / Искусство / Религия";"Музеи"
"310";"Коломенская пастила, музей забытого вкуса";"Коломна";"Посадская, 13а";"140415";="+74952281110, +79850697518, 88003507908";"";"http://kolomnapastila.ru";"https://vk.com/kolomnapastila";"";"38.7699";"55.104558";"Культура / Искусство / Религия";"Музеи"
"311";"Музей советских игровых автоматов";"Москва";"улица Рождественка, 12";"107031";="+74956284515";"";"http://www.15kop.ru";"https://vk.com/15kop";"";"37.623757";"55.764384";"Культура / Искусство / Религия";"Музеи"
"312";"Минералогический музей им. А.Е. Ферсмана";"Москва";"Ленинский проспект, 18 к2";"119071";="+74959543900, +79166298052";"";"http://www.fmm.ru";"https://vk.com/minmuseum";"";"37.592497";"55.718925";"Культура / Искусство / Религия";"Музеи"
"313";"Buckets empire, музей японских ретро автомобилей";"Москва";"Ташкентская, 28 ст1";"109472";="+79166376054, +79259929416";"";"";"https://vk.com/buckets_empire";"";"37.806485";"55.699639";"Культура / Искусство / Религия";"Музеи"
"314";"Российский национальный музей музыки";"Москва";"улица Фадеева, 4";"125047";="+74956056515";"";"http://music-museum.ru";"https://vk.com/musicmusem_ru";"";"37.599675";"55.774416";"Культура / Искусство / Религия";"Музеи"
"315";"Царицыно, Большой дворец";"Москва";"Дольская улица, 1 ст6";"115569";="+74953224433";"";"http://tsaritsyno-museum.ru";"https://vk.com/tsaritsynomuseum";"";"37.682165";"55.615467";"Культура / Искусство / Религия";"Музеи"
"316";"Музей Яндекса";"Москва";"улица Тимура Фрунзе, 11 ст13";"119021";="+74991101133";"";"http://yandex.ru/museum";"";"";"37.588074";"55.735054";"Культура / Искусство / Религия";"Музеи"
"317";"Патриот, музейный комплекс";"";"Парк Патриот, ст3";"";="88007070107";"";"http://patriotp.ru";"https://vk.com/parkpatriot";"";"36.817001";"55.56332";"Культура / Искусство / Религия";"Музеи"
"318";"Московский музей современного искусства";"Москва";"Ермолаевский переулок, 17 ст1";"123001";="+74956906870";"";"http://www.mmoma.ru";"https://vk.com/id77591204";"";"37.592268";"55.765528";"Культура / Искусство / Религия";"Музеи"
"319";"Бункер-703, музей современной фортификации";"Москва";"2-й Новокузнецкий переулок, 14 ст1";"115184";="+79265588707";"";"http://bunker703.ru";"https://vk.com/bunker703";"";"37.630318";"55.734381";"Культура / Искусство / Религия";"Музеи"
"320";"Музей Москвы, музейное объединение";"Москва";"Манежная площадь, 1а";"125009";="+74956920020, +74956921567";"";"http://mosmuseum.ru";"https://vk.com/muzarhmos";"";"37.617301";"55.756252";"Культура / Искусство / Религия";"Музеи, Интересные здания"
"321";"Музей Восстания Машин";"Москва";"Берсеневский переулок, 2 ст1";"119072";="+74956468652";"";"http://msk.musbot.ru";"";"";"37.609393";"55.740981";"Культура / Искусство / Религия";"Музеи"
"322";"Люблино, Московский объединенный музей-заповедник";"Москва";"Летняя улица, 1 к1";"109387";="+74953501553, +74997227189";"";"http://park-kuzminki.ru/lublino/";"https://vk.com/mgomz";"";"37.743355";"55.688529";"Культура / Искусство / Религия";"Музеи"
"323";"Дом-музей В.М. Васнецова";"Москва";"переулок Васнецова, 13 ст1";"129090";="+74956811329";"";"";"";"";"37.626313";"55.776737";"Культура / Искусство / Религия";"Музеи, Интересные здания"
"324";"Государственный музей обороны Москвы";"Москва";"Мичуринский проспект, Олимпийская деревня, 3";"119602";="+74992334207, +74992334206, +74954300549, +74992334204";"";"http://www.gmom.ru";"https://vk.com/gmom_museum";"";"37.467559";"55.676711";"Культура / Искусство / Религия";"Музеи"
"325";"Горки Ленинские, государственный исторический музей-заповедник";"рп. Горки Ленинские";"посёлок Горки Ленинские, 1 ст8";"142712";="+74955489309, +74955489497";"";"http://new.mgorki.ru";"https://vk.com/gorkilenpublic";"";"37.764924";"55.504571";"Культура / Искусство / Религия";"Музеи"
"326";"Музей-калачная";"Коломна";"Зайцева, 14";"140400";="88003507908";"";"http://kolomnakalach.ru";"https://vk.com/kolomna.kalach";"";"38.763823";"55.105785";"Культура / Искусство / Религия";"Музеи"
"327";"Музей-квартира А.С. Пушкина";"Москва";"улица Арбат, 53 ст1";"119002";="+74992419295";"";"http://www.pushkinmuseum.ru";"https://vk.com/club41276547";"";"37.585856";"55.747458";"Культура / Искусство / Религия";"Музеи, Интересные здания"
"328";"Хамовники, музей-усадьба Л.Н. Толстого";"Москва";"улица Льва Толстого, 21 ст1";"119021";="+74992469444";"";"http://tolstoymuseum.ru";"https://vk.com/tolstoymuseum";"";"37.585848";"55.734292";"Культура / Искусство / Религия";"Музеи"
"329";"Hyundai motorstudio";"Москва";"улица Новый Арбат, 21 ст1";"119019";="+74956621180";"";"";"https://vk.com/hyundairussia";"";"37.584634";"55.7522";"Строительство / Недвижимость / Ремонт";"Коворкинг, Музеи, Библиотеки"
"330";"Научно-исследовательский зоологический музей, МГУ им. М.В. Ломоносова";"Москва";"улица Большая Никитская, 2";"125009";="+74956293948";"";"http://zmmu.msu.ru";"https://vk.com/clubzmmu";"";"37.60896";"55.755747";"Культура / Искусство / Религия";"Музеи"
"331";"МИИТ, дворец культуры";"Москва";"Новосущёвский переулок, 6 ст1";"127018";="+79267869921";"";"http://modernists.ru";"https://vk.com/artproject_moskva";"";"37.60551";"55.789896";"Культура / Искусство / Религия";"Музеи"
"332";"Палаты бояр Романовых, музей";"Москва";"улица Варварка, 10";"109012";="+74956981256";"";"http://www.shm.ru";"https://vk.com/gim";"";"37.629169";"55.752737";"Культура / Искусство / Религия";"Музеи"
"333";"Музей уникальных кукол";"Москва";"улица Покровка, 13 ст2";"101000";="+74956256405";"";"http://dollmuseum.ru";"https://vk.com/doll.museum";"";"37.64456";"55.75932";"Культура / Искусство / Религия";"Музеи"
"334";"Успенский собор";"Москва";"Кремль, 1Б";"109012";="+74956970349";"";"http://www.kreml.ru";"https://vk.com/kremlinmuseums";"";"37.616892";"55.750918";"Культура / Искусство / Религия";"Музеи, Интересные здания"
"335";"Остафьево русский Парнас, государственный музей-усадьба";"с. Остафьево";"Троицкая, 1а";"108824";="+74958678360";"";"http://www.ostafyevomuseum.ru";"";"";"37.501427";"55.496088";"Культура / Искусство / Религия";"Музеи"
"336";"Piligrim Porto, киногород-музей";"пос. санатория "Мцыри"";"посёлок санатория Мцыри, вл4";"141421";="+74955320503, +79253114823";"";"http://www.piligrimporto.ru";"https://vk.com/piligrimporto";"";"37.233868";"55.925793";"Культура / Искусство / Религия";"Музеи"
"337";"Дом русского зарубежья им. А. Солженицына, музей";"Москва";"Нижняя Радищевская, 2";"109240";="+74951378387";"";"http://www.domrz.ru";"https://vk.com/domrz";"";"37.651792";"55.742919";"Культура / Искусство / Религия";"Музеи"
"338";"Московский музей современного искусства";"Москва";"улица Большая Грузинская, 15";"123557";="+74956906870";"";"http://www.mmoma.ru";"https://vk.com/id77591204";"";"37.577037";"55.766158";"Культура / Искусство / Религия";"Музеи"
"339";"Музей Московского метрополитена";"Москва";"Пресненская набережная, 4 ст1";"123112";="+74993216461";"";"";"https://vk.com/profmetro";"";"37.543686";"55.7486";"Культура / Искусство / Религия";"Музеи"
"340";"Дом-музей Фёдора Конюхова";"Москва";"Садовническая улица, 77 ст4";"115035";="+74959517501";"";"";"";"";"37.643836";"55.73556";"Культура / Искусство / Религия";"Музеи"
"341";"Музей В.А. Тропинина и Московских художников его времени";"Москва";"Щетининский переулок, 10 ст1";"119017";="+74959539750, +74959592220, +74959591103, +74959591216";"";"http://museum-tropinina.ru";"https://vk.com/va_tropinin";"";"37.622883";"55.733767";"Культура / Искусство / Религия";"Музеи"
"342";"Царицыно, Третий Кавалерский корпус";"Москва";"Дольская улица, 1 ст3";"115569";="+74953224433";"";"http://tsaritsyno-museum.ru";"https://vk.com/tsaritsynomuseum";"";"37.679744";"55.617424";"Культура / Искусство / Религия";"Музеи, Интересные здания"
"343";"Буран, интерактивный музейный комплекс";"Москва";"проспект Мира (ВДНХ), 119 ст333";"129223";="+74955443400";"";"http://vdnh.ru";"https://vk.com/vdnh";"";"37.623103";"55.831969";"Культура / Искусство / Религия";"Музеи"
"344";"Музей-Усадьба Муравьевых-Апостолов";"Москва";"улица Старая Басманная, 23/9 ст1";"105066";="+74992679866, +74992657636";"";"http://www.mahm.ru";"";"";"37.664659";"55.767396";"Культура / Искусство / Религия";"Музеи"
"345";"Музейная фабрика пастилы";"Коломна";"Полянская, 4";"140415";="+79104943636, +79104943737";"";"http://kolomnapastila.com";"https://vk.com/pastilafactory";"";"38.770296";"55.102302";"Культура / Искусство / Религия";"Музеи"
"346";"Есенин-центр, Московский Государственный музей С.А. Есенина";"Москва";"Большой Строченовский переулок, 24 ст2";"115054";="+74956887990, +74959542077";"";"http://jivo.chat/BUfwBceDVU";"https://vk.com/club38865256";"";"37.63071";"55.726693";"Культура / Искусство / Религия";"Музеи"
"347";"Мемориальный музей А.Н. Скрябина";"Москва";"Большой Николопесковский переулок, 11 ст1";"119002";="+74992411901";"";"http://scriabinmuseum.ru";"https://vk.com/scriabinmuseum";"";"37.59024";"55.750889";"Культура / Искусство / Религия";"Музеи"
"348";"Музей советских игровых автоматов";"Москва";"проспект Мира (ВДНХ), 119 ст57";"129223";="+74956284515";"";"http://www.15kop.ru";"https://vk.com/15kop";"";"37.626327";"55.833776";"Культура / Искусство / Религия";"Музеи"
"349";"Музей оптических иллюзий, г. Москва";"Москва";"Косыгина, 28/2";"119334";="+74951669926";"";"http://museumofillusions.moscow";"";"";"37.545006";"55.7082";"Культура / Искусство / Религия";"Музеи"
"350";"Музей истории военно-морского флота";"Москва";"улица Свободы, 56";"125364";="+79265221596, +74956407356, +74956407355";"";"http://mosparks.ru/vmf/";"https://vk.com/museum_of_navy";"";"37.45609";"55.852322";"Культура / Искусство / Религия";"Музеи"
"351";"Московский музей современного искусства";"Москва";"Гоголевский бульвар, 10 ст1";"119019";="+74956906870";"";"http://www.mmoma.ru";"https://vk.com/id77591204";"";"37.600236";"55.747082";"Культура / Искусство / Религия";"Музеи"
"352";"Дом на набережной, музей";"Москва";"улица Серафимовича, 2";"119072";="+74959594936";"";"http://dnnmuseum.ru";"";"";"37.611956";"55.745269";"Культура / Искусство / Религия";"Музеи"
"353";"Дом-музей Б.Л. Пастернака";"пос. ДСК "Мичуринец"";"Павленко, 3";"108816";="+79261182858";"";"http://goslitmuz.ru/museums/dom-muzey-b-l-pasternaka/";"https://vk.com/public53536846";"";"37.333919";"55.661358";"Культура / Искусство / Религия";"Музеи, Интересные здания"
"354";"Свиблово, музей-усадьба";"Москва";"Лазоревый проезд, 15 ст1";"129323";="+79153904074";"";"http://usadba.troitsasviblovo.ru";"";"";"37.631748";"55.853652";"Культура / Искусство / Религия";"Музеи"
"355";"Музей московского художественного театра им А.П. Чехова";"Москва";"Камергерский переулок, 3а ст2";"125009";="+74956923866";"";"http://museummhat.ru";"https://vk.com/museummhat";"";"37.613849";"55.76017";"Культура / Искусство / Религия";"Музеи"
"356";"Старый Английский двор";"Москва";"улица Варварка, 4а";"109012";="+74955310526";"";"http://www.zaryadyepark.ru/services/staryy-angliyskiy-dvor/";"https://vk.com/zaryadyepark";"";"37.626918";"55.752257";"Культура / Искусство / Религия";"Музеи, Интересные здания"
"357";"Дом-музей К.И. Чуковского";"пос. ДСК "Мичуринец"";"Серафимовича, 3";"108816";="+74956955308";"";"http://goslitmuz.ru/ru/chukovsky-museum";"";"";"37.330703";"55.65868";"Культура / Искусство / Религия";"Музеи, Интересные здания"
"358";"Московский дом Достоевского, музейный центр";"Москва";"Достоевского, 2";"127473";="+74956955308";"";"http://goslitmuz.ru";"";"";"37.610453";"55.783456";"Культура / Искусство / Религия";"Музеи"
"359";"Государственный центральный музей кино";"Москва";"проспект Мира (ВДНХ), 119 ст36";"129223";="+74951503610, +74951503600,,,111";"";"http://www.museikino.ru";"https://vk.com/cinemuseum";"";"37.61695";"55.839436";"Культура / Искусство / Религия";"Музеи"
"360";"Музей им. И.С. Тургенева";"Москва";"улица Остоженка, 37/7 ст1";"119034";="+74956951078";"";"http://www.pushkinmuseum.ru";"https://vk.com/club41276547";"";"37.596329";"55.738786";"Культура / Искусство / Религия";"Музеи, Интересные здания"
"361";"Огни Москвы, музей";"Москва";"Армянский переулок, 3-5 ст1";"101000";="+74956247374";"";"http://ognimos.ru";"https://vk.com/club18670350";"";"37.635464";"55.760831";"Культура / Искусство / Религия";"Музеи"
"362";"Музей М.А. Булгакова";"Москва";"улица Большая Пироговская, 35а ст1";"119435";="+74956995366";"";"http://www.bulgakovmuseum.ru";"https://vk.com/bulgakovmuseum";"";"37.56579";"55.729261";"Культура / Искусство / Религия";"Музеи"
"363";"Музей военной формы";"Москва";"улица Большая Никитская, 46/17 ст1";"121069";="+74956481813, +74956481810";"";"http://www.museum-vf.ru";"https://vk.com/museumvf";"";"37.591232";"55.758073";"Культура / Искусство / Религия";"Музеи"
"364";"Центр Вознесенского";"Москва";"Большая Ордынка, 46 ст3";"119017";="+74951398987";"";"http://www.voznesenskycenter.ru";"https://vk.com/public187876568";"";"37.624142";"55.735564";"Культура / Искусство / Религия";"Музеи"
"365";"Музей русской иконы";"Москва";"улица Гончарная, 3 ст3";"109240";="";"";"http://www.russikona.ru";"https://vk.com/russikona";"";"37.645404";"55.746447";"Культура / Искусство / Религия";"Музеи"
"366";"Музей оружия";"Москва";"Измайловское шоссе, 73ж";"105187";="+79265454145";"";"http://historyguns.ru";"https://vk.com/historyguns";"";"37.749308";"55.794301";"Культура / Искусство / Религия";"Музеи"
"367";"Государственный музей А.С. Пушкина, Садовый павильон";"Москва";"улица Пречистенка, 12/2 ст10";"119034";="+74956375674";"";"http://www.pushkinmuseum.ru";"https://vk.com/club41276547";"";"37.598596";"55.743893";"Культура / Искусство / Религия";"Музеи"
"368";"Музей Рерихов";"Москва";"проспект Мира (ВДНХ), 119 ст13";"129223";="+74956910212";"";"http://roerichsmuseum.ru";"https://vk.com/roerichsmuseum";"";"37.62805";"55.830934";"Культура / Искусство / Религия";"Музеи, Интересные здания"
"369";"Станция Подмосковная, музейно-производственный комплекс";"Москва";"2-й Амбулаторный проезд, 8а";"125315";="+74992668609, +74992668602";"";"";"";"";"37.527719";"55.814172";"Культура / Искусство / Религия";"Музеи"
"370";"Дом-музей В.Л. Пушкина";"Москва";"улица Старая Басманная, 36";"105066";="+74992631057";"";"http://www.pushkinmuseum.ru";"https://vk.com/club41276547";"";"37.669106";"55.768993";"Культура / Искусство / Религия";"Музеи, Интересные здания"
"371";"Стрелецкие палаты, музей военной истории";"Москва";"Лаврушинский переулок, 17 ст1";"119017";="+74956481814";"";"http://museumrvio.ru";"https://vk.com/streletskyepalaty";"";"37.622564";"55.7412";"Культура / Искусство / Религия";"Музеи"
"372";"Музей славянской культуры им. Константина Васильева";"Москва";"улица Череповецкая, 3Б";"127572";="+79067208018, +79264963900";"";"http://museum-slav.com";"https://vk.com/muzey_k_vasileva";"";"37.565809";"55.899345";"Культура / Искусство / Религия";"Музеи"
"373";"Усадьба Мураново им. Ф.И. Тютчева, музей-заповедник";"д. Мураново";"деревня Мураново, вл1";"141250";="+79853173898, +74965318180";"";"http://muranovo-museum.ru";"https://vk.com/muranovo";"";"37.90291";"56.178268";"Культура / Искусство / Религия";"Музеи"
"374";"Собрание, музей";"Москва";"улица Солянка, 16";"109240";="+74952340630";"";"http://mus-col.com";"https://vk.com/sobraniemuseum";"";"37.641357";"55.750682";"Культура / Искусство / Религия";"Музеи"
"375";"Союзмультфильм, музей";"Москва";"проспект Мира (ВДНХ), 119 ст7";"129223";="+74953080034";"";"http://souzmultpark.ru";"https://vk.com/souzmultpark.vdnh";"";"37.626786";"55.827502";"Культура / Искусство / Религия";"Музеи"
"376";"Megabricks, музей Лего";"Москва";"Халтуринская улица, 11";"107392";="+79661721111";"";"http://megabricks.ru";"https://vk.com/megabricks";"";"37.726224";"55.802031";"Культура / Искусство / Религия";"Художественные выставки / Галереи, Музеи"
"377";"Музей К.Г. Паустовского";"Москва";"Кузьминская, 8";"109472";="+74991727791";"";"http://www.mirpaustowskogo.ru";"https://vk.com/mirpaustowskogo";"";"37.788738";"55.693981";"Культура / Искусство / Религия";"Музеи"
"378";"Моторы войны, музей";"Москва";"улица Рогожский Вал, 9/2 ст2";"109544";="+79857743577";"";"http://www.warmotors.ru";"https://vk.com/club211399027";"";"37.677917";"55.742364";"Культура / Искусство / Религия";"Музеи"
"379";"Люберецкий краеведческий музей";"Люберцы";"Звуковая, 3";"140000";="+74955544305";"";"";"";"";"37.894693";"55.677301";"Культура / Искусство / Религия";"Музеи"
"380";"Музей детства";"Москва";"Театральный проезд, 5";"109012";="+74957778077";"";"http://cdm-moscow.ru";"https://vk.com/cdmmoscow";"";"37.624484";"55.75978";"Культура / Искусство / Религия";"Музеи"
"381";"Ломаковский музей старинных автомобилей и мотоциклов";"Москва";"Краснодарская, вл58";"109559";="+74993567995";"";"http://www.lomakovka.ru";"";"";"37.771698";"55.67481";"Культура / Искусство / Религия";"Музеи, Антиквариат, Сценические декорации / Бутафория"
"382";"Г.о.р.а., музей";"Москва";"площадь Победы, 3";"121170";="+74994498181";"";"http://goramuseum.ru";"";"";"37.505141";"55.73102";"Культура / Искусство / Религия";"Музеи"
"383";"Музей хоккейной славы";"Москва";"Автозаводская, 23 к3";"115280";="+79775149785";"";"";"https://vk.com/russianhockeymuseum";"";"37.646342";"55.703069";"Культура / Искусство / Религия";"Музеи"
"384";"Центральный дом-музей авиации и космонавтики";"Москва";"улица Красноармейская, 4";"125167";="+74956143861, +74956125461";"";"http://www.aviacosmosdom.ru";"";"";"37.549435";"55.797237";"Культура / Искусство / Религия";"Музеи"
"385";"Музей-усадьба Ф.И. Шаляпина";"Москва";"Новинский бульвар, 25-27 к3 ст5";"123242";="+74956902588,,,1168";"";"http://music-museum.ru";"https://vk.com/musicmusem_ru";"";"37.583337";"55.756545";"Культура / Искусство / Религия";"Музеи"
"386";"Музей им. П.И. Чайковского и Москва";"Москва";"Кудринская площадь, 46/54 ст2";"121069";="+74956056515";"";"http://music-museum.ru";"https://vk.com/musicmuseum_ru";"";"37.585325";"55.758136";"Культура / Искусство / Религия";"Музеи"
"387";"Центр Гиляровского, Музей Москвы";"Москва";"переулок Столешников, 9 ст5";"107031";="+74956373135, +74957390008";"";"http://mosmuseum.ru";"https://vk.com/gilyarovskycenter";"";"37.615416";"55.763461";"Культура / Искусство / Религия";"Музеи"
"388";"Лунариум, интерактивный музей";"Москва";"Садовая-Кудринская улица, 5 ст1";"123242";="+74952217690";"";"";"";"";"37.583968";"55.761351";"Культура / Искусство / Религия";"Музеи"
"389";"Музей истории телефона";"Москва";"Садовая-Кудринская улица, 19 ст2";"123001";="+74958000800";"";"http://telhistory.ru";"https://vk.com/telhistorymoscow";"";"37.588025";"55.764944";"Культура / Искусство / Религия";"Музеи"
"390";"Особняк купца В.Д. Носова, историко-культурный центр";"Москва";"улица Электрозаводская, 12 ст1";"107023";="+74956708001,,,600";"";"http://nosov.rgub.ru";"https://vk.com/osobnyak_nosova";"";"37.703475";"55.785338";"Досуг / Развлечения / Общественное питание";"Культурно-досуговые центры для взрослых, Библиотеки, Музеи, Интересные здания"
"391";"Интеграция, государственный музей-культурный центр им. Н.А. Островского";"Москва";"Тверская улица, 14";"125009";="+74956298552, +74956294920";"";"http://tverskaya14.ru";"";"";"37.606622";"55.764283";"Культура / Искусство / Религия";"Музеи"
"392";"Есенин-центр, Московский Государственный музей С.А. Есенина";"Москва";"переулок Чернышевского, 4 ст2";"127473";="+74956887990, +74956886374";"";"http://jivo.chat/BUfwBceDVU";"https://vk.com/club38865256";"";"37.60915";"55.782176";"Культура / Искусство / Религия";"Музеи"
"393";"Музей Вадима Сидура, ММОМА";"Москва";"Новогиреевская улица, 37а";"111394";="+74959185181, +74959185182";"";"http://www.sidur.ru/";"https://vk.com/mmomasidur";"";"37.799014";"55.753113";"Культура / Искусство / Религия";"Музеи, Библиотеки, Коворкинг, Лектории, Художественные выставки / Галереи"
"394";"Российский музей леса";"Москва";"5-й Монетчиковский переулок, 4";"115054";="+74959591517, +74959591522";"";"http://roslesmuseum.ru";"https://vk.com/roslesmuseum";"";"37.633614";"55.732814";"Культура / Искусство / Религия";"Музеи"
"395";"Музей транспорта Москвы";"Москва";"проспект Мира (ВДНХ), 119 пав26";"129223";="+74953692675, +74955443400";"";"http://www.mtmuseum.com";"https://vk.com/mtmuseum";"";"37.621764";"55.834206";"Культура / Искусство / Религия";"Музеи"
"396";"Музей русского лубка и наивного искусства";"Москва";"Малый Головин переулок, 10 ст1";"107045";="+74956085221, +74956085182";"";"http://naive-museum.ru";"https://vk.com/lubok_naiv";"";"37.634474";"55.769063";"Культура / Искусство / Религия";"Музеи"
"397";"Государственный музей Л.Н. Толстого";"Москва";"улица Пречистенка, 11/8 ст1";"119034";="+74997669328, +74956377410";"";"http://www.tolstoymuseum.ru";"https://vk.com/tolstoymuseum";"";"37.597127";"55.742797";"Культура / Искусство / Религия";"Музеи"
"398";"Усадьба коломенского крестьянина, дом-музей";"Москва";"проспект Андропова, 39 ст72";"115487";="+74997828921, +74997828917";"";"http://www.mgomz.ru/kolomenskoe";"https://vk.com/mgomz";"";"37.670638";"55.673939";"Культура / Искусство / Религия";"Музеи"
"399";"Музей парка Сокольники";"Москва";"улица Сокольнический Вал, 1 ст1";"107113";="+79250953070";"";"http://park.sokolniki.com/about/museum/";"https://vk.com/sokolnikimuseum";"";"37.676749";"55.792351";"Культура / Искусство / Религия";"Музеи"
"400";"Музей техники Apple";"Москва";"Складочная улица, 3 ст1";"127018";="+79151233527";"";"http://apple-museum.ru";"https://vk.com/applemuseumrussia";"";"37.590294";"55.805851";"Культура / Искусство / Религия";"Музеи"
"401";"Государственный музей В.В. Маяковского";"Москва";"Красная Пресня, 36 ст1";"123376";="+74992550186";"";"http://музеймаяковского.рф";"https://vk.com/vv_mayakovsky";"";"37.566721";"55.762514";"Культура / Искусство / Религия";"Музеи"
"402";"Музей воды";"Москва";"Саринский проезд, 13 ст5";"109044";="+74956769213";"";"http://www.mosvodokanal.ru/about/museum.php";"https://vk.com/mvknews";"";"37.656793";"55.729218";"Культура / Искусство / Религия";"Музеи"
"403";"Дом-музей Булата Окуджавы";"пос. ДСК "Мичуринец"";"Довженко, 11";"108816";="+74957317727, +74955935208";"";"http://okudshava.ru";"https://vk.com/okudshavamuseum";"";"37.316097";"55.650211";"Культура / Искусство / Религия";"Музеи, Интересные здания"
"404";"Подземный музей";"Москва";"улица Варварка, 6 ст6";"109012";="+74955310526";"";"http://www.zaryadyepark.ru/services/podzemnyy-muzey-zaryade/";"https://vk.com/zaryadyepark";"";"37.62857";"55.75003";"Культура / Искусство / Религия";"Музеи"
"405";"Китайгородская стена";"Москва";"Китайгородский проезд, 2 ст1";"109074";="";"";"http://www.zaryadyepark.ru";"";"";"37.632382";"55.75074";"Культура / Искусство / Религия";"Музеи"
"406";"Политехнический музей, Открытые коллекции";"Москва";"Волгоградский проспект, 42 к5";"109316";="+74957305438, +74957806027, +74957806026";"";"http://polytech.one";"https://vk.com/polytechmuseum";"";"37.723048";"55.709133";"Культура / Искусство / Религия";"Музеи"
"407";"Музей городского хозяйства Москвы";"Москва";"проспект Мира (ВДНХ), 119 пав5";"129223";="+74956092025";"";"";"https://vk.com/kghmuseum";"";"37.629809";"55.828774";"Культура / Искусство / Религия";"Музеи"
"408";"Храм-музей святителя Николая в Толмачах";"Москва";"Малый Толмачёвский переулок, 9";"119017";="+74959570781";"";"http://hramvtolmachah.ru/index.php";"";"";"37.620473";"55.740913";"Культура / Искусство / Религия";"Музеи"
"409";"Музей русского импрессионизма";"Москва";"Ленинградский проспект, 15 ст11";"125040";="+74951457555";"";"http://rusimp.su";"https://vk.com/rusimp_su";"";"37.570519";"55.780264";"Культура / Искусство / Религия";"Музеи"
"410";"Дом-музей К.С. Станиславского";"Москва";"Леонтьевский переулок, 6 ст1";"125009";="+74956292442";"";"http://museummhat.ru";"https://vk.com/museummhat";"";"37.602988";"55.758851";"Культура / Искусство / Религия";"Музеи"
"411";"Музей-квартира Г.С. Улановой";"Москва";"Котельническая набережная, 1/15 к Б";"115172";="+74994847777,,,7";"";"http://www.gctm.ru/posetitelyam/muzey-kvartira-g-s-ulanovoy/";"https://vk.com/bahrushinmuseum";"";"37.642748";"55.747168";"Культура / Искусство / Религия";"Музеи"
"412";"Мультимедиа Арт Музей";"Москва";"улица Остоженка, 16";"119034";="+74956371100";"";"http://www.mamm-mdf.ru";"https://vk.com/club13212079";"";"37.598844";"55.741542";"Культура / Искусство / Религия";"Музеи"
"413";"Музей сословий России";"Москва";"улица Волхонка, 13 ст2";"119019";="+74956919378, +74956918454";"";"http://glazunov-gallery.ru";"https://vk.com/glazunovsgallery";"";"37.607566";"55.746618";"Культура / Искусство / Религия";"Музеи"
"414";"Дом-музей Павла и Сергея Третьяковых";"Москва";"1-й Голутвинский переулок, 16 ст1";"119180";="+74959570727";"";"http://www.tretyakovgallery.ru";"https://vk.com/club16880142";"";"37.61145";"55.737718";"Культура / Искусство / Религия";"Музеи"
"415";"Дом-музей А.Н. Островского";"Москва";"улица Малая Ордынка, 9/12 ст6";"119017";="+74959538684, +74959511140, +74959531245";"";"http://www.gctm.ru";"https://vk.com/ostrovskyzamoskvorechye";"";"37.626341";"55.73882";"Культура / Искусство / Религия";"Музеи, Интересные здания"
"416";"Центральный пограничный музей ФСБ России";"Москва";"Яузский бульвар, 13";"109028";="+74959291489";"";"";"";"";"37.645895";"55.750768";"Культура / Искусство / Религия";"Музеи"
"417";"Музей истории медицины первого Московского Государственного Медицинского Университета им. И.М. Сеченова";"Москва";"улица Большая Пироговская, 2 ст3";"119435";="+74992481086, +74992487009";"";"http://sechenov.ru/univers/structure/other/muzey-istorii-meditsiny";"https://vk.com/musey_istorii_medicini";"";"37.569884";"55.731891";"Культура / Искусство / Религия";"Музеи"
"418";"Музей собаки";"Москва";"Малая Калужская, 12";"119071";="+74951392585";"";"http://www.dogmuseum.ru";"https://vk.com/dogmuseum";"";"37.595735";"55.71673";"Культура / Искусство / Религия";"Музеи"
"419";"Музей моды, музеи?но-выставочныи? центр";"Москва";"улица Ильинка, 4";"109012";="+74992704261";"";"";"https://vk.com/fasionmuseum";"";"37.625104";"55.753285";"Культура / Искусство / Религия";"Музеи"
"420";"Усадьба Люблино, дом-музей";"Москва";"Тихая, 23 ст1";"109387";="+74997828917, +74996125217";"";"http://mgomz.ru";"https://vk.com/mgomz";"";"37.741794";"55.68608";"Культура / Искусство / Религия";"Музеи"
"421";"Музей Героев Советского Союза и России";"Москва";"Большая Черёмушкинская, 24 к3";"117218";="+74997443025";"";"http://www.1812panorama.ru";"https://vk.com/museumofheroes";"";"37.584112";"55.681825";"Культура / Искусство / Религия";"Музеи"
"422";"Сахаровский центр";"Москва";"Земляной Вал улица, 57 ст6";"105120";="+74956234420, +74956234401";"";"http://www.sakharov-center.ru";"https://vk.com/club11903303";"";"37.658791";"55.751163";"Культура / Искусство / Религия";"Музеи, Библиотеки"
"423";"Музей Великой Отечественной войны";"Москва";"Щёлковское шоссе, 2а";"105122";="+79153158608";"";"";"";"";"37.758202";"55.803597";"Культура / Искусство / Религия";"Музеи"
"424";"Домик Петра I, музей";"Москва";"проспект Андропова, 39 ст12";"115487";="+74996152768, +74996148880";"";"http://mgomz.ru";"https://vk.com/mgomz";"";"37.667196";"55.667367";"Культура / Искусство / Религия";"Музеи"
"425";"Дом-музей М.Ю. Лермонтова";"Москва";"Малая Молчановка, 2";"121069";="+74956955308";"";"http://goslitmuz.ru/ru/lervontov-museum";"https://vk.com/goslitmuz";"";"37.594306";"55.753614";"Культура / Искусство / Религия";"Музеи"
"426";"Музей истории водки";"Москва";"Измайловское шоссе, 73ж ст1";"105187";="+79031188189";"";"";"https://vk.com/vodkamuseum";"";"37.749591";"55.794513";"Культура / Искусство / Религия";"Музеи"
"427";"Мемориальный дом-музей академика С.П. Королёва";"Москва";"1-я Останкинская улица, 28";"129515";="+74997502300,,,1016";"";"http://jivo.chat/2sY5UIoauC";"https://vk.com/kosmo_museum";"";"37.631946";"55.823293";"Культура / Искусство / Религия";"Музеи"
"428";"Центральный музей древнерусской культуры и искусства им. Андрея Рублева";"Москва";"Андроньевская площадь, 10 ст10";"105120";="+74956781489, +74956785055, +74956781467, +74956789803";"";"http://www.rublev-museum.ru";"https://vk.com/museum_andrey_rublev";"";"37.670221";"55.749199";"Культура / Искусство / Религия";"Музеи"
"429";"#НЕМУЗЕЙМУСОРА";"Москва";"Варшавское шоссе, 2";"117105";="88004442741, +79961767516";"";"http://nemuseymusora.ru";"https://vk.com/nemuseum";"";"37.620499";"55.700655";"Коммунальные / бытовые / ритуальные услуги";"Пункты приёма, Секонд-хенд, Утилизация отходов / Переработка вторсырья, Музеи, Косметика / Парфюмерия"
"430";"Art4, музей";"Москва";"Хлыновский тупик, 4";"125009";="+74991365656";"";"http://www.art4.ru";"";"";"37.603019";"55.757805";"Культура / Искусство / Религия";"Музеи"
"431";"Музей Анатолия Зверева";"Москва";"Тверская-Ямская 2-я, 20-22 ст2";"125047";="+74957305526, +74957305528";"";"http://www.museum-az.com";"https://vk.com/museumaz";"";"37.594006";"55.772158";"Культура / Искусство / Религия";"Музеи"
"432";"Царицыно, Оперный дом";"Москва";"Дольская улица, 1 ст5";"115569";="+74953224433";"";"http://tsaritsyno-museum.ru";"https://vk.com/tsaritsynomuseum";"";"37.680631";"55.614798";"Культура / Искусство / Религия";"Музеи, Интересные здания"
"433";"РУТ (МИИТ), музей";"Москва";"улица Образцова, 9 ст9";"127055";="+74956842990";"";"";"";"";"37.608027";"55.787738";"Культура / Искусство / Религия";"Музеи"
"434";"Запасной командный пункт Верховного Главнокомандующего Красной Армии И.В. Сталина периода Великой Отечественной войны 1941-1945 гг.";"Москва";"Советская улица, 80 ст22";"105122";="+74991666768, +79165182372";"";"http://сталинбункер.рф";"https://vk.com/club121262971";"";"37.75102";"55.797463";"Культура / Искусство / Религия";"Музеи"
"435";"Центральный музей ВОВ 1941-1945 гг., Экспозиция вооружения и военной техники и локальных конфликтов 50-80-х гг. ХХ века";"Москва";"площадь Победы, 3 ст1";"121170";="+74994498181";"";"http://victorymuseum.ru";"https://vk.com/muzeypobedy";"";"37.502829";"55.725643";"Культура / Искусство / Религия";"Музеи"
"436";"Gopinball, музей пинбола";"Москва";"Крымский Вал улица, 10а";"119049";="+74995048801";"";"http://gopinball.ru";"https://vk.com/gopinball";"";"37.6021";"55.733201";"Культура / Искусство / Религия";"Музеи"
"437";"Государственный музей В.В. Маяковского";"Москва";"Студенецкий переулок, 6";"123100";="+74956051929";"";"http://музеймаяковского.рф";"https://vk.com/vv_mayakovsky";"";"37.556643";"55.758251";"Культура / Искусство / Религия";"Музеи"
"438";"Государственный выставочный зал истории войны в Афганистане";"Москва";"1-я Владимирская улица, 12 к1";"111123";="+74953064339, +74953064330";"";"http://afgan-zal.ru";"https://vk.com/club153035194";"";"37.774543";"55.758082";"Культура / Искусство / Религия";"Музеи"
"439";"Умный город, научно-технический музей";"Москва";"проспект Мира (ВДНХ), 119 ст461";"129223";="+79163115102";"";"http://www.mos.ru/city/projects/smartcityvdnh";"https://vk.com/smartcityvdnh";"";"37.630861";"55.834008";"Культура / Искусство / Религия";"Музеи"
"440";"Музей НИТУ, МИСиС";"Москва";"Ленинский проспект, 6 ст1";"119049";="+74992378618";"";"";"";"";"37.607079";"55.727098";"Культура / Искусство / Религия";"Музеи"
"441";"Садовое кольцо, музей";"Москва";"проспект Мира, 14 ст10";"129090";="+74956081403, +74956089216";"";"";"https://vk.com/public47000732";"";"37.632764";"55.77506";"Культура / Искусство / Религия";"Музеи"
"442";"Музейно-храмовый комплекс ВС РФ Минобороны России";"";"Парк Патриот, 1 ст4";"";="88005111418";"";"";"https://vk.com/doroga_pamyaty_1418";"";"36.821759";"55.579114";"Культура / Искусство / Религия";"Музеи"
"443";"Музей предпринимателей, меценатов и благотворителей";"Москва";"Донская улица, 9";"119049";="+74992375349";"";"http://muzeydela.ru";"https://vk.com/muzeydela";"";"37.608735";"55.724759";"Культура / Искусство / Религия";"Музеи"
"444";"Государственный историко-литературный музей-заповедник А.С. Пушкина";"д. Захарово";"деревня Захарово, вл1";"143022";="+74955982404, +74986989800";"";"http://www.museum-gol.ru";"https://vk.com/museumgol";"";"36.970012";"55.646163";"Культура / Искусство / Религия";"Музеи"
"445";"Музей магии и фокусов";"Москва";"проспект Мира (ВДНХ), 119 ст519";"129223";="+79959053847";"";"http://домгарри.рф/museum";"https://vk.com/magic_vdnh";"";"37.631138";"55.832993";"Досуг / Развлечения / Общественное питание";"Организация и проведение праздников, Музеи, Организация и проведение квестов"
"446";"Музей Московского образования";"Москва";"Вишняковский переулок, 12 ст1";"119017";="+74959515033, +74959519339";"";"http://mgdu.dogm.mos.ru";"";"";"37.629641";"55.736146";"Культура / Искусство / Религия";"Музеи"
"447";"Зил, музей";"Москва";"улица Сокольнический Вал, 1а";"107113";="+79168879605";"";"http://zil-museum.ru";"";"";"37.676029";"55.792235";"Культура / Искусство / Религия";"Музеи"
"448";"Конюшенный двор, музей";"Москва";"проспект Андропова, 39 ст52";"115487";="+74996152768";"";"http://mgomz.ru";"https://vk.com/mgomz";"";"37.66126";"55.663925";"Культура / Искусство / Религия";"Музеи"
"449";"Московский музей анимации";"Москва";"Измайловское шоссе, 73ж";"105187";="+79104380804, +74959406960";"";"http://animamuseum.ru";"https://vk.com/animamuseum";"";"37.749318";"55.794333";"Культура / Искусство / Религия";"Музеи"
"450";"Архангельский собор";"Москва";"Кремль, 1е";"109012";="+74956970349";"";"http://www.kreml.ru";"https://vk.com/kremlinmuseums";"";"37.617677";"55.750197";"Культура / Искусство / Религия";"Музеи, Интересные здания"
"451";"Музей, Международный нумизматический клуб";"Москва";"Большой Афанасьевский переулок, 24";"119019";="+74956379426";"";"http://coinmuseum.ru";"https://vk.com/museum_mnk";"";"37.597375";"55.749384";"Культура / Искусство / Религия";"Музеи"
"452";"Мелихово, государственный литературно-мемориальный музей-заповедник А.П. Чехова";"с. Мелихово";"село Мелихово, вл1";"142326";="+74999410314, +79057812910, +79164847247, +74999410313";"";"http://chekhovmuseum.com";"";"";"37.647349";"55.114076";"Культура / Искусство / Религия";"Музеи"
"453";"Музей-мастерская Людмилы Гурченко";"Москва";"Трёхпрудный переулок, 11/13 ст1";"123001";="+79037920471, +79778509002";"";"http://gurchenko.ru";"";"";"37.594514";"55.765445";"Культура / Искусство / Религия";"Музеи"
"454";"Музей, ЦПКиО им. М. Горького";"Москва";"Крымский Вал улица, 9";"119049";="+74959950020,,,1928";"";"http://www.park-gorkogo.com";"https://vk.com/gorky.park";"";"37.603695";"55.7313";"Культура / Искусство / Религия";"Музеи, Смотровые площадки"
"455";"Российский национальный музей музыки С.С. Прокофьева";"Москва";"Камергерский переулок, 6 ст3";"125009";="+74956056515,,,1169, +74956056515,,,1170, +74956056515,,,1172";"";"http://music-museum.ru";"";"";"37.614444";"55.760159";"Культура / Искусство / Религия";"Музеи"
"456";"История танка Т-34, музейно-мемориальный комплекс";"д. Шолохово";"деревня Шолохово, 89а";"141052";="+74955777194, +74995777564";"";"http://www.museum-t-34.ru";"";"";"37.529596";"56.055138";"Культура / Искусство / Религия";"Музеи"
"457";"Государственный музей искусства народов Востока";"Москва";"проспект Мира (ВДНХ), 119 пав13";"129223";="+74956910212, +74956918219";"";"http://www.orientmuseum.ru";"https://vk.com/club51591430";"";"37.62805";"55.830934";"Культура / Искусство / Религия";"Музеи"
"458";"Музей Серебряного века";"Москва";"проспект Мира, 30 ст1";"129090";="+74956808683, +74956955308";"";"http://goslitmuz.ru/museums/muzey-serebryanogo-veka/";"https://vk.com/dombrusova";"";"37.633072";"55.778417";"Культура / Искусство / Религия";"Музеи"
"459";"Жили-были, дом-музей сказок";"Москва";"Измайловское шоссе, 73ж";"105187";="+74959809560, +79680510955";"";"http://domskazok.su";"https://vk.com/club70320330";"";"37.750062";"55.794614";"Культура / Искусство / Религия";"Музеи"
"460";"Музей истории ВДНХ";"Москва";"проспект Мира (ВДНХ), 119 ст228";"129223";="+74955443400";"";"http://vdnh.ru";"https://vk.com/vdnh";"";"37.637914";"55.826552";"Культура / Искусство / Религия";"Музеи"
"461";"Дом-музей И.С. Остроухова, государственный литературный музей";"Москва";"Трубниковский переулок, 17 ст1";"121069";="+74956954618";"";"http://goslitmuz.ru/ru/ostroukhov-museum";"https://vk.com/ostroukhovhouse";"";"37.58678";"55.754814";"Культура / Искусство / Религия";"Музеи"
"462";"Музей уральских сказов";"Москва";"Семёновский переулок, 6";"107023";="+79637504533";"";"http://bazhov-museum.ru";"";"";"37.714147";"55.783282";"Культура / Искусство / Религия";"Музеи"
"463";"Дом-музей М.С. Щепкина";"Москва";"Щепкина, 47 ст2";"129110";="+74994847777,,,4";"";"";"";"";"37.629062";"55.78172";"Культура / Искусство / Религия";"Музеи, Интересные здания"
"464";"Музей-квартира А.М. Васнецова";"Москва";"Фурманный переулок, 6";"101000";="+74956089045";"";"";"https://vk.com/club16880142";"";"37.648711";"55.763875";"Культура / Искусство / Религия";"Музеи"
"465";"Музейно-храмовый комплекс ВС РФ Минобороны России";"";"Минское шоссе 55 км, ст3";"";="+74986976757, 88005111418";"";"http://1418museum.ru";"https://vk.com/doroga_pamyaty_1418";"";"36.824476";"55.578636";"Культура / Искусство / Религия";"Музеи"
"466";"Музей истории медицины, МГМСУ им. А.И. Евдокимова";"Москва";"Долгоруковская улица, 4 ст7";"127006";="+74999789411";"";"http://museum.historymed.ru";"";"";"37.604629";"55.774988";"Культура / Искусство / Религия";"Музеи"
"467";"Государственный центральный музей современной истории России, Экспозиционно-мемориальный отдел Пресня";"Москва";"Большой Предтеченский переулок, 4";"123242";="+74956995217, +74992523035";"";"http://www.sovrhistory.ru";"https://vk.com/sovr.history";"";"37.571172";"55.759294";"Культура / Искусство / Религия";"Музеи"
"468";"Государственный космический научно-производственный центр им. М.В. Хруничева, Музей истории";"Москва";"Новозаводская, 18 к1";"121309";="+74997498339";"";"";"";"";"37.493501";"55.753376";"Культура / Искусство / Религия";"Музеи"
"469";"Музей ратной истории Москвы";"Москва";"Крутицкая, 17 ст2";"109044";="+79253093509, +79266696382";"";"http://castle.moscow";"https://vk.com/castlemoscow";"";"37.657866";"55.727849";"Культура / Искусство / Религия";"Музеи"
"470";"Brick star, музей лего";"Москва";"Лесная, 20 ст3";"125196";="+74959998558";"brickstar-museum@yandex.ru, info@brickstar.ru";"http://brickstar.ru";"https://vk.com/brickstar";"";"37.59249";"55.779866";"Культура / Искусство / Религия";"Музеи, Детские игровые залы / Игротеки, Игрушки"
"471";"Тайны Коломенской Медовуши";"Коломна";"улица Октябрьской революции, 184а";"140400";="+79670674461, +79168759198";"";"http://medovusha.ru";"https://vk.com/kolomnamedovuha";"";"38.752141";"55.10254";"Культура / Искусство / Религия";"Музеи"
"472";"Ансамбль колокольни Иван Великий";"Москва";"Кремль, 1ж";"109012";="";"";"http://www.kreml.ru";"https://vk.com/kremlinmuseums";"";"37.618202";"55.7507";"Культура / Искусство / Религия";"Музеи"
"473";"Урании, музей";"Москва";"Садовая-Кудринская улица, 5 ст1";"123242";="+74952217690";"";"http://www.planetarium-moscow.ru";"";"";"37.583968";"55.761351";"Культура / Искусство / Религия";"Музеи"
"474";"Музей истории Московского шоколада";"Москва";"Летняя улица, 2 ст1";"109387";="+74997227189, +79859223191, +79776809995";"";"http://mirchocolat.ru";"";"";"37.744127";"55.688077";"Культура / Искусство / Религия";"Музеи"
"475";"Музей транспорта Москвы, Выставка Вода и грезы";"Москва";"Ленинградское шоссе, 51";"125195";="+74953692675";"";"http://www.mtmuseum.com";"https://vk.com/mtmuseum";"";"37.467401";"55.851162";"Культура / Искусство / Религия";"Музеи"
"476";"Государственный музей спорта";"Москва";"улица Казакова, 18 ст1";"105064";="+74999410773";"";"http://www.museumsport.ru";"";"";"37.668591";"55.762758";"Культура / Искусство / Религия";"Музеи"
"477";"Дом-музей М.Н. Ермоловой";"Москва";"Тверской бульвар, 11";"123104";="+74994847777";"";"http://www.gctm.ru";"https://vk.com/bahrushinmuseum";"";"37.599765";"55.759908";"Культура / Искусство / Религия";"Музеи"
"478";"Музей космонавтики им. Ю.А. Гагарина";"пос. Звездный городок";"Звёздный городок посёлок, 6";"141160";="+74955263874, +74955263817";"";"http://zvezdnyigorodok.ru/museum";"";"";"38.104948";"55.877251";"Культура / Искусство / Религия";"Музеи"
"479";"Российский музей медицины";"Москва";"Большой Николоворобинский переулок, 7 ст1";"109028";="+74959177834";"";"http://medmuseum.ru";"";"";"37.648938";"55.752022";"Культура / Искусство / Религия";"Музеи"
"480";"Музей-квартира А.Н. Толстого";"Москва";"улица Спиридоновка, 2 ст1";"123001";="+74956900956";"";"http://goslitmuz.ru";"";"";"37.596391";"55.75857";"Культура / Искусство / Религия";"Музеи"
"481";"Музей Государственного Академического Большого театра России";"Москва";"Театральная площадь, 1";"125009";="+74956920025, +74956213138";"";"http://archive.bolshoi.ru";"";"";"37.618869";"55.759649";"Культура / Искусство / Религия";"Музеи"
"482";"АртКоммуналка, музей-резиденция";"Коломна";"улица Октябрьской революции, 205";"140400";="+79851800961, +79853350220";"";"http://artkommunalka.com";"https://vk.com/artkommunalka";"";"38.756775";"55.100921";"Культура / Искусство / Религия";"Музеи"
"483";"Самоцветы, музей";"Москва";"улица Народного Ополчения, 29 к1";"123154";="+74991975401, +74999465083, +74991924019";"";"http://www.gemmuseum.ru";"https://vk.com/muzej_samotsvety";"";"37.480166";"55.782202";"Культура / Искусство / Религия";"Музеи"
"484";"Партизанская деревня, военно-исторический комплекс";"";"Минское шоссе 55 км, вл1а";"";="88007070107";"";"http://patriotp.ru";"https://vk.com/parkpatriot";"";"36.803161";"55.558277";"Культура / Искусство / Религия";"Музеи"
"485";"Музей шахмат";"Москва";"Гоголевский бульвар, 14 ст1";"119019";="+74956919755, +74952120613";"";"http://www.museum.ru/M1659";"";"";"37.600501";"55.748127";"Культура / Искусство / Религия";"Музеи"
"486";"Музей-квартира И.Д. Сытина";"Москва";"Тверская улица, 12 ст2";"125009";="+74956294920, +74956298552";"";"http://tverskaya14.ru";"";"";"37.607243";"55.763796";"Культура / Искусство / Религия";"Музеи"
"487";"Музей-галерея Е. Евтушенко, Государственный центральный музей современной истории России";"пос. ДСК "Мичуринец"";"Гоголя, 1а";"108816";="+74955908356";"";"http://www.sovrhistory.ru";"";"";"37.32628";"55.653286";"Культура / Искусство / Религия";"Музеи, Интересные здания"
"488";"Исторический музей РГАУ и музей-кабинет им. Н.И. Вавилова";"Москва";"Тимирязевская, 45";"127550";="+74999763521";"";"http://www.museum.ru/m1742";"";"";"37.551307";"55.831284";"Культура / Искусство / Религия";"Музеи"
"489";"Московский государственный объединенный музей-заповедник территории Измайлово, Выставочный зал";"Москва";"Баумана городок, 2 ст13";"105037";="+74991651236, +74991633305, +74996142083, +74991650972";"";"http://www.mgomz.ru";"https://vk.com/mgomz";"";"37.763373";"55.792666";"Культура / Искусство / Религия";"Музеи"
"490";"Дом-музей В.И. Ленина";"рп. Горки Ленинские";"Центральная, 1";"142712";="+74955489309";"";"http://mgorki.ru";"";"";"37.774917";"55.510413";"Культура / Искусство / Религия";"Музеи, Интересные здания"
"491";"Музей истории Лефортово";"Москва";"Крюковская, 23";"111020";="+74953607786";"";"http://www.mosmuseum.ru";"https://vk.com/moscowmuseum";"";"37.710947";"55.7695";"Культура / Искусство / Религия";"Музеи"
"492";"Историко-краеведческий музей";"Балашиха";"проспект Ленина, 53";"143907";="+74955290213, +79260870213";"";"http://www.ikmb.ru";"https://vk.com/club59166955";"";"37.953099";"55.798506";"Культура / Искусство / Религия";"Музеи"
"493";"Московский музей современного искусства";"Москва";"Киевская, 22 ст2";"121165";="+74956906870";"";"http://www.mmoma.ru";"https://vk.com/id77591204";"";"37.543652";"55.738666";"Культура / Искусство / Религия";"Музеи"
"494";"Биотех, музей";"Москва";"проспект Мира (ВДНХ), 119 пав30";"129223";="";"";"";"";"";"37.618674";"55.834837";"Культура / Искусство / Религия";"Музеи"
"495";"Музей коневодства РГАУ-МСХА им. К.А. Тимирязева";"Москва";"Тимирязевская, 44";"127550";="+74999761003";"";"";"";"";"37.552939";"55.830751";"Культура / Искусство / Религия";"Музеи"
"496";"Соколиный двор, музей";"Москва";"проспект Андропова, 39 ст71";"115487";="+74996152768, +74996152771";"";"http://www.mgomz.ru";"https://vk.com/mgomz";"";"37.680747";"55.672011";"Культура / Искусство / Религия";"Музеи"
"497";"Музей трамваев";"Коломна";"Дмитрия Донского, 15";"140400";="+79169550147";"";"http://trammuseum.ru";"";"";"38.758097";"55.10652";"Культура / Искусство / Религия";"Музеи"
"498";"Музей кочевой культуры";"Москва";"Авиамоторная улица, 30а к1";"111024";="+79165133148";"";"http://nomadic.ru";"https://vk.com/club11671760";"";"37.7191";"55.744783";"Культура / Искусство / Религия";"Музеи"
"499";"Музей-квартира Александра Солженицына";"Москва";"Тверская улица, 12 ст8";"125009";="+74956920401";"";"http://domrz.ru";"";"";"37.609433";"55.76375";"Культура / Искусство / Религия";"Музеи"
"500";"МУ МУ, художественный музей мусора";"с. Истье";"Федеральная трасса А108 41 км, 2";"249162";="+79611233443";"";"http://art-mumu.ru";"https://vk.com/art.mumu";"";"36.825816";"55.123386";"Культура / Искусство / Религия";"Музеи"
"501";"Музей русского десерта";"Звенигород";"Фрунзе, 23/2";"143180";="+79150937093";"";"http://rusdessertmuseum.ru";"https://vk.com/m_r_d";"";"36.848332";"55.730899";"Культура / Искусство / Религия";"Музеи, Художественные выставки / Галереи, Кулинарные курсы"
"502";"Мишка, музей истории шоколада и какао";"Москва";"Малая Красносельская, 7";"107140";="+74959825797, +79150276577";"";"http://chokomuseum.ru";"";"";"37.659379";"55.786598";"Культура / Искусство / Религия";"Музеи"
"503";"Музей антропологии им. Д.Н. Анучина";"Москва";"улица Моховая, 11 ст1";"125009";="+74956297521, +79267652029";"";"http://www.antropos.msu.ru";"";"";"37.611948";"55.755333";"Культура / Искусство / Религия";"Музеи"
"504";"Футбольный клуб Спартак-Москва, музей";"Москва";"шоссе Волоколамское, 69";"125424";="+74955309500,,,1047";"";"http://spartak.com/stadium/stadium2_web";"";"";"37.438925";"55.817735";"Культура / Искусство / Религия";"Музеи"
"505";"Государственный центральный музей современной истории России, Квартира Г.М. Кржижановского";"Москва";"Садовническая улица, 30 ст1";"115035";="+74956995217, +74959595994, +74959530640";"";"http://www.sovrhistory.ru";"https://vk.com/sovr.history";"";"37.633364";"55.746399";"Культура / Искусство / Религия";"Музеи"
"506";"Музей СССР";"Москва";"Староконюшенный переулок, 36 ст1";"119002";="+79802174707";"";"";"";"";"37.594714";"55.749798";"Культура / Искусство / Религия";"Музеи"
"507";"Красногорский филиал Музея Победы";"Красногорск";"Народного Ополчения, 15";"143404";="+74987158306";"";"http://mmna.ru";"";"";"37.310813";"55.831199";"Культура / Искусство / Религия";"Музеи"
"508";"Артиллерийский двор, выставочный комплекс";"Москва";"Красная площадь, 1";"109012";="+74956923731, +74956924019, +74956925964";"";"http://www.shm.ru";"https://vk.com/gim";"";"37.617614";"55.755659";"Культура / Искусство / Религия";"Музеи"
"509";"Дом-музей М.М. Пришвина в Дунине";"д. Дунино";"деревня Дунино, 2";"143180";="+79260146621";"";"http://prishvin.ru";"https://vk.com/prishvinmuseum";"";"36.936407";"55.721986";"Культура / Искусство / Религия";"Музеи, Интересные здания"
"510";"Есенин-центр, Московский Государственный музей С.А. Есенина";"Москва";"Клязьминская улица, 21 к2";"127644";="+74956887990, +74954839515";"";"http://jivo.chat/BUfwBceDVU";"https://vk.com/club38865256";"";"37.529264";"55.893441";"Культура / Искусство / Религия";"Музеи"
"511";"Музей войск противовоздушной обороны";"Балашиха";"Ленина, 6";"143922";="+74986651373, +74986654138";"";"http://www.mvpvo.ru";"";"";"38.088132";"55.758429";"Культура / Искусство / Религия";"Музеи"
"512";"Почвенно-агрономический музей им. В.Р. Вильямса";"Москва";"Тимирязевская, 55";"127434";="+74999760280";"";"http://museum-williams.ru";"https://vk.com/club36179428";"";"37.54901";"55.834478";"Культура / Искусство / Религия";"Музеи"
"513";"Благовещенский собор";"Москва";"Кремль, 1в";"109012";="+74956970349";"";"http://www.kreml.ru";"https://vk.com/kremlinmuseums";"";"37.617096";"55.750139";"Культура / Искусство / Религия";"Музеи, Интересные здания"
"514";"Музей Московской окружной железной дороги";"Москва";"3-я Магистральная улица, 19 ст3";"123007";="+79263408550, +74996232558, +74996233978";"";"http://mzd.rzd.ru/ru/3920/page/103290?id=12472#main-header";"";"";"37.517315";"55.766609";"Культура / Искусство / Религия";"Музеи, Интересные здания"
"515";"Музей, Московская городская телефонная сеть, ПАО";"Москва";"улица Зорге, 27";"125252";="+74991980563";"";"http://www.computer-museum.ru";"";"";"37.503174";"55.795784";"Культура / Искусство / Религия";"Музеи"
"516";"Кузнечная слобода, музей";"Коломна";"Гражданская, 84";"140400";="+79104718890, +74966185783";"";"";"";"";"38.756422";"55.098687";"Культура / Искусство / Религия";"Музеи"
"517";"Центральный музей ВОВ 1941-1945 гг., Экспозиция Военно-морского флота";"Москва";"площадь Победы, 3е";"121170";="+74994498181";"";"http://victorymuseum.ru";"https://vk.com/muzeypobedy";"";"37.499787";"55.72807";"Культура / Искусство / Религия";"Музеи"
"518";"Пчеловодство, эколого-просветительский центр";"Москва";"проспект Мира (ВДНХ), 119 пав28";"129223";="+74959660922";"";"http://mospriroda.ru";"https://vk.com/ecobee28";"";"37.616507";"55.836373";"Культура / Искусство / Религия";"Музеи"
"519";"Одинцовский Историко-Краеведческий Музей, г. Одинцово";"Одинцово";"Коммунальный проезд, 1";"143007";="+74955935421";"";"http://odinmuseum.ru";"https://vk.com/odinmuzeum";"";"37.276666";"55.670693";"Культура / Искусство / Религия";"Музеи"
"520";"Музей ВОВ им. Подольских курсантов";"Москва";"улица Подольских Курсантов, 16а";"117545";="+74953817238";"";"";"";"";"37.619956";"55.605664";"Культура / Искусство / Религия";"Музеи"
"521";"Звенигородский историко-архитектурный и художественный музей";"Звенигород";"Ратехинское шоссе, вл3";"143180";="+79153935565, +79919300196, +74987158441";"";"http://zvenmuseum.ru";"https://vk.com/zvenistmuseum";"";"36.816736";"55.7282";"Культура / Искусство / Религия";"Музеи, Интересные здания"
"522";"Центральный музей войск национальной гвардии Российской Федерации";"Москва";"Красноказарменная улица, 9а ст1";"111250";="+74953618588, +74953618587";"";"http://rosgvard.ru";"";"";"37.697932";"55.760127";"Культура / Искусство / Религия";"Музеи"
"523";"Музей В.И. Даля";"Москва";"улица Большая Грузинская, 4/6 ст9";"123557";="+79262304569";"";"http://museumdal.ru";"https://vk.com/public211609043";"";"37.580363";"55.761988";"Культура / Искусство / Религия";"Музеи"
"524";"Музей фокусов и иллюзий";"Москва";"Измайловское шоссе, 73ж";"105187";="+79771156986";"";"http://magic2.ru";"";"";"37.749834";"55.794072";"Культура / Искусство / Религия";"Музеи"
"525";"Музей любимой игрушки";"Коломна";"Москворецкая, 20";"140415";="+79104681314";"";"";"";"";"38.769424";"55.106595";"Культура / Искусство / Религия";"Музеи"
"526";"Душистыя Радости Г.И. Сурановъ, музейная лавка";"Коломна";"Зайцева, 18";"140400";="+79151525115, +79167857288";"";"http://d-radosti.ru";"https://vk.com/kolomnamilo";"";"38.76376";"55.105489";"Медицина / Здоровье / Красота";"Косметика ручной работы, Сувениры, Музеи"
"527";"Музей истории усадьбы Александрово-Щапово";"пос. Щапово";"посёлок Щапово, 13";"108825";="+74958656766";"";"http://www.museum-shchapovo.msk.muzkult.ru";"";"";"37.407172";"55.417048";"Культура / Искусство / Религия";"Музеи"
"528";"Царицыно, Первый Кавалерский корпус";"Москва";"Дольская улица, 1";"115569";="+74953224433";"";"http://tsaritsyno-museum.ru";"https://vk.com/tsaritsynomuseum";"";"37.683886";"55.616668";"Культура / Искусство / Религия";"Музеи"
"529";"Государственный музей Константина и Виктора Мельниковых";"Москва";"Кривоарбатский переулок, 10";"119002";="+74956978037, +74956903900";"";"http://muar.ru/dom-melnikova";"https://vk.com/melnikov__museum";"";"37.589563";"55.748024";"Культура / Искусство / Религия";"Музеи, Интересные здания"
"530";"Государственный историко-литературный музей-заповедник А.С. Пушкина";"рп. Большие Вязёмы";"Институт, 1Б";"143050";="+74955982404, +74955982447";"";"http://www.museum-gol.ru";"https://vk.com/museumgol";"";"36.991622";"55.628439";"Культура / Искусство / Религия";"Музеи"
"531";"Государственный музей Л.Н. Толстого";"Москва";"Пятницкая улица, 12 ст1";"115035";="+74959516440, +74959515808";"";"http://www.tolstoymuseum.ru";"https://vk.com/tolstoymuseum";"";"37.62786";"55.743424";"Культура / Искусство / Религия";"Музеи, Интересные здания"
"532";"Политехнический музей";"Москва";"Новая площадь, 3/4";"101000";="+74957305438, +74957806027";"";"http://polytech.one/";"";"";"37.629516";"55.757776";"Культура / Искусство / Религия";"Музеи, Интересные здания"
"533";"Музей опытного конструкторского бюро А.Н. Туполева";"Москва";"набережная Академика Туполева, 17";"105005";="+74992637777, +74992672444, +74992610868, +79037626817";"";"http://www.tupolev.ru/muzey";"";"";"37.676556";"55.760315";"Культура / Искусство / Религия";"Музеи"
"534";"Московский музей кошки";"Москва";"улица Екатерины Будановой, 8 к2";"121351";="+79166875547";"";"http://moscow-cat-museum.wixsite.com/moscow-cat-museum";"";"";"37.427434";"55.730087";"Культура / Искусство / Религия";"Музеи"
"535";"Музей военной формы одежды";"Щёлково";"Беляева, 52";"141104";="+74962538495, +74955262424, +79057672167";"";"";"";"";"38.077146";"55.882948";"Культура / Искусство / Религия";"Музеи"
"536";"Дом-музей Великой княгини Елизаветы Феодоровны";"Москва";"Большая Ордынка, 34 ст5";"119017";="+74957785614, +74993505181";"";"http://www.mmom.ru";"https://vk.com/mmom_ru";"";"37.623877";"55.737816";"Культура / Искусство / Религия";"Музеи"
"537";"Мемориальный музей-квартира актерской семьи Мироновых и А.С. Менакера";"Москва";"Малый Власьевский переулок, 7";"119002";="+74994847777,,,6";"";"http://www.gctm.ru/branch/mmm/";"https://vk.com/bahrushinmuseum";"";"37.592728";"55.746379";"Культура / Искусство / Религия";"Музеи"
"538";"Государственный музей изобразительных искусств им. А.С. Пушкина, Отдел личных коллекций";"Москва";"улица Волхонка, 10";"119019";="+74956099520, +74956971610";"";"http://pushkinmuseum.art";"https://vk.com/theartsmuseum";"";"37.606988";"55.747456";"Культура / Искусство / Религия";"Музеи"
"539";"Историко-культурный центр Ленинского городского округа, г. Видное";"Видное";"Заводская, 2";"142700";="+74955414098, +74955415633";"";"http://rikc-vidnoe.mo.muzkult.ru";"";"";"37.709228";"55.556605";"Юридические / финансовые / бизнес-услуги";"Организация выставок, Культурно-досуговые центры для взрослых, Организация экскурсий по городу, Центры раннего развития детей, Музеи"
"540";"Краеведческий музей г. Подольска";"Подольск";"Советская площадь, 7";"142100";="+74967559234, +74967559233";"";"http://www.pkmuseum.ru";"https://vk.com/pk_museum";"";"37.549335";"55.432309";"Культура / Искусство / Религия";"Музеи"
"541";"Детский центр Музеев Московского Кремля";"Москва";"Манежная, 7 ст2";"119019";="+74956957581, +74956903094";"";"http://kreml.ru";"https://vk.com/kremlinmuseums";"";"37.611366";"55.750757";"Культура / Искусство / Религия";"Музеи"
"542";"Музей анатомии им. Б.К. Гиндце";"Москва";"Тимирязевская, 44";"127550";="+74999776452";"";"";"https://vk.com/anatomy_muz";"";"37.552939";"55.830751";"Культура / Искусство / Религия";"Музеи"
"543";"Забавушка, музей народной игрушки";"Москва";"1-я Пугачёвская улица, 17";"107553";="+79153020047, +79165288984";"";"http://www.zabawushka.ru";"https://vk.com/muz_zabawushka";"";"37.733337";"55.796647";"Культура / Искусство / Религия";"Музеи"
"544";"Подолье, историко-мемориальный музей-заповедник";"Подольск";"проспект Ленина, 47";"142106";="+74967699239";"";"http://www.музей-подолье.рф";"";"";"37.555742";"55.437826";"Культура / Искусство / Религия";"Музеи"
"545";"Патриарший дворец с церковью Двенадцати апостолов";"Москва";"Кремль, 1я";"109012";="+74956970349";"";"http://www.kreml.ru";"https://vk.com/kremlinmuseums";"";"37.617183";"55.751401";"Культура / Искусство / Религия";"Музеи, Интересные здания"
"546";"Государственный центральный театральный музей им. Бахрушина А.А., Творческая мастерская театрального художника Боровского Д.Л.";"Москва";"Большой Афанасьевский переулок, 3 ст3";"119019";="+74994847777, 88007777484, +74956914019";"";"http://www.gctm.ru";"https://vk.com/bahrushinmuseum";"";"37.596975";"55.745266";"Культура / Искусство / Религия";"Музеи, Художественные мастерские"
"547";"Музеи наукограда Королёв, музейное объединение";"Королёв";"Марины Цветаевой, 15";"141075";="+74955166066, +74955199948";"";"http://museumkorolev.ru";"https://vk.com/mosregtoday";"";"37.873461";"55.924747";"Культура / Искусство / Религия";"Музеи"
"548";"Музей-Диорама Бородинского Сражения";"Химки";"Горького, 2";"141421";="";"";"";"";"";"37.299818";"55.951219";"Культура / Искусство / Религия";"Музеи"
"549";"Дача, музейно-выставочный центр";"Москва";"Союзный проспект, 15а";"111396";="+74953035783, +74953031514, +74953010348, +74956085221";"";"http://naive-museum.ru";"";"";"37.813582";"55.749952";"Культура / Искусство / Религия";"Музеи"
"550";"Московский музей современного искусства, Склад";"Москва";"Брянская, 2";"121059";="+74956906870, +74992403146";"";"http://www.mmoma.ru";"https://vk.com/id77591204";"";"37.564305";"55.744792";"Культура / Искусство / Религия";"Музеи"
"551";"Буратино-Пиноккио, детский музей";"Москва";"2-я Парковая улица, 18";"105037";="+74991640576, +79160871223";"";"http://domskazok.su";"";"";"37.781539";"55.791145";"Культура / Искусство / Религия";"Музеи"
"552";"Музей морского флота";"Москва";"Большая Ордынка, 19 ст1";"115035";="+74959519450";"";"http://mmflota.ru";"";"";"37.625641";"55.741858";"Культура / Искусство / Религия";"Музеи"
"553";"Музей Ракетных Войск Стратегического Назначения";"пос. Власиха";"Маршала Жукова, 40";"143010";="+74955987186, +74955987001";"";"";"";"";"37.188899";"55.687009";"Культура / Искусство / Религия";"Музеи"
"554";"Рот Фронт, музей кондитерского комбината";"Москва";"2-й Новокузнецкий переулок, 13/15";"115184";="+74959512580";"";"";"";"";"37.632124";"55.734061";"Культура / Искусство / Религия";"Музеи"
"555";"Музей-дача Маяковского";"Пушкино";"Акулова Гора, 7";"141206";="+79164191334, +79162277219, +79039735566";"";"http://акуловагора.рф";"https://vk.com/dachamayakovskogo";"";"37.814051";"56.011636";"Культура / Искусство / Религия";"Музеи"
"556";"Государственный музей истории российской литературы им. В.И. Даля";"Москва";"Зубовский бульвар, 15";"119021";="+74956955308, +74956954494";"";"http://goslitmuz.ru";"https://vk.com/literaturemuseum";"";"37.591928";"55.735938";"Культура / Искусство / Религия";"Музеи"
"557";"По сусекам, музей русского быта";"Москва";"Берсеневская набережная, 18-20-22 ст2";"119072";="+79166764368";"";"http://posusecam.ru";"https://vk.com/posusecam_museum";"";"37.610603";"55.743762";"Культура / Искусство / Религия";"Музеи"
"558";"Музей хлеба";"Москва";"Измайловское шоссе, 73ж";"105187";="+74952155437";"";"http://www.kremlin-izmailovo.com/muzei/muzey-hleba";"";"";"37.751589";"55.794481";"Культура / Искусство / Религия";"Музеи"
"559";"Дом-музей А.И. Герцена";"Москва";"переулок Сивцев Вражек, 27";"119002";="+74992415859";"";"http://goslitmuz.ru/ru/herzen-museum";"";"";"37.591709";"55.747142";"Культура / Искусство / Религия";"Музеи, Интересные здания"
"560";"Дом-музей поэта Андрея Белого";"Балашиха";"улица Пушкинская, 48а";"143982";="+74955226590";"";"http://dombelogo.ru";"";"";"37.949422";"55.753819";"Культура / Искусство / Религия";"Музеи"
"561";"Очаково, музей традиционных русских напитков";"Москва";"Рябиновая улица, 44";"121471";="+74957853907";"";"http://ochakovo.ru/ekskursii/";"";"";"37.434946";"55.675661";"Культура / Искусство / Религия";"Музеи"
"562";"Музей Жостовской фабрики декоративной росписи";"д. Жостово";"улица Дивная, 15";"141036";="+74959813989";"";"http://zhostovo.ru";"https://vk.com/zhostovskayafabrika";"";"37.644954";"56.00661";"Культура / Искусство / Религия";"Музеи"
"563";"Музей отечественной военной истории";"д. Падиково";"Конная, 15а";"143582";="+79296611849";"";"";"";"";"36.976831";"55.82343";"Культура / Искусство / Религия";"Музеи"
"564";"Чайникландия, музей удивительных чайников";"Москва";"улица Винокурова, 7/5 к3";"117449";="+79852442804";"";"http://teapotland.ru";"https://vk.com/teapotland";"";"37.587414";"55.688856";"Культура / Искусство / Религия";"Музеи, Детские / подростковые клубы, Сувениры, Посуда, Продажа чая"
"565";"Государственный музей архитектуры им. А.В. Щусева, Аптекарский приказ";"Москва";"Староваганьковский переулок, 5/25 ст19";"119019";="+74956912109";"";"http://muar.ru";"https://vk.com/archmuseum";"";"37.607575";"55.752109";"Культура / Искусство / Религия";"Музеи"
"566";"Кутузовская изба, музей";"Москва";"Кутузовский проспект, 38 ст2";"121170";="+74991481967";"";"http://www.1812panorama.ru";"https://vk.com/izbakutuzova";"";"37.523161";"55.739714";"Культура / Искусство / Религия";"Музеи"
"567";"Коломенский краеведческий музей";"Коломна";"Лажечникова, 15";"140400";="+74966185950";"";"http://www.kolomnamuzej.ru";"https://vk.com/kolomnamuz";"";"38.754764";"55.105097";"Культура / Искусство / Религия";"Музеи"
"568";"Военно-технический музей";"с. Ивановское";"село Ивановское, вл1";"142432";="+79169582559, +79169582875";"";"http://гвтм.рф";"https://vk.com/gvtmuz";"";"38.290374";"56.033215";"Культура / Искусство / Религия";"Музеи"
"569";"Мемориальный музей-квартира С.В. Образцова";"Москва";"Глинищевский переулок, 5/7";"125009";="+74956504369";"";"http://puppet.ru";"";"";"37.611382";"55.763777";"Культура / Искусство / Религия";"Музеи"
"570";"ЕКАТЕРИНА, фонд культуры";"Москва";"улица Кузнецкий Мост, 21/5";"107031";="+74956215522";"";"http://www.ekaterina-foundation.ru";"https://vk.com/fond_ekaterina";"";"37.628157";"55.762537";"Культура / Искусство / Религия";"Художественные выставки / Галереи, Музеи"
"571";"Государственный музей животноводства им. Е.Ф. Лискуна";"Москва";"Лиственничная аллея, 14";"127434";="+74999762954, +74999763870";"";"http://museum.timacad.ru/253-2/";"https://vk.com/liskun_museum";"";"37.566434";"55.836015";"Культура / Искусство / Религия";"Музеи"
"572";"Музей деревянной игрушки, Люблино";"Москва";"Краснодонская улица, 39";"109382";="+79261446964, +79266944641";"";"http://kustari.net";"";"";"37.749599";"55.67374";"Культура / Искусство / Религия";"Музеи, Курсы творчества и рукоделия для взрослых, Художественные мастерские"
"573";"НПП Звезда, музей";"рп. Томилино";"Гоголя, 39";"140070";="+74955573388";"";"";"";"";"37.94977";"55.664678";"Культура / Искусство / Религия";"Музеи"
"574";"Музей-квартира В.И. Немировича-Данченко";"Москва";"Глинищевский переулок, 5/7";"125009";="+74956505391";"";"http://museummhat.ru";"https://vk.com/mxatmuseum";"";"37.611149";"55.763764";"Культура / Искусство / Религия";"Музеи"
"575";"Музей-квартира В.Э. Мейерхольда, Государственный центральный театральный музей им. Бахрушина А.А.";"Москва";"Брюсов переулок, 12";"125009";="";"";"http://www.gctm.ru";"https://vk.com/bahrushinmuseum";"";"37.609975";"55.760105";"Культура / Искусство / Религия";"Музеи"
"576";"Жуковский музей истории покорения неба";"Жуковский";"улица Чкалова, 41";"140181";="+74955566950";"";"http://zhukmuseum.mya5.ru";"https://vk.com/public51511458";"";"38.123231";"55.597875";"Культура / Искусство / Религия";"Музеи"
"577";"Научно-исследовательский испытательный центр подготовки космонавтов им. Ю.А. Гагарина";"пос. Звездный городок";"Звёздный городок посёлок, вл11";"141160";="+74955265626, +74955263842, +74955263407, +74955263533, +74955265351";"";"http://www.gctc.ru";"";"";"38.115798";"55.875703";"Культура / Искусство / Религия";"Музеи"
"578";"Музей Российской фотографии";"Коломна";"Исаева, 19";"140400";="+79030014865, +74966121386";"";"http://mrf.museumart.ru";"";"";"38.761691";"55.106779";"Культура / Искусство / Религия";"Музеи"
"579";"Музей Николая Второго";"Москва";"Токмаков переулок, 21/2 ст1";"105066";="+79153001002, +79169828037";"";"";"";"";"37.670715";"55.765545";"Культура / Искусство / Религия";"Музеи"
"580";"Музей истории молока и глазированного сырка";"";"Ельдигинское шоссе, вл2";"";="";"";"http://museisyrka.ru";"https://vk.com/museisyrka";"";"37.832482";"56.091445";"Культура / Искусство / Религия";"Музеи"
"581";"Центральный музей ВОВ 1941-1945 гг., Экспозиция вооружения, военной техники и инженерных сооружений";"Москва";"Братьев Фонченко, 16в";"121170";="+74994498181";"";"http://victorymuseum.ru";"https://vk.com/muzeypobedy";"";"37.508358";"55.729096";"Культура / Искусство / Религия";"Музеи"
"582";"Большая каменная оранжерея, музей";"Москва";"Юности, 2 ст7";"111402";="+74953700150";"";"http://kuskovo.ru";"https://vk.com/museum_kuskovo";"";"37.8105";"55.738159";"Культура / Искусство / Религия";"Музеи, Интересные здания"
"583";"Парк неба, музей";"Москва";"Садовая-Кудринская улица, 5 ст1";"123242";="+74952217690";"";"http://www.planetarium-moscow.ru";"";"";"37.583968";"55.761351";"Культура / Искусство / Религия";"Музеи"
"584";"Музей истории русского платка и шали";"Павловский Посад";"Большая Покровская, 37";"142500";="+74964322519";"";"http://muzeyplatka.mo.muzkult.ru/";"";"";"38.653247";"55.771149";"Культура / Искусство / Религия";"Музеи"
"585";"Центральный музей древнерусской культуры и искусства им. Андрея Рублева, Лекторий";"Москва";"Андроньевская площадь, 8";"105120";="+74956781489";"";"http://www.rublev-museum.ru";"https://vk.com/museum_andrey_rublev";"";"37.671824";"55.748154";"Культура / Искусство / Религия";"Музеи"
"586";"Музей городского хозяйства";"Коломна";"Лазарева, 2а";"140400";="+74966125619";"";"";"";"";"38.750726";"55.104699";"Культура / Искусство / Религия";"Музеи"
"587";"Музей-мастерская народного художника СССР Д.А. Налбандяна, г. Москва";"Москва";"Тверская улица, 8 к2";"125009";="+74956292872, +74956906870, +79669056823";"";"http://www.museum.ru";"";"";"37.610668";"55.762601";"Культура / Искусство / Религия";"Музеи"
"588";"Щёлковский историко-краеведческий музей";"Щёлково";"Советская, 54";"141100";="+74965665280, +74965664630";"";"http://museum-schel.ru";"https://vk.com/club106703532";"";"37.99289";"55.920153";"Культура / Искусство / Религия";"Музеи"
"589";"Зал Воинской Славы, музей военной истории";"рп. Селятино";"Теннисная улица, 48";"143345";="+74963415112, +74963429109";"";"http://bibsel.ru";"https://vk.com/zvsmuseum";"";"36.983226";"55.51109";"Культура / Искусство / Религия";"Музеи"
"590";"Мемориальный кабинет-музей Маршала Советского Союза Г.К. Жукова";"Москва";"улица Знаменка, 19";"119019";="+74956962298";"";"";"";"";"37.603977";"55.750421";"Культура / Искусство / Религия";"Музеи, Лектории"
"591";"Мемориальная квартира Святослава Рихтера";"Москва";"улица Большая Бронная, 2/6";"123104";="+74956958346";"";"http://sviatoslav-richter.ru";"";"";"37.597562";"55.759996";"Культура / Искусство / Религия";"Музеи"
"592";"Музей-квартира А.Б. Гольденвейзера";"Москва";"Тверская улица, 17";"125009";="+74956056515,,,1174";"";"http://music-museum.ru";"https://vk.com/musicmusem_ru";"";"37.605673";"55.764143";"Культура / Искусство / Религия";"Музеи"
"593";"Музей Императорского православного палестинского общества";"Москва";"улица Забелина, 3 ст2";"101000";="+74957975595";"";"http://ippo.ru";"";"";"37.638158";"55.755076";"Культура / Искусство / Религия";"Музеи"
"594";"Музей Ю.В. Никулина";"Москва";"улица Маросейка, 7/8 ст1";"101000";="+74956284411";"";"http://www.fond-nikulin.ru";"";"";"37.633215";"55.757916";"Культура / Искусство / Религия";"Музеи"
"595";"Центральный музей таможенной службы";"Москва";"Комсомольская площадь, 1 ст1";"107140";="+74952763881";"";"http://museum.customs.gov.ru";"";"";"37.654182";"55.775672";"Культура / Искусство / Религия";"Музеи"
"596";"Государственный центральный музей современной истории России, Экспозиционно-мемориальный отдел Подпольная типография 1905-1906 гг.";"Москва";"Лесная, 55 ст1";"127055";="+74956995217, +74992516943";"";"http://www.sovrhistory.ru/subsidiarys/55548546925b59736836107d";"https://vk.com/sovr.history";"";"37.592986";"55.78188";"Культура / Искусство / Религия";"Музеи"
"597";"Музей чизкейка";"Москва";"Кочновский проезд, 4 к2";"125319";="+79263993425";"";"http://feina.ru/cheesecake-museum";"https://vk.com/cheesecakemuseum";"";"37.54605";"55.806445";"Культура / Искусство / Религия";"Музеи, Художественные выставки / Галереи, Аренда площадок для культурно-массовых мероприятий"
"598";"Царицыно, Малый дворец";"Москва";"Дольская улица, 1 ст7";"115569";="+74953224433";"";"http://tsaritsyno-museum.ru";"https://vk.com/tsaritsynomuseum";"";"37.680614";"55.615366";"Культура / Искусство / Религия";"Музеи, Интересные здания"
"599";"Усадьба кузнеца, дом-музей";"Москва";"проспект Андропова, 39 ст75";"115487";="+74996152768";"";"http://www.mgomz.ru";"https://vk.com/mgomz";"";"37.671163";"55.674794";"Культура / Искусство / Религия";"Музеи"
"600";"Передние ворота, музей";"Москва";"проспект Андропова, 39 ст3";"115487";="+74996152768, +74996152771";"";"http://mgomz.ru";"https://vk.com/mgomz";"";"37.669696";"55.66786";"Культура / Искусство / Религия";"Музеи"
"601";"Центральный музей радиолюбительства им. Э.Т. Кренкеля";"Москва";"Рязанский проспект, 8 ст2";"109428";="+79169406615";"";"http://www.rrl-museum.cqham.ru";"";"";"37.755498";"55.726702";"Культура / Искусство / Религия";"Музеи"
"602";"Учебный художественный музей им. И.В. Цветаева";"Москва";"Чаянова, 15";"125047";="+74999734313";"";"http://art-cvetaev.ru";"";"";"37.595755";"55.776617";"Культура / Искусство / Религия";"Музеи"
"603";"Локомотив, музей";"Москва";"Большая Черкизовская, вл125 ст1";"107553";="+74955003109, +74955003103,,,2200";"";"http://stadium.fclm.ru";"https://vk.com/fclokomotiv";"";"37.741448";"55.804506";"Культура / Искусство / Религия";"Музеи"
"604";"Усадьба купцов Лажечниковых";"Коломна";"улица Октябрьской революции, 194а";"140400";="+74966186143";"";"";"https://vk.com/club152710371";"";"38.753777";"55.101405";"Культура / Искусство / Религия";"Музеи, Интересные здания"
"605";"НАЗАД В СССР, музей";"Звенигород";"Московская, 7/9";"143180";="+79057066075";"";"http://www.ussrmuseum.ru";"";"";"36.852379";"55.730507";"Культура / Искусство / Религия";"Музеи"
"606";"Коломенский патефон, музей";"Коломна";"Лажечникова, 3а";"140400";="+79199908076";"";"http://коломенскийпатефон.рф";"";"";"38.754914";"55.103362";"Культура / Искусство / Религия";"Музеи"
"607";"Голландский домик царя Петра I, музей";"Москва";"проспект Андропова, 39 ст83";"115487";="+74996152768, +74996152771";"";"http://mgomz.ru";"https://vk.com/mgomz";"";"37.679513";"55.672037";"Культура / Искусство / Религия";"Музеи"
"608";"Музей космонавтики им. Ю.А. Гагарина";"пос. Звездный городок";"Звёздный городок посёлок, вл11";"141160";="";"";"http://zvezdnyigorodok.ru/museum";"";"";"38.115878";"55.875927";"Культура / Искусство / Религия";"Музеи"
"609";"Лукойл, музей";"Москва";"Сретенский бульвар, 9/2 ст1";"107045";="+79688021040";"";"http://museum.lukoil.ru/ru";"";"";"37.635118";"55.76693";"Культура / Искусство / Религия";"Музеи"
"610";"10 зайцев, арт-пространство";"Коломна";"Зайцева, 10";"140400";="+79690501010";"";"";"https://vk.com/10zaycev";"";"38.763759";"55.106281";"Культура / Искусство / Религия";"Музеи, Кондитерские изделия"
"611";"Избушка Бабы-Яги, музей";"Москва";"Измайловское шоссе, 73ж";"105187";="";"";"http://www.kremlin-izmailovo.com/muzei/izbushka-baby-yagi";"https://vk.com/kremlin_izmailovo";"";"37.751826";"55.794246";"Культура / Искусство / Религия";"Музеи"
"612";"Патриаршие палаты";"Москва";"Кремль, 1л";"109012";="+74956970349";"";"http://www.kreml.ru";"https://vk.com/kremlinmuseums";"";"37.616753";"55.751235";"Культура / Искусство / Религия";"Музеи, Интересные здания"
"613";"Русские валенки, музей";"Москва";"2-й Кожевнический переулок, 12 ст10";"115114";="+79104025913";"";"http://www.gorizont.org";"";"";"37.648762";"55.725791";"Культура / Искусство / Религия";"Музеи"
"614";"Бабья доля. Пряла, ткала, вышивала, музей";"Коломна";"Посадская, 35";"140415";="+79169416061";"";"";"https://vk.com/public188985656";"";"38.779148";"55.10537";"Культура / Искусство / Религия";"Музеи"
"615";"Современный музей спорта";"Москва";"Авиационная улица, 68 к5";"123182";="+74959425001, +79167985825";"";"http://www.smsport.ru";"https://vk.com/smsport";"";"37.453788";"55.810496";"Культура / Искусство / Религия";"Музеи"
"616";"Усадьба Мураново, объединенный мемориально-художественный музей";"с. Федоскино";"Лукутинская, ст7";"141052";="+79646452801";"";"http://www.folkartmo.ru";"https://vk.com/id321425699";"";"37.582748";"56.055491";"Культура / Искусство / Религия";"Музеи"
"617";"Путевой дворец, музейно-выставочный центр";"Солнечногорск";"Красная улица, 82";"141506";="+74962641577, +74962642675, +74959940481";"";"http://putevoi-dvorec.ru";"";"";"36.979894";"56.187006";"Культура / Искусство / Религия";"Музеи"
"618";"Ленино-Снегиревский военно-исторический музей";"д. Ленино";"Волоколамское шоссе 41 км, 1";"143590";="+74959927839, +74983166284";"";"http://ленино-снегиревский-музей.рф";"";"";"37.052121";"55.881447";"Культура / Искусство / Религия";"Музеи, Интересные здания"
"619";"Музей автомобильных историй";"Москва";"улица Коптевская, 71";"125239";="+74952867254";"";"http://autostory.pro";"https://vk.com/autostorypro";"";"37.518817";"55.831988";"Культура / Искусство / Религия";"Музеи, Детские игровые залы / Игротеки, Кулинарные курсы"
"620";"Музей Русского Афона";"Москва";"1-й Хвостов переулок, 3 ст1";"119180";="+74956980558, +74992300787, +79776096004";"";"";"";"";"37.618345";"55.734932";"Культура / Искусство / Религия";"Музеи"
"621";"Музей Зеленограда";"Зеленоград";"улица Гоголя, 11в";"124575";="+74997314512, +74997322122";"";"http://www.zelmuseum.ru";"https://vk.com/zelmuseum";"";"37.171769";"55.98627";"Культура / Искусство / Религия";"Музеи"
"622";"Мемориальная квартира Андрея Белого";"Москва";"улица Арбат, 55";"119002";="+74992417702, +74992418528";"";"";"";"";"37.585684";"55.747491";"Культура / Искусство / Религия";"Музеи"
"623";"Музейно-выставочный комплекс";"рп. Малаховка";"Шоссейная, 40 ст2";"140032";="+74955014244";"";"http://mvkmuzey.ru";"https://vk.com/malmus";"";"38.009041";"55.638981";"Культура / Искусство / Религия";"Музеи"
"624";"Мемориальный музей-квартира им. А.М. Горького";"Москва";"улица Поварская, 25а ст1";"121069";="+74956905130, +74956973241";"";"http://museum.imli.ru";"";"";"37.589324";"55.755927";"Культура / Искусство / Религия";"Музеи"
"625";"Белый Воробей, музей";"Москва";"1-я Дубровская улица, 5а";"109044";="+79055057407";"";"http://belvorobey.ru";"https://vk.com/belvorobey";"";"37.671139";"55.726785";"Культура / Искусство / Религия";"Музеи"
"626";"МедиаLAB, музей электронной книги";"Москва";"Большая Черкизовская, 4 к1";"107061";="+74999226677,,,108";"";"http://www.rgub.ru";"https://vk.com/rgubru";"";"37.718093";"55.795981";"Культура / Искусство / Религия";"Музеи"
"627";"Краеведческий музей г. Железнодорожного";"Балашиха";"Новая, 18";"143986";="+74955226590, +79256555880";"";"http://museum-obiralovka.ru";"https://vk.com/id423046032";"";"38.016719";"55.748038";"Культура / Искусство / Религия";"Музеи"
"628";"Выставочный зал музейно-экспозиционного фонда Банка России";"Москва";"улица Кузнецкий Мост, 9/10";"107031";="+74957714180";"";"http://www.cbr.ru/bankmuseum";"";"";"37.620953";"55.762285";"Культура / Искусство / Религия";"Музеи"
"629";"Музей экслибриса и миниатюрной книги";"Москва";"Пушечная, 7/5 ст2";"107031";="+74956218221";"";"http://www.knigoluby.ru";"";"";"37.62303";"55.760862";"Культура / Искусство / Религия";"Музеи"
"630";"Павлово-Посадский историко-художественный музей";"Павловский Посад";"Большая Покровская, 38";"142502";="+74964321330, +74964322100";"";"http://glav.ppmvk.ru";"https://vk.com/club49442599";"";"38.654279";"55.773849";"Культура / Искусство / Религия";"Музеи"
"631";"Арт Деко, музей";"Москва";"Лужнецкая набережная, 2/4 ст4";"119270";="";"";"http://www.artdecomuseum.ru";"https://vk.com/artdecomuseum";"";"37.574008";"55.715196";"Культура / Искусство / Религия";"Музеи"
"632";"Музей книги Российской государственной библиотеки";"Москва";"улица Воздвиженка, 3/5 ст4";"119019";="+74995570470,,,2672, +74956228672";"";"http://rsl.ru";"https://vk.com/leninka_ru";"";"37.608456";"55.752178";"Культура / Искусство / Религия";"Музеи"
"633";"Эйнштейн.дети";"Москва";"Протопоповский переулок, 5";"129090";="+79269301222";"";"http://эйнштейн.дети";"https://vk.com/einstain_xl_moskva";"";"37.636798";"55.78044";"Культура / Искусство / Религия";"Музеи"
"634";"Уголок дедушки Дурова, музей";"Москва";"Дурова, 2 ст1";"129090";="+74993919294, +74956313047";"";"http://ugolokdurova.ru";"";"";"37.621074";"55.779526";"Культура / Искусство / Религия";"Музеи"
"635";"Музей истории района Внуково";"Москва";"улица Большая Внуковская, 6";"119027";="";"";"";"";"";"37.294838";"55.613236";"Культура / Искусство / Религия";"Музеи"
"636";"Музей Императора Николая ll";"Москва";"Токмаков переулок, 21/2 ст1";"105066";="+79166176183, +79255176917";"";"http://museyfondn2.ru";"https://vk.com/public209845581";"";"37.670715";"55.765545";"Культура / Искусство / Религия";"Музеи"
"637";"Музей истории евреев в России";"Москва";"Петровско-Разумовская аллея, 10 к3";"127083";="+74956564571";"";"http://www.mievr.ru";"https://vk.com/mievr";"";"37.560507";"55.793688";"Культура / Искусство / Религия";"Музеи"
"638";"Музей-усадьба Я.Д. Брюса";"д. Корпуса";"Санаторская, 12 ст1";"141140";="+79163025008";"";"http://usadba-brusa.ru";"";"";"38.222687";"55.879037";"Культура / Искусство / Религия";"Музеи"
"639";"Музей декоративно-прикладного и промышленного искусства, МГХПА им. С.Г. Строганова";"Москва";"шоссе Волоколамское, 9 ст1";"125080";="+74991581568";"";"http://mghpu.ru";"";"";"37.49859";"55.807622";"Культура / Искусство / Религия";"Музеи"
"640";"Дом сказки Лукоморье, музей";"Коломна";"Комсомольская, 7а";"140415";="+79859907050, +79859638605";"";"";"https://vk.com/club183386157";"";"38.765009";"55.102144";"Культура / Искусство / Религия";"Музеи"
"641";"М.И.Р. водки, музей истории русской водки";"Москва";"Рублёвское шоссе, 30 к1";"121609";="+79852268808";"";"http://mirvodki.com";"";"";"37.420118";"55.74709";"Культура / Искусство / Религия";"Музеи"
"642";"Музей акварели";"Москва";"Академика Варги, 15";"117133";="+74955315555";"";"http://mvk.academy-andriaka.ru/exhibitions/muzey-akvareli/";"https://vk.com/akademiaakvareli";"";"37.48102";"55.634363";"Культура / Искусство / Религия";"Музеи"
"643";"Усадьба Фряново, историко-краеведческий музей";"рп. Фряново";"площадь Ленина, 2";"141146";="+74965635340, +79269679787";"";"http://fryanovomuseum.ru";"https://vk.com/fryanovo_museum";"";"38.446248";"56.13385";"Культура / Искусство / Религия";"Музеи"
"644";"Музей русской гармоники А. Мирека";"Москва";"Тверская-Ямская 2-я, 18";"125047";="+74992516730";"";"http://scriabinmuseum.ru";"https://vk.com/scriabinmuseum";"";"37.594649";"55.771782";"Культура / Искусство / Религия";"Музеи"
"645";"Армянский музей Москвы и культуры наций";"Москва";"проспект Мира, 33 к1";"129110";="+74957976704";"";"http://www.armmuseum.ru";"https://vk.com/armmuseum";"";"37.632006";"55.780441";"Культура / Искусство / Религия";"Музеи"
"646";"Музей истории Московской городской психиатрической больницы им. Н.А. Алексеева";"Москва";"Загородное шоссе, 2 ст1в";"117152";="+74959521114,,,16901";"";"http://www.pkb1.com";"https://vk.com/club140386686";"";"37.605701";"55.698576";"Культура / Искусство / Религия";"Музеи"
"647";"Велий, центр народного прикладного творчества";"Москва";"Первомайская, 7 к1";"105037";="+79663425453";"";"http://weliycenter.ru";"https://vk.com/velii";"";"37.773989";"55.792108";"Образование / Работа / Карьера";"Курсы творчества и рукоделия для взрослых, Художественные мастерские, Музеи, Художественные товары, Товары для творчества и рукоделия"
"648";"Музей писем А.П. Чехова";"Чехов";"Чехова, 4а ст1";"142301";="+74967252799";"";"http://chekhov-melikhovo.com";"https://vk.com/chekhovmuseum";"";"37.486569";"55.147716";"Культура / Искусство / Религия";"Музеи"
"649";"Память, галерея-музей";"Москва";"Покровский бульвар, 16-18 ст4-4а";"109028";="+79259241901";"";"http://memorythegallery.vsite.biz";"https://vk.com/memorythegallery";"";"37.646789";"55.753213";"Культура / Искусство / Религия";"Музеи"
"650";"Музей Всероссийского института авиационных материалов";"Москва";"улица Радио, 17 к11";"105005";="+74992638765";"";"http://museum.viam.ru";"https://vk.com/club131372503";"";"37.676228";"55.763682";"Культура / Искусство / Религия";"Музеи"
"651";"Музей боевой славы 109-го штурмового авиаполка 6-ой гвардейской дивизии";"Москва";"улица Милашенкова, 9Б";"127322";="+74956106174, +74956100547";"";"";"";"";"37.582798";"55.823511";"Культура / Искусство / Религия";"Музеи"
"652";"Усадьба пасечника, музей";"Москва";"проспект Андропова, 39 ст33";"115487";="+74996152768, +74996152771";"";"http://mgomz.ru";"https://vk.com/mgomz";"";"37.664529";"55.668207";"Культура / Искусство / Религия";"Музеи"
"653";"Музей кукол Barbie Татьяны Тузовой";"Москва";"Минская, 1г к4";"119285";="+79858872377";"";"http://tuzova.com";"";"";"37.500774";"55.712796";"Культура / Искусство / Религия";"Музеи"
"654";"Дом-музей семьи А.И. Морозова";"Ногинск";"Краснослободская, 5";"142403";="+79269149790";"";"http://дом-музей-морозова.рф";"https://vk.com/museummorozov";"";"38.464902";"55.880885";"Культура / Искусство / Религия";"Музеи"
"655";"Раменский историко-художественный музей";"Раменское";"Воровского, 7";"140105";="+74964631365, +74964634453";"";"http://ramyz.ru";"https://vk.com/rammuz";"";"38.209273";"55.572523";"Культура / Искусство / Религия";"Музеи, Художественные выставки / Галереи"
"656";"Чаепитие в Мытищах, экологический центр";"Мытищи";"Водопроводная аллея, 1 ст2";"141009";="+74953238885";"";"http://losinyiostrov.ru";"";"";"37.793855";"55.897757";"Культура / Искусство / Религия";"Музеи, Аренда беседок"
"657";"Долгопрудненский историко-художественный музей";"Долгопрудный";"Циолковского, 34";"141700";="+74986851200, +74955764236";"";"http://dolgoprudnymuseum.ru";"";"";"37.513298";"55.940711";"Культура / Искусство / Религия";"Музеи"
"658";"Музей истории подводного флота России";"Москва";"Коровинское шоссе, 24а";"125412";="+79031736054";"";"";"";"";"37.521529";"55.882243";"Культура / Искусство / Религия";"Музеи"
"659";"Мемориальный музей-квартира К.А. Тимирязева, г. Москва";"Москва";"Романов переулок, 4 ст2";"125009";="+74956958064";"";"http://museum.timacad.ru/мемориальный-музей-квартира-тимиряз/";"";"";"37.609696";"55.754057";"Культура / Искусство / Религия";"Музеи"
"660";"Музей Дулевского фарфорового завода";"Ликино-Дулёво";"Ленина, 15";"142670";="+79269112951";"";"http://dfz.ru";"";"";"38.958301";"55.702528";"Культура / Искусство / Религия";"Музеи"
"661";"Матрёшка и деревянные игрушки, музей-мастерская";"Москва";"проезд Сокольнического Круга, 9";"107113";="+79264321888";"";"http://mmmmatreshka.ru";"https://vk.com/mmmmatreshka";"";"37.67874";"55.794126";"Культура / Искусство / Религия";"Музеи"
"662";"Дом-музей В.В. Тихонова";"Павловский Посад";"улица Тихонова, 66";"142500";="+79164629880";"";"";"https://vk.com/public169984529";"";"38.660923";"55.777762";"Культура / Искусство / Религия";"Музеи"
"663";"Мемориальный музей-кабинет академика П.Л. Капицы";"Москва";"Косыгина, 2 ст20";"119334";="+74991373230";"";"http://www.kapitza.ras.ru/museum";"";"";"37.573342";"55.709897";"Культура / Искусство / Религия";"Музеи"
"664";"Федоскино, музей миниатюрной живописи";"с. Федоскино";"село Федоскино, 33а";"141052";="+79164955700";"";"http://fedoskino.net";"";"";"37.583454";"56.055148";"Культура / Искусство / Религия";"Музеи"
"665";"Экспонариум, детский центр";"Истра";"улица Ново-Иерусалимская Набережная, 1";"143500";="+74983140239";"";"http://njerusalem.ru";"";"";"36.844322";"55.926683";"Культура / Искусство / Религия";"Музеи"
"666";"Пушкинский Краеведческий Музей";"Пушкино";"Московский проспект, 35а";"141207";="+74965320309, +74965351107";"";"http://museumpushkino.ru";"";"";"37.856137";"56.00672";"Культура / Искусство / Религия";"Музеи"
"667";"Дом самовара, музей";"Коломна";"Посадская, 11а";"140400";="+79152050775";"";"http://domsamovara.ru";"https://vk.com/domsamovara";"";"38.769419";"55.104467";"Культура / Искусство / Религия";"Музеи"
"668";"Музей истории полиграфии, книгоиздания и МГУП им. Ивана Федорова";"Москва";"Михалковская, 7";"125008";="+74991540853";"";"";"https://vk.com/polytech_media";"";"37.533242";"55.837574";"Культура / Искусство / Религия";"Музеи"
"669";"Музей-квартира Н.С. Голованова";"Москва";"Брюсов переулок, 7";"125009";="+74956056515,,,1176";"";"http://music-museum.ru";"https://vk.com/golovanov_museum";"";"37.605831";"55.758136";"Культура / Искусство / Религия";"Музеи"
"670";"Найти Бэнкси, выставка";"Москва";"проспект Мира (ВДНХ), 119 пав21";"129223";="+74996438238";"";"";"";"";"37.620273";"55.832472";"Культура / Искусство / Религия";"Художественные выставки / Галереи, Музеи"
"671";"Памятники деревянного зодчества, экспозиция";"Москва";"проспект Андропова, 39 ст63";"115487";="+74996150136";"";"http://mgomz.ru";"https://vk.com/mgomz";"";"37.677895";"55.673476";"Культура / Искусство / Религия";"Музеи"
"672";"Музей спортивной славы ЦСКА";"Москва";"Ленинградский проспект, 39 ст1";"125167";="+74956134316, +74956132543";"";"http://cska.ru";"";"";"37.5401";"55.79113";"Культура / Искусство / Религия";"Музеи"
"673";"Воробьёвы горы, эколого-просветительский центр";"Москва";"Андреевская набережная, 1 ст7";"119334";="+74952256592";"";"http://www.vorobyovy-gory.ru";"https://vk.com/ecocentervg";"";"37.577552";"55.712762";"Культура / Искусство / Религия";"Музеи"
"674";"Домодедовский историко-художественный музей";"Домодедово";"Каширское шоссе, 52";"142000";="+74967930006, +74967943104";"";"http://dom-museum.mo.muzkult.ru";"https://vk.com/public151621093";"";"37.766331";"55.436149";"Культура / Искусство / Религия";"Музеи"
"675";"Музейно-выставочный центр, г. Реутов";"Реутов";"Победы, 2";"143966";="+74955286410, +74955289187";"";"http://muzeumartreut.ru";"https://vk.com/club23261543";"";"37.860798";"55.760937";"Культура / Искусство / Религия";"Музеи"
"676";"Физическая кунсткамера, музей";"Троицк";"Октябрьский проспект, 9Б";"108840";="+79251724181";"";"http://fizkunst.ru";"https://vk.com/fizkunst";"";"37.295213";"55.475806";"Культура / Искусство / Религия";"Музеи"
"677";"Музей криптографии";"Москва";"улица Ботаническая, вл25 ст4";"127276";="";"";"http://cryptography-museum.ru";"https://vk.com/cryptography_museum";"";"37.597729";"55.830611";"Культура / Искусство / Религия";"Музеи"
"678";"Демиховский машиностроительный завод, выставочный центр";"д. Демихово";"Заводская улица, 19а";"142632";="+74964166722";"";"http://www.dmzavod.ru";"https://vk.com/dmzavod_ru";"";"38.882907";"55.798266";"Культура / Искусство / Религия";"Музеи"
"679";"Орехово-Зуевский историко-краеведческий городской музей";"Орехово-Зуево";"Клязьминский проезд, 7";"142601";="+74964247502, +74964246866";"";"http://ozmuseum.ru";"https://vk.com/ozmuseum";"";"38.999796";"55.813611";"Культура / Искусство / Религия";"Музеи"
"680";"Кадашевская слобода, музей";"Москва";"Кадашёвский тупик, 2 ст6";"115035";="+79258393051, +79175718020, +79104466277, +79251311906";"";"http://www.museumkadashi.com";"";"";"37.623036";"55.743088";"Культура / Искусство / Религия";"Музеи"
"681";"Общественный музей авиации и космонавтики";"Москва";"Домодедовская улица, 44";"115582";="+74956824222";"";"";"";"";"37.714873";"55.601293";"Культура / Искусство / Религия";"Музеи"
"682";"Музей космонавтики";"Москва";"1-я Останкинская улица, 28";"129515";="+74997502300,,,1016";"";"http://jivo.chat/2sY5UIoauC";"https://vk.com/kosmo_museum";"";"37.631946";"55.823293";"Культура / Искусство / Религия";"Музеи"
"683";"Мытищинский историко-художественный музей";"Мытищи";"Мира, 4";"141008";="+74955865298";"";"http://mytyshimuseum.ru";"https://vk.com/id418168403";"";"37.735468";"55.911303";"Культура / Искусство / Религия";"Музеи"
"684";"Музей истории Мосэнерго";"Москва";"улица Вавилова, 13 ст58";"117312";="+74959571957,,,2023, +74959571957,,,или, +74959571957,,,2024";"";"http://mosenergo-museum.ru";"https://vk.com/mosenergo_2015";"";"37.583347";"55.701242";"Культура / Искусство / Религия";"Музеи"
"685";"Живой музей народных искусств";"Москва";"Измайловское шоссе, 73ж";"105187";="+74952155437,,,2";"";"http://www.kremlin-izmailovo.com";"https://vk.com/zhivoymuseum";"";"37.751826";"55.794246";"Культура / Искусство / Религия";"Музеи"
"686";"Лесная сказка, музей";"Москва";"МКАД 36 Километр, 1в";"117628";="+74996433843";"";"http://mospriroda.ru/where_to_go/ekotsentry/ekologo_prosvetitelskiy_tsentr_lesnaya_skazka/";"https://vk.com/lesnayaskazka.moscow";"";"37.547525";"55.585201";"Культура / Искусство / Религия";"Музеи"
"687";"Музей Зураба Церетели";"пос. ДСК "Мичуринец"";"Лермонтова, 1";"108816";="+74957774859";"";"http://mmoma.ru";"";"";"37.323539";"55.650389";"Культура / Искусство / Религия";"Музеи"
"688";"Ногинский музейно-выставочный центр";"Ногинск";"площадь Бугрова, 2";"142400";="+74965141607";"";"http://noginsk-muzey.ru";"";"";"38.437107";"55.855869";"Культура / Искусство / Религия";"Музеи"
