"id";"name";"city_name";"geometry_name";"post_code";"phone";"email";"website";"vkontakte";"instagram";"lon";"lat";"category";"subcategory"
"1";"Мой бизнес, центр оказания услуг";"Фрязино";"Центральная улица, 10";"141195";="+74951090707";"";"http://invest.mosreg.ru/business_creation";"https://vk.com/moibizbiz";"";"38.046869";"55.955135";"Город / Власть";"МФЦ"
"2";"Мои документы, Тверской район";"Москва";"Настасьинский переулок, 7";"127006";="+74957777777";"";"http://md.mos.ru";"https://vk.com/mydocs_mos";"";"37.604929";"55.767677";"Город / Власть";"МФЦ"
"3";"Мои документы, Район Люблино";"Москва";"Люблинская улица, 53";"109387";="+74957777777";"";"http://md.mos.ru";"https://vk.com/mydocs_mos";"";"37.73698";"55.689928";"Город / Власть";"МФЦ"
"4";"Мои документы, Московский район";"Московский";"3-й микрорайон, 21";"108811";="+74957777777";"";"http://md.mos.ru/";"https://vk.com/mydocs_mos";"";"37.347428";"55.59783";"Город / Власть";"МФЦ"
"5";"Мои документы, Район Марьино";"Москва";"Люблинская улица, 100";"109369";="+74957777777";"";"http://md.mos.ru";"https://vk.com/mydocs_mos";"";"37.73868";"55.654549";"Город / Власть";"МФЦ"
"6";"Мои документы, Район Лефортово; Нижегородский район";"Москва";"проезд Завода Серп и Молот, 10";"111250";="+74957777777";"";"http://md.mos.ru";"https://vk.com/mydocs_mos";"";"37.700994";"55.753116";"Город / Власть";"МФЦ"
"7";"Мои документы, Район Раменки";"Москва";"Мичуринский проспект, вл31";"119607";="+74957777777";"";"http://md.mos.ru";"https://vk.com/mydocs_mos";"";"37.495675";"55.694792";"Город / Власть";"МФЦ"
"8";"Мои документы, Район Строгино";"Москва";"Строгинский бульвар, 28";"123592";="+74957777777";"";"http://md.mos.ru";"https://vk.com/mydocs_mos";"";"37.404122";"55.802923";"Город / Власть";"МФЦ"
"9";"Мои документы, Район Замоскворечье";"Москва";"Бахрушина, 13";"115054";="+74957777777";"";"http://md.mos.ru";"https://vk.com/mydocs_mos";"";"37.635468";"55.735588";"Город / Власть";"МФЦ"
"10";"Мои документы, Флагманский центр";"Москва";"Пресненская набережная, 2";"123112";="+74957777777";"";"http://md.mos.ru";"https://vk.com/mydocs_mos";"";"37.53665";"55.748189";"Город / Власть";"МФЦ"
"11";"Мои документы, Район Некрасовка";"Москва";"улица Маресьева, 1";"111677";="+74957777777";"";"http://md.mos.ru";"https://vk.com/mydocs_mos";"";"37.930091";"55.707507";"Город / Власть";"МФЦ"
"12";"Мои документы, Останкинский район; Район Марьина Роща";"Москва";"17-й Марьиной Рощи проезд, 4 к1";"127521";="+74957777777";"";"http://md.mos.ru";"https://vk.com/mydocs_mos";"";"37.612065";"55.809334";"Город / Власть";"МФЦ"
"13";"Мои документы, Южнопортовый район";"Москва";"3-й Крутицкий переулок, 11";"109044";="+74957777777";"";"http://md.mos.ru";"https://vk.com/mydocs_mos";"";"37.666077";"55.731322";"Город / Власть";"МФЦ"
"14";"Мои документы, район Кунцево; Можайский район";"Москва";"Маршала Неделина, 40";"121471";="+74957777777";"";"http://md.mos.ru";"https://vk.com/mydocs_mos";"";"37.42267";"55.726155";"Город / Власть";"МФЦ"
"15";"Мои документы, центр государственных услуг";"Москва";"Миклухо-Маклая, 18 к2";"117437";="+74957777777";"";"http://md.mos.ru";"https://vk.com/mydocs_mos";"";"37.519065";"55.645237";"Город / Власть";"МФЦ"
"16";"Мои документы, Район Черёмушки";"Москва";"улица Новочерёмушкинская, 55 к2";"117418";="+74957777777";"";"http://md.mos.ru";"https://vk.com/mydocs_mos";"";"37.569797";"55.670797";"Город / Власть";"МФЦ"
"17";"Мои документы, Басманный район";"Москва";"Центросоюзный переулок, 13 ст3";"105082";="+74957777777";"";"http://md.mos.ru";"https://vk.com/mydocs_mos";"";"37.685532";"55.780226";"Город / Власть";"МФЦ"
"18";"Мои документы, Рязанский район";"Москва";"1-я Новокузьминская улица, 10";"109377";="+74957777777";"";"http://md.mos.ru";"https://vk.com/mydocs_mos";"";"37.784888";"55.715971";"Город / Власть";"МФЦ"
"19";"Мои документы, Красносельский район";"Москва";"Верхняя Красносельская, 3 к2";"107140";="+74957777777";"";"http://md.mos.ru";"https://vk.com/mydocs_mos";"";"37.66007";"55.786075";"Город / Власть";"МФЦ"
"20";"Мои документы, Флагманский офис САО";"Москва";"Ленинградское шоссе, 16а ст4";"125171";="+74957777777";"";"http://md.mos.ru/";"https://vk.com/mydocs_mos";"";"37.49624";"55.823173";"Город / Власть";"МФЦ"
"21";"Мои документы, центр государственных услуг";"пос. Коммунарка";"Александры Монаховой улица, 23";"108814";="+74957777777";"";"http://md.mos.ru";"https://vk.com/mydocs_mos";"";"37.480253";"55.569595";"Город / Власть";"МФЦ"
"22";"Мои документы, Район Митино";"Москва";"Новотушинский проезд, 10";"125464";="+74957777777";"";"http://md.mos.ru";"https://vk.com/mydocs_mos";"";"37.378579";"55.839012";"Город / Власть";"МФЦ"
"23";"Мои документы, Обручевский район";"Москва";"Ленинский проспект, 103";"119421";="+74957777777";"";"http://md.mos.ru";"https://vk.com/mydocs_mos";"";"37.514221";"55.665072";"Город / Власть";"МФЦ"
"24";"Мои документы, Район Перово";"Москва";"3-я Владимирская улица, 9а";"111401";="+74957777777";"";"http://md.mos.ru";"https://vk.com/mydocs_mos";"";"37.788549";"55.760709";"Город / Власть";"МФЦ"
"25";"Мои документы, Даниловский район";"Москва";"Хавская, 26";"115419";="+74957777777";"";"http://md.mos.ru";"https://vk.com/mydocs_mos";"";"37.612996";"55.712893";"Город / Власть";"МФЦ"
"26";"Мои документы, Район Ново-Переделкино";"Москва";"Новопеределкинская, 12а";"119633";="+74957777777";"";"http://md.mos.ru";"https://vk.com/mydocs_mos";"";"37.366174";"55.641439";"Город / Власть";"МФЦ"
"27";"Мои документы, Алексеевский район";"Москва";"улица Бориса Галушкина, 19 к3";"129301";="+74957777777";"";"http://md.mos.ru";"https://vk.com/mydocs_mos";"";"37.66404";"55.822576";"Город / Власть";"МФЦ"
"28";"Мои документы, Пресненский район";"Москва";"Большая Декабрьская, 13";"123022";="+74957777777";"";"http://md.mos.ru";"https://vk.com/mydocs_mos";"";"37.555406";"55.767333";"Город / Власть";"МФЦ"
"29";"Мои документы, район Царицыно";"Москва";"улица Медиков, 1/1 к3";"115304";="+74957777777";"";"http://md.mos.ru";"https://vk.com/mydocs_mos";"";"37.67454";"55.635851";"Город / Власть";"МФЦ"
"30";"Мои документы, Район Арбат";"Москва";"переулок Сивцев Вражек, 20";"119002";="+74957777777";"";"http://md.mos.ru";"https://vk.com/mydocs_mos";"";"37.593615";"55.747538";"Город / Власть";"МФЦ"
"31";"Мои документы, Район Южное Бутово";"Москва";"Горчакова, 11";"117042";="+74957777777";"";"http://md.mos.ru";"https://vk.com/mydocs_mos";"";"37.531337";"55.543677";"Город / Власть";"МФЦ"
"32";"Мои документы, Нагорный район; Нагатино-Садовники район";"Москва";"Варшавское шоссе, 47 к4";"115230";="+74957777777";"";"http://md.mos.ru";"https://vk.com/mydocs_mos";"";"37.629954";"55.67923";"Город / Власть";"МФЦ"
"33";"Мои документы, Район Текстильщики";"Москва";"Волжский бульвар 95-й квартал, к2";"109125";="+74957777777";"";"http://md.mos.ru";"https://vk.com/mydocs_mos";"";"37.747957";"55.710941";"Город / Власть";"МФЦ"
"34";"Мои документы, Район Зюзино";"Москва";"Одесская, 21/29";"117303";="+74957777777";"";"http://md.mos.ru";"https://vk.com/mydocs_mos";"";"37.59357";"55.658015";"Город / Власть";"МФЦ"
"35";"Мои документы, Район Нагатинский Затон";"Москва";"улица Нагатинская, 27";"115533";="+74957777777";"";"http://md.mos.ru";"https://vk.com/mydocs_mos";"";"37.654962";"55.678134";"Город / Власть";"МФЦ"
"36";"Мои документы, Район Кузьминки";"Москва";"Волжский бульвар, 41 к3";"109462";="+74957777777";"";"http://md.mos.ru";"https://vk.com/mydocs_mos";"";"37.755747";"55.698616";"Город / Власть";"МФЦ"
"37";"Мои документы, Академический район";"Москва";"улица Новочерёмушкинская, 23 к5";"117218";="+74957777777";"";"http://md.mos.ru";"https://vk.com/mydocs_mos";"";"37.580003";"55.680761";"Город / Власть";"МФЦ"
"38";"Мои документы, Таганский район";"Москва";"бульвар Энтузиастов, 2";"109544";="+74957777777";"";"http://md.mos.ru";"https://vk.com/mydocs_mos";"";"37.683035";"55.746539";"Город / Власть";"МФЦ"
"39";"Мои документы, Флагманский офис ЮВАО";"Москва";"Рязанский проспект, 2 к3";"109052";="+74957777777";"";"http://md.mos.ru";"https://vk.com/mydocs_mos";"";"37.734752";"55.729428";"Город / Власть";"МФЦ"
"40";"Мои документы, район Выхино-Жулебино";"Москва";"Жулебинский бульвар, 25";"109156";="+74957777777";"";"http://md.mos.ru";"https://vk.com/mydocs_mos";"";"37.852771";"55.689795";"Город / Власть";"МФЦ"
"41";"Мои документы, Район Крылатское";"Москва";"Рублёвское шоссе, 42 к1";"121609";="+74957777777";"";"http://md.mos.ru";"https://vk.com/mydocs_mos";"";"37.412404";"55.750689";"Город / Власть";"МФЦ"
"42";"Мои документы, Район Дорогомилово";"Москва";"площадь Киевского вокзала, 2";"121059";="+74957777777";"";"http://md.mos.ru";"https://vk.com/mydocs_mos";"";"37.565096";"55.743989";"Город / Власть";"МФЦ"
"43";"Мои документы, Район Фили-Давыдково";"Москва";"Кременчугская, 9";"121352";="+74957777777";"";"http://md.mos.ru";"https://vk.com/mydocs_mos";"";"37.463059";"55.720544";"Город / Власть";"МФЦ"
"44";"Мои документы, Район Щукино";"Москва";"улица Маршала Василевского, 15";"123182";="+74957777777";"";"http://md.mos.ru";"https://vk.com/mydocs_mos";"";"37.464472";"55.807967";"Город / Власть";"МФЦ"
"45";"Мои документы, Район Очаково-Матвеевское";"Москва";"2-й Очаковский переулок, 6";"119361";="+74957777777";"";"http://md.mos.ru";"https://vk.com/mydocs_mos";"";"37.459382";"55.682857";"Город / Власть";"МФЦ"
"46";"Мои документы, Район Якиманка";"Москва";"Якиманский переулок, 6 ст1";"119049";="+74957777777";"";"http://md.mos.ru";"https://vk.com/mydocs_mos";"";"37.609852";"55.733656";"Город / Власть";"МФЦ"
"47";"Мои документы, центр государственных услуг";"Москва";"Покрышкина, 4";"119602";="+74957777777";"";"http://md.mos.ru";"https://vk.com/mydocs_mos";"";"37.481416";"55.665137";"Город / Власть";"МФЦ"
"48";"Мои документы, Хорошёвский район";"Москва";"улица Куусинена, 19 к2";"125252";="+74957777777";"";"http://md.mos.ru";"https://vk.com/mydocs_mos";"";"37.511972";"55.787187";"Город / Власть";"МФЦ"
"49";"Мои документы, Флагманский офис ЮЗАО";"Москва";"Новоясеневский проспект, 1";"117574";="+74957777777";"";"http://md.mos.ru";"https://vk.com/mydocs_mos";"";"37.509839";"55.61919";"Город / Власть";"МФЦ"
"50";"Мои документы, Район Соколиная Гора";"Москва";"Большая Семёновская улица, 23а";"107023";="+74957777777";"";"http://md.mos.ru";"https://vk.com/mydocs_mos";"";"37.707444";"55.782548";"Город / Власть";"МФЦ"
"51";"Мои документы, центр государственных услуг";"Москва";"проспект Мира (ВДНХ), 119 ст71";"129223";="+74957777777";"";"http://md.mos.ru";"https://vk.com/mydocs_mos";"";"37.633864";"55.829949";"Город / Власть";"МФЦ"
"52";"Мои документы, Район Хамовники";"Москва";"Смоленский бульвар, 24 ст1";"119002";="+74957777777";"";"http://md.mos.ru";"https://vk.com/mydocs_mos";"";"37.584725";"55.74299";"Город / Власть";"МФЦ"
"53";"Мои документы, Район Солнцево";"Москва";"Домостроительная, 2";"119618";="+74957777777";"";"http://md.mos.ru/";"https://vk.com/mydocs_mos";"";"37.426365";"55.666004";"Город / Власть";"МФЦ"
"54";"Мои документы, Молжаниновский район; Левобережный район";"Москва";"Ленинградское шоссе, 108";"125195";="+74957777777";"";"http://md.mos.ru";"https://vk.com/mydocs_mos";"";"37.467324";"55.860611";"Город / Власть";"МФЦ"
"55";"Мои документы, Флагманский офис ВАО";"Москва";"Щёлковское шоссе, 75";"107207";="+74957777777";"";"http://md.mos.ru";"https://vk.com/mydocs_mos";"";"37.80247";"55.81095";"Город / Власть";"МФЦ"
"56";"Мои документы, центр государственных услуг";"Москва";"улица Алексея Дикого, 3";"111396";="+74957777777";"";"http://md.mos.ru";"https://vk.com/mydocs_mos";"";"37.807373";"55.748798";"Город / Власть";"МФЦ"
"57";"Мои документы, Район Беговой";"Москва";"улица Правды, 33";"125124";="+74957777777";"";"http://md.mos.ru";"https://vk.com/mydocs_mos";"";"37.583025";"55.789678";"Город / Власть";"МФЦ"
"58";"Мои документы, Район Ясенево";"Москва";"Новоясеневский проспект, 9";"117588";="+74957777777";"";"http://md.mos.ru";"https://vk.com/mydocs_mos";"";"37.534887";"55.609254";"Город / Власть";"МФЦ"
"59";"Мои документы, Донской район";"Москва";"5-й Донской проезд, 15 ст8";"119334";="+74957777777";"";"http://md.mos.ru";"https://vk.com/mydocs_mos";"";"37.600604";"55.707657";"Город / Власть";"МФЦ"
"60";"Мои документы, центр государственных услуг";"Балашиха";"улица Советская, 4";"143912";="122, 88005505030,,,3, 88005505030,,,доб., 88005505030,,,52201";"";"";"https://vk.com/club114323613";"";"37.934935";"55.796168";"Город / Власть";"МФЦ"
"61";"Мои документы, Район Преображенское";"Москва";"улица Малая Черкизовская, 14";"107061";="+74957777777";"";"http://md.mos.ru";"https://vk.com/mydocs_mos";"";"37.718376";"55.799351";"Город / Власть";"МФЦ"
"62";"Мои документы, Савёловский район";"Москва";"Бутырская, 17а";"127015";="+74957777777";"";"http://md.mos.ru";"https://vk.com/mydocs_mos";"";"37.582867";"55.79853";"Город / Власть";"МФЦ"
"63";"Мои документы, Район Тёплый Стан";"Москва";"Академика Варги, 26а";"117133";="+74957777777";"";"http://md.mos.ru";"https://vk.com/mydocs_mos";"";"37.474403";"55.634633";"Город / Власть";"МФЦ"
"64";"Мои документы, Район Орехово-Борисово Северное";"Москва";"Ясеневая улица, 8";"115561";="+74957777777";"";"http://md.mos.ru";"https://vk.com/mydocs_mos";"";"37.717958";"55.59976";"Город / Власть";"МФЦ"
"65";"Мои документы, Район Свиблово";"Москва";"Игарский проезд, 8";"129329";="+74957777777";"";"http://md.mos.ru";"https://vk.com/mydocs_mos";"";"37.644219";"55.857834";"Город / Власть";"МФЦ"
"66";"Мои документы, Район Филёвский Парк";"Москва";"Новозаводская, 25 к1";"121309";="+74957777777";"";"http://md.mos.ru";"https://vk.com/mydocs_mos";"";"37.50086";"55.75209";"Город / Власть";"МФЦ"
"67";"Мои документы, Бабушкинский район";"Москва";"улица Лётчика Бабушкина, 1 к1";"129344";="+74957777777";"";"http://md.mos.ru";"https://vk.com/mydocs_mos";"";"37.670193";"55.856349";"Город / Власть";"МФЦ"
"68";"Мои документы, Гагаринский район";"Москва";"улица Вавилова, 81 к1";"117335";="+74957777777";"";"http://md.mos.ru";"https://vk.com/mydocs_mos";"";"37.546609";"55.67982";"Город / Власть";"МФЦ"
"69";"Мои документы, Район Отрадное";"Москва";"улица Декабристов, 12";"127562";="+74957777777";"";"http://md.mos.ru";"https://vk.com/mydocs_mos";"";"37.602495";"55.862636";"Город / Власть";"МФЦ"
"70";"Мои документы, Лосиноостровский район";"Москва";"Изумрудная улица, 18";"129346";="+74957777777";"";"http://md.mos.ru";"https://vk.com/mydocs_mos";"";"37.682647";"55.871017";"Город / Власть";"МФЦ"
"71";"Мои документы, Район Проспект Вернадского";"Москва";"Удальцова, 14 ст1";"119415";="+74957777777";"";"http://md.mos.ru";"https://vk.com/mydocs_mos";"";"37.512092";"55.67627";"Город / Власть";"МФЦ"
"72";"Мои документы, Район Аэропорт";"Москва";"улица Викторенко, 2/1";"125167";="+74957777777";"";"http://md.mos.ru";"https://vk.com/mydocs_mos";"";"37.527765";"55.799496";"Город / Власть";"МФЦ"
"73";"Мои документы, Район Богородское; Район Метрогородок";"Москва";"Открытое шоссе, 8";"107370";="+74957777777";"";"http://md.mos.ru";"https://vk.com/mydocs_mos";"";"37.73339";"55.811648";"Город / Власть";"МФЦ"
"74";"Мои документы, Район Бескудниковский; Район Восточное Дегунино";"Москва";"Дубнинская, 40а";"127591";="+74957777777";"";"http://md.mos.ru";"https://vk.com/mydocs_mos";"";"37.559772";"55.889156";"Город / Власть";"МФЦ"
"75";"Мои документы, Район Сокол";"Москва";"Чапаевский переулок, 16";"125252";="+74957777777";"";"http://md.mos.ru";"https://vk.com/mydocs_mos";"";"37.518386";"55.797146";"Город / Власть";"МФЦ"
"76";"Мои документы, Район Бирюлево Восточное";"Москва";"Загорьевская, 10 к4";"115598";="+74957777777";"";"http://md.mos.ru";"https://vk.com/mydocs_mos";"";"37.676369";"55.578347";"Город / Власть";"МФЦ"
"77";"Мои документы, центр государственных услуг";"Москва";"Кировоградская улица, 13а";"117519";="+74957777777";"";"http://md.mos.ru";"https://vk.com/mydocs_mos";"";"37.605865";"55.612913";"Город / Власть";"МФЦ"
"78";"Мои документы, Район Западное Дегунино";"Москва";"Ангарская улица, 1 к3";"125635";="+74957777777";"";"http://md.mos.ru";"https://vk.com/mydocs_mos";"";"37.509208";"55.872434";"Город / Власть";"МФЦ"
"79";"Мои документы, центр государственных услуг";"Химки";"Юбилейный проспект, 67а";"141407";="88005505030,,,352239";"";"http://uslugi.mosreg.ru";"";"";"37.409294";"55.896276";"Город / Власть";"МФЦ"
"80";"Мои документы, Ярославский район";"Москва";"Ярославское шоссе, 116 к1";"129337";="+74957777777";"";"http://md.mos.ru";"https://vk.com/mydocs_mos";"";"37.709202";"55.866699";"Город / Власть";"МФЦ"
"81";"Мои документы, район Новокосино";"Москва";"улица Салтыковская, 29а";"111672";="+74957777777";"";"http://md.mos.ru";"https://vk.com/mydocs_mos";"";"37.871609";"55.739647";"Город / Власть";"МФЦ"
"82";"Мои документы, центр государственных услуг";"Москва";"Сходненская, 56";"125363";="+74957777777";"";"http://md.mos.ru";"https://vk.com/mydocs_mos";"";"37.445087";"55.850663";"Город / Власть";"МФЦ"
"83";"Мои документы, Район Зябликово";"Москва";"Мусы Джалиля, 21";"115580";="+74957777777";"";"http://md.mos.ru";"https://vk.com/mydocs_mos";"";"37.744005";"55.623028";"Город / Власть";"МФЦ"
"84";"Мои документы, Троицкий район";"Троицк";"1-я Лазурная улица, 4";"108841";="+74957777777";"";"http://md.mos.ru";"https://vk.com/mydocs_mos";"";"37.321531";"55.495768";"Город / Власть";"МФЦ"
"85";"Мои документы, Район Северное Медведково";"Москва";"Полярная улица, 31 ст1";"127282";="+74957777777";"";"http://md.mos.ru";"https://vk.com/mydocs_mos";"";"37.640182";"55.888899";"Город / Власть";"МФЦ"
"86";"Мои документы, Войковский район";"Москва";"Космонавта Волкова, 10";"127299";="+74957777777";"";"http://md.mos.ru";"https://vk.com/mydocs_mos";"";"37.514592";"55.815548";"Город / Власть";"МФЦ"
"87";"Мои документы, Район Орехово-Борисово Южное";"Москва";"Каширское шоссе, 144 к3";"115561";="+74957777777";"";"http://md.mos.ru";"https://vk.com/mydocs_mos";"";"37.721622";"55.596474";"Город / Власть";"МФЦ"
"88";"Мои документы, Район Северное Измайлово";"Москва";"15-я Парковая улица, 40Б";"105523";="+74957777777";"";"http://md.mos.ru";"https://vk.com/mydocs_mos";"";"37.823531";"55.806109";"Город / Власть";"МФЦ"
"89";"Мои документы, Район Выхино-Жулебино";"Москва";"Ташкентская, 21";"109444";="+74957777777";"";"http://md.mos.ru";"https://vk.com/mydocs_mos";"";"37.813698";"55.701206";"Город / Власть";"МФЦ"
"90";"Мои документы, центр государственных услуг";"Мытищи";"Карла Маркса, 4а";"141009";="88005505030";"";"http://mfcmmr.ru";"https://vk.com/mfcmgo";"";"37.76848";"55.9153";"Город / Власть";"МФЦ"
"91";"Мои документы, Район Чертаново Северное";"Москва";"Варшавское шоссе, 128 к2";"117587";="+74957777777";"";"http://md.mos.ru";"https://vk.com/mydocs_mos";"";"37.612167";"55.622936";"Город / Власть";"МФЦ"
"92";"Мои документы, Район Гольяново";"Москва";"Щёлковское шоссе, 27а";"107241";="+74957777777";"";"http://md.mos.ru/";"https://vk.com/mydocs_mos";"";"37.778856";"55.81014";"Город / Власть";"МФЦ"
"93";"Мои документы, Головинский район";"Москва";"Головинское шоссе, 5";"125212";="+74957777777";"";"http://md.mos.ru/";"https://vk.com/mydocs_mos";"";"37.491022";"55.840075";"Город / Власть";"МФЦ"
"94";"Мои документы, Район Внуково";"Москва";"Центральная улица, 8Б";"119027";="+74957777777";"";"http://md.mos.ru";"https://vk.com/mydocs_mos";"";"37.287271";"55.611058";"Город / Власть";"МФЦ"
"95";"Мои документы, Район Вешняки";"Москва";"Вешняковская, 17г";"111539";="+74957777777";"";"http://md.mos.ru";"https://vk.com/mydocs_mos";"";"37.83345";"55.734471";"Город / Власть";"МФЦ"
"96";"Мои документы, центр государственных услуг";"Одинцово";"Можайское шоссе, 71";"143007";="+74956406200, 88005505030, +74986022372";"";"";"";"";"37.280987";"55.677571";"Город / Власть";"МФЦ"
"97";"Мои документы, центр государственных услуг";"Щербинка";"Новостроевская, 6";"108831";="+74957777777";"";"http://md.mos.ru";"https://vk.com/mydocs_mos";"";"37.559408";"55.504505";"Город / Власть";"МФЦ"
"98";"Мои документы, центр государственных услуг";"Москва";"Россошанская, 4 к2";"117535";="+74957777777";"";"http://md.mos.ru";"https://vk.com/mydocs_mos";"";"37.609622";"55.592428";"Город / Власть";"МФЦ"
"99";"Мои документы, центр государственных услуг";"Балашиха";"Носовихинское шоссе, 15";"143989";="122, 88005505030,,,3, 88005505030,,,доб., 88005505030,,,52201";"";"";"https://vk.com/club114323613";"";"37.988258";"55.751434";"Город / Власть";"МФЦ"
"100";"Мои документы, центр государственных услуг";"Москва";"Тимирязевская, 8 к1";"127422";="+74957777777";"";"http://md.mos.ru";"https://vk.com/mydocs_mos";"";"37.57082";"55.81089";"Город / Власть";"МФЦ"
"101";"Мои документы, Район Северное Бутово";"Москва";"Куликовская, 6";"117628";="+74957777777";"";"http://md.mos.ru";"https://vk.com/mydocs_mos";"";"37.565452";"55.574312";"Город / Власть";"МФЦ"
"102";"Мои документы, Бутырский район";"Москва";"улица Милашенкова, 14";"127322";="+74957777777";"";"http://md.mos.ru";"https://vk.com/mydocs_mos";"";"37.580242";"55.828447";"Город / Власть";"МФЦ"
"103";"Мои документы, Ломоносовский район";"Москва";"Гарибальди, 6 к1";"119313";="+74957777777";"";"http://md.mos.ru";"https://vk.com/mydocs_mos";"";"37.536783";"55.676146";"Город / Власть";"МФЦ"
"104";"Мои документы, Район Куркино";"Москва";"Новокуркинское шоссе, 1";"125466";="+74957777777";"";"http://md.mos.ru";"https://vk.com/mydocs_mos";"";"37.407166";"55.885175";"Город / Власть";"МФЦ"
"105";"Мои документы, Район Марфино";"Москва";"Гостиничный проезд, 6а";"127106";="+74957777777";"";"http://md.mos.ru";"https://vk.com/mydocs_mos";"";"37.577784";"55.844227";"Город / Власть";"МФЦ"
"106";"Мои документы, центр государственных услуг";"Москва";"улица Василия Петушкова, 13 к1";"125476";="+74957777777";"";"http://md.mos.ru";"https://vk.com/mydocs_mos";"";"37.401564";"55.837962";"Город / Власть";"МФЦ"
"107";"Мои документы, центр государственных услуг";"Москва";"3-я Парковая улица, 24";"105043";="+74957777777";"";"http://md.mos.ru";"https://vk.com/mydocs_mos";"";"37.783016";"55.794904";"Город / Власть";"МФЦ"
"108";"Мои документы, центр государственных услуг";"Москва";"Дыбенко, 7/1 ст1";"125475";="+74957777777";"";"http://md.mos.ru";"https://vk.com/mydocs_mos";"";"37.479184";"55.878114";"Город / Власть";"МФЦ"
"109";"Мои документы, центр государственных услуг";"Видное";"Школьная, 77";"142703";="+74986586161, 88005505030,,,52-220, +74955480092";"";"http://mfcvidnoe.ru";"";"";"37.692409";"55.553437";"Город / Власть";"МФЦ"
"110";"Мои документы, Район Бибирево";"Москва";"Мелиховская, 4а";"127543";="+74957777777";"";"http://md.mos.ru";"https://vk.com/mydocs_mos";"";"37.604932";"55.89857";"Город / Власть";"МФЦ"
"111";"Мои документы, Дмитровский район";"Москва";"Лобненская улица, 4а";"127644";="+74957777777";"";"http://md.mos.ru";"https://vk.com/mydocs_mos";"";"37.537597";"55.889976";"Город / Власть";"МФЦ"
"112";"Мои документы, Район Котловка";"Москва";"Нахимовский проспект, 25а";"117209";="+74957777777";"";"http://md.mos.ru";"https://vk.com/mydocs_mos";"";"37.590251";"55.668041";"Город / Власть";"МФЦ"
"113";"Мои документы, Район Покровское-Стрешнево";"Москва";"улица Тушинская, 17";"125362";="+74957777777";"";"http://md.mos.ru";"https://vk.com/mydocs_mos";"";"37.444756";"55.826963";"Город / Власть";"МФЦ"
"114";"Мои документы, Район Братеево";"Москва";"Борисовские Пруды, 18 к3";"115612";="+74957777777";"";"http://md.mos.ru";"https://vk.com/mydocs_mos";"";"37.752577";"55.636003";"Город / Власть";"МФЦ"
"115";"Мои документы, Район Восточное Измайлово";"Москва";"Измайловский проспект, 93 к1";"105203";="+74957777777";"";"http://md.mos.ru";"https://vk.com/mydocs_mos";"";"37.809114";"55.789036";"Город / Власть";"МФЦ"
"116";"Мои документы, Алтуфьевский район";"Москва";"Алтуфьевское шоссе, 56а";"127549";="+74957777777";"";"http://md.mos.ru";"https://vk.com/mydocs_mos";"";"37.588769";"55.881493";"Город / Власть";"МФЦ"
"117";"Мои документы, центр государственных услуг";"рп. Бутово";"Жилой комплекс Бутово-Парк, 22";"142720";="+74986586161, 88005505030,,,52-220";"";"http://mfcvidnoe.ru";"";"";"37.586903";"55.545216";"Город / Власть";"МФЦ"
"118";"Мои документы, Район Сокольники";"Москва";"Стромынка, 2";"107014";="+74957777777";"";"http://md.mos.ru";"https://vk.com/mydocs_mos";"";"37.683022";"55.789697";"Город / Власть";"МФЦ"
"119";"Мои документы, центр государственных услуг";"Люберцы";"Звуковая, 3";"140000";="88005505030";"";"";"";"";"37.894466";"55.676748";"Город / Власть";"МФЦ"
"120";"Мои документы, центр государственных услуг";"Красногорск";"улица Ленина, 2";"143404";="88005505030";"";"http://uslugi.mosreg.ru";"";"";"37.320518";"55.819581";"Город / Власть";"МФЦ"
"121";"Мои документы, центр государственных услуг";"Москва";"Михалковская, 4а";"125008";="+74957777777";"";"http://md.mos.ru";"https://vk.com/mydocs_mos";"";"37.537472";"55.837222";"Город / Власть";"МФЦ"
"122";"Мои документы, Район Южное Медведково";"Москва";"Полярная улица, 2";"127221";="+74957777777";"";"http://md.mos.ru";"https://vk.com/mydocs_mos";"";"37.638499";"55.871805";"Город / Власть";"МФЦ"
"123";"Мои документы, центр государственных услуг";"Люберцы";"Инициативная, 7Б";"140009";="88005505030";"";"";"";"";"37.898992";"55.6866";"Город / Власть";"МФЦ"
"124";"Мои документы, центр государственных услуг";"Пушкино";"Серебрянская 1-я улица, 21";"141207";="88005505030,,,52231";"";"http://мфц-пушкино.рф";"";"";"37.854185";"56.016843";"Город / Власть";"МФЦ"
"125";"Мои документы, Косино-Ухтомский район";"Москва";"Святоозёрская, 12";"111675";="+74957777777";"";"http://md.mos.ru";"https://vk.com/mydocs_mos";"";"37.886408";"55.713756";"Город / Власть";"МФЦ"
"126";"Мои документы, центр государственных услуг";"Мытищи";"Мира, 32/2";"141008";="88005505030";"";"http://mfcmmr.ru";"https://vk.com/mfcmgo";"";"37.720204";"55.920828";"Город / Власть";"МФЦ"
"127";"Мои документы, центр государственных услуг";"Реутов";"Победы, 7";"143966";="88005505030,,,52289";"";"http://reutov-mfc.ru";"https://vk.com/mfc_reutov";"";"37.859686";"55.760125";"Город / Власть";"МФЦ"
"128";"Мои документы, Северный район";"Москва";"Челобитьевское шоссе, 12 к1";"127495";="+74957777777";"";"http://md.mos.ru";"https://vk.com/mydocs_mos";"";"37.547696";"55.912964";"Город / Власть";"МФЦ"
"129";"Мои документы, центр государственных услуг";"Котельники";"Новая, 14";"140054";="88005505030";"";"";"";"";"37.872804";"55.662818";"Город / Власть";"МФЦ"
"130";"Мои документы, центр государственных услуг";"рп. Лопатино";"Сухановская, 1 ст1";"142702";="+74986586161, 88005505030,,,52-220";"";"http://mfcvidnoe.ru";"";"";"37.641374";"55.535342";"Город / Власть";"МФЦ"
"131";"Мои документы, Район Ростокино";"Москва";"Бажова, 6";"129128";="+74957777777";"";"http://md.mos.ru";"https://vk.com/mydocs_mos";"";"37.660384";"55.831498";"Город / Власть";"МФЦ"
"132";"Мои документы, центр государственных услуг";"Долгопрудный";"Первомайская, 11";"141701";="88005505030,,,3-52205, +74986022735";"";"http://uslugi.mosreg.ru";"";"";"37.519701";"55.932774";"Город / Власть";"МФЦ"
"133";"Мои документы, центр государственных услуг";"Ивантеевка";"Центральный проезд, 4";"141282";="88005505030, +74951080861";"";"http://uslugi.mosreg.ru";"";"";"37.909433";"55.968708";"Город / Власть";"МФЦ"
"134";"Мои документы, Отдел по работе с крупными застройщиками и государственными структурами";"пос. Коммунарка";"улица Сосенский Стан, 4";"108814";="+74957777777";"";"http://md.mos.ru";"https://vk.com/mydocs_mos";"";"37.464859";"55.573308";"Город / Власть";"МФЦ"
"135";"Мои документы, центр государственных услуг";"Люберцы";"Октябрьский проспект, 18 к3";"140002";="88005505030";"";"";"";"";"37.867129";"55.690224";"Город / Власть";"МФЦ"
"136";"Мои документы, центр государственных услуг";"Подольск";"Кирова, 39";"142110";="88005505030, +74967541890";"";"http://podolskmfc.ru";"https://vk.com/mfcpodolsk";"";"37.524274";"55.424054";"Город / Власть";"МФЦ"
"137";"Мои документы, центр государственных услуг";"пос. Трехгорка";"Трёхгорная, 6";"143001";="+74956406200, 88005505030";"";"http://uslugi.mosreg.ru/mfc/mfcmap";"";"";"37.336388";"55.696923";"Город / Власть";"МФЦ"
"138";"Мои документы, центр государственных услуг";"Щёлково";"Свирская, 2а";"141100";="88005505030,,,52240, +74962516575, +74962516573";"";"http://mfcsch.ru";"";"";"38.001745";"55.914217";"Город / Власть";"МФЦ"
"139";"Мои документы, центр государственных услуг";"Красногорск";"Международная улица, 4";"143401";="88005505030";"";"http://uslugi.mosreg.ru";"";"";"37.38702";"55.816315";"Город / Власть";"МФЦ"
"140";"Мои документы, Район Савёлки";"Зеленоград";"Зеленоград, к337";"124482";="+74957777777";"";"http://md.mos.ru";"https://vk.com/mydocs_mos";"";"37.215839";"55.995934";"Город / Власть";"МФЦ"
"141";"Мои документы, центр государственных услуг";"Люберцы";"улица 8 Марта, 30Б";"140007";="88005505030";"";"";"";"";"37.886999";"55.702805";"Город / Власть";"МФЦ"
"142";"Мои документы, центр государственных услуг";"Москва";"2-я Нововатутинская улица, 1";"108836";="+74957777777";"";"http://md.mos.ru";"https://vk.com/mydocs_mos";"";"37.350611";"55.515994";"Город / Власть";"МФЦ"
"143";"Мои документы, Район Лианозово";"Москва";"Абрамцевская улица, 3";"127576";="+74957777777";"";"http://md.mos.ru";"https://vk.com/mydocs_mos";"";"37.573205";"55.895768";"Город / Власть";"МФЦ"
"144";"Мои документы, центр государственных услуг";"Люберцы";"Некрасовский проезд, 6";"140016";="88005505030";"";"";"";"";"37.952751";"55.708799";"Город / Власть";"МФЦ"
"145";"Мои документы, центр государственных услуг";"Раменское";"Кирова, 15а";"140105";="88005505030";"";"http://mfc-ramenskoye.ru";"https://vk.com/mfcramenskoye";"";"38.206855";"55.576191";"Город / Власть";"МФЦ"
"146";"Мои документы, центр государственных услуг";"Москва";"Россошанский проезд, 4Б";"117535";="+74957777777";"";"http://md.mos.ru";"https://vk.com/mydocs_mos";"";"37.60549";"55.597949";"Город / Власть";"МФЦ"
"147";"Мои документы, центр государственных услуг";"Домодедово";"Советская улица, 19 к1";"142006";="88005505030, +74967924188, +74967924560";"";"http://mfcdomodedovo.ru";"";"";"37.748713";"55.442059";"Город / Власть";"МФЦ"
"148";"Мои документы, центр государственных услуг";"Зеленоград";"Привокзальная площадь, 1";"124365";="+74957777777, +74999404790";"";"http://md.mos.ru";"https://vk.com/mydocs_mos";"";"37.172232";"55.979283";"Город / Власть";"МФЦ"
"149";"Мои документы, Район Старое Крюково";"Зеленоград";"Зеленоград, к828";"124527";="+74957777777";"";"http://md.mos.ru";"https://vk.com/mydocs_mos";"";"37.182558";"55.980799";"Город / Власть";"МФЦ"
"150";"Мои документы, центр государственных услуг";"Красногорск";"Ильинский бульвар, 4";"143401";="88005505030";"";"http://uslugi.mosreg.ru";"";"";"37.367276";"55.817679";"Город / Власть";"МФЦ"
"151";"Мои документы, центр государственных услуг";"Орехово-Зуево";"Ленина, 96а";"142601";="88005505030";"";"http://www.mfcozmo.ru";"";"";"38.997603";"55.81194";"Город / Власть";"МФЦ"
"152";"Мои документы, центр государственных услуг";"Химки";"Зелёная, 4";"141411";="88005505030,,,352239";"";"http://uslugi.mosreg.ru";"";"";"37.480782";"55.890049";"Город / Власть";"МФЦ"
"153";"Мои документы, центр государственных услуг";"д. Путилково";"Томаровича, 1";"143441";="88005505030";"";"http://uslugi.mosreg.ru";"";"";"37.393292";"55.858656";"Город / Власть";"МФЦ"
"154";"Мои документы, Восточный район";"Москва";"улица 9 Мая, 12";"105173";="+74957777777";"";"http://md.mos.ru";"https://vk.com/mydocs_mos";"";"37.865912";"55.816871";"Город / Власть";"МФЦ"
"155";"Мои документы, центр государственных услуг";"Москва";"Пролетарский проспект, 18";"115477";="+74957777777";"";"http://md.mos.ru";"https://vk.com/mydocs_mos";"";"37.657266";"55.634158";"Город / Власть";"МФЦ"
"156";"Мои документы, центр государственных услуг";"рп. Томилино";"микрорайон Птицефабрика, 4/1";"140073";="88005505030";"";"";"";"";"37.929161";"55.652484";"Город / Власть";"МФЦ"
"157";"Мои документы, Район Капотня";"Москва";"Капотня 2-й квартал, 22";"109429";="+74957777777";"";"http://md.mos.ru";"https://vk.com/mydocs_mos";"";"37.800469";"55.637887";"Город / Власть";"МФЦ"
"158";"Мои документы, центр государственных услуг";"рп. Октябрьский";"Ленина, 39";"140060";="88005505030";"";"";"";"";"37.977381";"55.60915";"Город / Власть";"МФЦ"
"159";"Мои документы, центр государственных услуг";"Лобня";"Ленина, 21";"141730";="+74959025303, 88005505030,,,52264";"";"http://www.mfclobnya.ru";"";"";"37.475127";"56.01123";"Город / Власть";"МФЦ"
"160";"Мои документы, Район Матушкино";"Зеленоград";"Зеленоград, к128";"124482";="+74957777777";"";"http://md.mos.ru";"https://vk.com/mydocs_mos";"";"37.207684";"56.00365";"Город / Власть";"МФЦ"
"161";"Мои документы, центр государственных услуг";"Электросталь";"проспект Ленина, 11";"144006";="88005505030,,,52305";"";"http://uslugi.mosreg.ru/mfc";"https://vk.com/club114680990";"";"38.438986";"55.801084";"Город / Власть";"МФЦ"
"162";"Мои документы, центр государственных услуг";"пос. ВНИИССОК";"Дениса Давыдова, 7";"143072";="+74956406200, 88005505030, 88005505030,,,52319";"";"";"";"";"37.227583";"55.660585";"Город / Власть";"МФЦ"
"163";"Мои документы, центр предоставления государственных и муниципальных услуг";"Дзержинский";"улица Угрешская, 22";"140090";="88005505030";"";"http://мфц-дзержинский.рф";"https://vk.com/mfcdzer";"";"37.857325";"55.632308";"Город / Власть";"МФЦ"
"164";"Мои документы, центр государственных услуг";"Королёв";"проспект Космонавтов, 20а";"141080";="88005505030,,,52258, +74952300671, 88005505030,,,52259";"";"http://mfc-korolev.ru";"";"";"37.867024";"55.914995";"Город / Власть";"МФЦ"
"165";"Мои документы, центр государственных услуг";"Котельники";"Ковровый микрорайон, 25";"140054";="88005505030, 88005505030,,,52213";"";"";"";"";"37.867418";"55.659197";"Город / Власть";"МФЦ"
"166";"Мои документы, Пункт приема и выдачи документов";"Москва";"улица Маршала Савицкого, 28";"117148";="+74957777777";"";"http://md.mos.ru";"https://vk.com/mydocs_mos";"";"37.597991";"55.504315";"Город / Власть";"МФЦ"
"167";"Мои документы, центр государственных услуг";"Апрелевка";"Августовская улица, 14";"143360";="88005505030,,,52280, +74963477777, +74963477757";"";"http://www.mfc-nf.ru";"";"";"37.068325";"55.549515";"Город / Власть";"МФЦ"
"168";"Мои документы, центр государственных услуг";"рп. Нахабино";"Панфилова, 25";"143432";="88005505030";"";"http://uslugi.mosreg.ru";"";"";"37.178894";"55.835067";"Город / Власть";"МФЦ"
"169";"Мои документы, центр государственных услуг";"Москва";"Ярцевская, 19";"121552";="+74957777777";"";"http://md.mos.ru";"https://vk.com/mydocs_mos";"";"37.411912";"55.738779";"Город / Власть";"МФЦ"
"170";"Мои документы, центр государственных услуг";"Раменское";"Воровского, 3 к1";"140105";="88005505030, +74964659018";"";"http://mfc-ramenskoye.ru";"https://vk.com/mfcramenskoye";"";"38.213156";"55.571553";"Город / Власть";"МФЦ"
"171";"Мои документы, центр государственных услуг";"Электросталь";"Победы, 15 к3";"144007";="88005505030,,,52305";"";"http://uslugi.mosreg.ru/mfc";"https://vk.com/club114680990";"";"38.442095";"55.772511";"Город / Власть";"МФЦ"
"172";"Мои документы, центр государственных услуг";"Химки";"Чапаева, 7";"141420";="88005505030,,,352239";"";"http://uslugi.mosreg.ru";"";"";"37.297448";"55.94707";"Город / Власть";"МФЦ"
"173";"Мои документы, Пункт приема и выдачи документов";"с. Мамонтово";"Мамонтово село, 1";"142439";="88005505030,,,52278";"";"";"";"";"38.556668";"55.95074";"Город / Власть";"МФЦ"
"174";"Мои документы, центр государственных услуг";"Домодедово";"улица Талалихина, 8";"142003";="88005505030, +74967924566";"";"http://mfcdomodedovo.ru";"";"";"37.768496";"55.423421";"Город / Власть";"МФЦ"
"175";"Мои документы, центр государственных услуг";"Королёв";"Пионерская, 1/4";"141090";="88005505030,,,52258";"";"http://mfc-korolev.ru";"";"";"37.843485";"55.932595";"Город / Власть";"МФЦ"
"176";"Мои документы, центр государственных услуг";"Красногорск";"Дачная, 11а";"143404";="88005505030";"";"http://uslugi.mosreg.ru";"";"";"37.312243";"55.819666";"Город / Власть";"МФЦ"
"177";"Мои документы, Администрация";"Одинцово";"Маршала Жукова, 28";"143003";="+74956406200, 88005505030";"";"";"";"";"37.263315";"55.679415";"Город / Власть";"МФЦ"
"178";"Мои документы, центр государственных услуг";"Солнечногорск";"Тельнова, 3/2";"141503";="88005505030,,,52235";"";"http://www.mfcsmr.ru";"";"";"36.986056";"56.178653";"Город / Власть";"МФЦ"
"179";"Мои документы, центр государственных услуг";"рп. Андреевка";"улица Жилинская, 27 к3";"141551";="88005505030,,,52235";"";"http://www.mfcsmr.ru";"";"";"37.127644";"55.981218";"Город / Власть";"МФЦ"
"180";"Мои документы, центр государственных услуг";"Пушкино";"Первомайская, 11/8";"141206";="88005505030,,,52231";"";"http://мфц-пушкино.рф";"";"";"37.830392";"56.008264";"Город / Власть";"МФЦ"
"181";"Мои документы, центр государственных услуг";"Чехов";"Советская площадь, 3";"142306";="88005505030,,,52299, 88005505030,,,52300, +74967230031";"";"http://uslugi.mosreg.ru/mfc";"";"";"37.454253";"55.143414";"Город / Власть";"МФЦ"
"182";"Мои документы, центр государственных услуг";"Балашиха";"Звёздная, 8а";"143909";="122, 88005505030,,,3, 88005505030,,,доб., 88005505030,,,52201";"";"";"https://vk.com/club114323613";"";"37.955169";"55.826374";"Город / Власть";"МФЦ"
"183";"Мои документы, центр государственных услуг";"Старая Купавна";"Акрихиновское шоссе, 8а";"142450";="88005505030,,,52278";"";"";"https://vk.com/mfcnoginsk1";"";"38.173896";"55.815201";"Город / Власть";"МФЦ"
"184";"Мои документы, центр государственных услуг";"Воскресенск";"Энгельса, 14а";"140209";="88005505030,,,52245, 88005505030,,,52246, +74964448133, +74964448135";"";"";"";"";"38.64517";"55.314305";"Город / Власть";"МФЦ"
"185";"Мои документы, Пункт приема и выдачи документов";"Балашиха";"Саввинская, 2а";"143985";="122, 88005505030,,,3, 88005505030,,,доб., 88005505030,,,52201";"";"";"https://vk.com/club114323613";"";"38.028862";"55.72943";"Город / Власть";"МФЦ"
"186";"Мои документы, центр государственных услуг";"Коломна";"Уманская, 20";"140400";="+74966230282, 88005505030";"";"http://mfc-kolomna.ru";"";"";"38.761476";"55.096818";"Город / Власть";"МФЦ"
"187";"Мои документы, центр государственных услуг";"Краснознаменск";"Генерала Шлыкова, 1";"143091";="122,,,352262";"";"http://kmfc.ru";"https://vk.com/mfc_kz";"";"37.033096";"55.600742";"Город / Власть";"МФЦ"
"188";"Мои документы, центр государственных услуг";"Подольск";"Северная, 4/14";"142103";="88005505030";"";"http://podolskmfc.ru";"https://vk.com/mfcpodolsk";"";"37.573885";"55.419343";"Город / Власть";"МФЦ"
"189";"Мои документы, центр государственных услуг";"Подольск";"проспект Ленина, 10";"142106";="88005505030, +74967541890, 88005505030,,,352263";"";"http://podolskmfc.ru";"https://vk.com/mfcpodolsk";"";"37.551486";"55.446778";"Город / Власть";"МФЦ"
"190";"Мои документы, центр государственных услуг";"Лосино-Петровский";"Горького, 24а";"141151";="88005505030";"";"http://mfc.lospet.ru";"https://vk.com/mfc_lospet";"";"38.193986";"55.870219";"Город / Власть";"МФЦ"
"191";"Мои документы, центр государственных услуг";"Раменское";"Крымская, 5";"140103";="88005505030";"";"http://mfc-ramenskoye.ru";"https://vk.com/mfcramenskoye";"";"38.256898";"55.574477";"Город / Власть";"МФЦ"
"192";"Мои документы, центр государственных услуг";"дп. Красково";"Школьная, 5";"140050";="88005505030";"";"";"";"";"37.983219";"55.661034";"Город / Власть";"МФЦ"
"193";"Мои документы, Пункт приема и выдачи документов";"Балашиха";"шоссе Энтузиастов, 54а";"143900";="122, 88005505030,,,3, 88005505030,,,доб., 88005505030,,,52201";"";"";"https://vk.com/club114323613";"";"37.962405";"55.795867";"Город / Власть";"МФЦ"
"194";"Мои документы, центр государственных услуг";"Раменское";"Михалевича, 18";"140108";="88005505030";"";"http://mfc-ramenskoye.ru";"https://vk.com/mfcramenskoye";"";"38.23345";"55.565941";"Город / Власть";"МФЦ"
"195";"Мои документы, центр государственных услуг";"Истра";"площадь Революции, 2";"143500";="88005505030,,,52211";"";"http://uslugi.mosreg.ru/mfc";"";"";"36.860518";"55.914695";"Город / Власть";"МФЦ"
"196";"Мои документы, центр государственных услуг";"Ногинск";"улица 3-го Интернационала, 80";"142400";="88005505030,,,52278";"";"";"";"";"38.434193";"55.853904";"Город / Власть";"МФЦ"
"197";"Мои документы, центр государственных услуг";"пос. Птичное";"Центральная, 100";"108807";="+74957777777";"";"http://md.mos.ru";"https://vk.com/mydocs_mos";"";"37.220759";"55.521577";"Город / Власть";"МФЦ"
"198";"Мои документы, центр государственных услуг";"Жуковский";"Гагарина, 60а";"140188";="+74957777777";"";"http://md.mos.ru";"https://vk.com/mydocs_mos";"";"38.087788";"55.610433";"Город / Власть";"МФЦ"
"199";"Мои документы, центр государственных услуг";"рп. Свердловский";"улица Алексея Короткова, ст5";"141137";="88005505030, +74962501800";"";"http://mfc.lospet.ru";"https://vk.com/mfc_lospet";"";"38.144519";"55.900205";"Город / Власть";"МФЦ"
"200";"Мои документы, центр государственных услуг";"Королёв";"Калинина, 6Б";"141070";="88005505030,,,52258, 88005505030,,,52310";"";"http://mfc-korolev.ru";"";"";"37.815301";"55.922587";"Город / Власть";"МФЦ"
"201";"Мои документы, центр государственных услуг";"Балашиха";"шоссе Энтузиастов, вл11 ст4";"143923";="122, 88005505030,,,3, 88005505030,,,доб., 88005505030,,,52201";"";"";"https://vk.com/club114323613";"";"37.886093";"55.791147";"Город / Власть";"МФЦ"
"202";"Мои документы, центр государственных услуг";"пос. Отрадное";"Пятницкая, 5";"143442";="88005505030";"";"http://uslugi.mosreg.ru";"";"";"37.314546";"55.876204";"Город / Власть";"МФЦ"
"203";"Мои документы, центр государственных услуг";"Лыткарино";"квартал 3А, 9";"140083";="88005505030";"";"http://www.mfc50.ru";"https://vk.com/mfc_lytkarino";"";"37.915118";"55.586133";"Город / Власть";"МФЦ"
"204";"Мои документы, Район Силино";"Зеленоград";"Зеленоград, к1105";"124460";="+74957777777";"";"http://md.mos.ru";"https://vk.com/mydocs_mos";"";"37.187618";"55.995257";"Город / Власть";"МФЦ"
"205";"Мои документы, центр государственных услуг";"Егорьевск";"Карла Маркса, 25/19";"140301";="88005505030";"";"http://egoryevsk-mfc.ru";"";"";"39.037624";"55.384517";"Город / Власть";"МФЦ"
"206";"Мои документы, центр государственных услуг";"Звенигород";"микрорайон Супонево, к3";"143185";="+74987157858";"";"";"https://vk.com/mfczv";"";"36.875631";"55.744972";"Город / Власть";"МФЦ"
"207";"Мои документы, центр государственных услуг";"пос. Новый Городок";"посёлок Новый городок, 17";"141143";="+74957777777";"";"http://md.mos.ru";"https://vk.com/mydocs_mos";"";"37.989202";"55.875711";"Город / Власть";"МФЦ"
"208";"Мои документы, центр государственных услуг";"Домодедово";"1-й Советский проезд, 5";"142002";="88005505030, +74967924497, +74967924487";"";"http://mfcdomodedovo.ru";"";"";"37.769968";"55.442653";"Город / Власть";"МФЦ"
"209";"Мои документы, центр государственных услуг";"Подольск";"Высотная, 6";"142117";="88005505030";"";"http://podolskmfc.ru";"https://vk.com/mfcpodolsk";"";"37.518405";"55.417993";"Город / Власть";"МФЦ"
"210";"Паспортный стол";"Химки";"Октябрьская, 16";"141420";="+74986980510, +79169259920";"";"";"";"";"37.291667";"55.950367";"Город / Власть";"МФЦ"
"211";"Мои документы, центр государственных услуг";"Домодедово";"Леваневского, 2а";"142060";="88005505030";"";"http://mfcdomodedovo.ru";"";"";"37.893597";"55.265554";"Город / Власть";"МФЦ"
"212";"Мои документы, Пункт приема и выдачи документов";"пос. Развилка";"3-й квартал, 38";"142717";="+74986586161, 88005505030,,,52-220";"";"http://mfcvidnoe.ru";"";"";"37.757183";"55.586553";"Город / Власть";"МФЦ"
"213";"Мои документы, Пункт приема и выдачи документов";"д. Островцы";"Центральная, 24";"140125";="88005505030";"";"http://mfc-ramenskoye.ru";"https://vk.com/mfcramenskoye";"";"38.007866";"55.587491";"Город / Власть";"МФЦ"
"214";"Мои документы, центр государственных услуг";"Одинцово";"Белорусская, 5";"143006";="+74956406200, 88005505030";"";"";"https://vk.com/mfc_odintsovomr";"";"37.30358";"55.663417";"Город / Власть";"МФЦ"
"215";"Мои документы, центр государственных услуг";"рп. Малаховка";"улица Сакко и Ванцетти, 1";"140032";="88005505030";"";"";"";"";"37.99679";"55.646873";"Город / Власть";"МФЦ"
"216";"Мои документы, центр предоставления государственных и муниципальных услуг";"Дзержинский";"Шама, 9";"140090";="88005505030";"";"http://мфц-дзержинский.рф";"https://vk.com/mfcdzer";"";"37.849618";"55.634398";"Город / Власть";"МФЦ"
"217";"Мои документы, центр государственных услуг";"Жуковский";"Энергетическая улица, 9";"140181";="";"";"http://mfc-zhukovskiy.ru";"https://vk.com/mydocs_mos";"";"38.114674";"55.601426";"Город / Власть";"МФЦ"
"218";"Мои документы, центр государственных услуг";"рп. Монино";"Новинское шоссе, 6";"141171";="88005505030,,,52240, +74962516575, +74962531644";"";"http://mfcsch.ru";"";"";"38.199949";"55.845552";"Город / Власть";"МФЦ"
"219";"Мои документы, центр государственных услуг";"д. Колонтаево";"деревня Колонтаево, 1";"142440";="122, 88005505030,,,3, 88005505030,,,доб., 88005505030,,,52201";"";"";"https://vk.com/club114323613";"";"38.2579";"55.792635";"Город / Власть";"МФЦ"
"220";"Мои документы, центр государственных услуг";"дп. Кокошкино";"Дачная, 7а";"108804";="+74957777777";"";"http://md.mos.ru";"https://vk.com/mydocs_mos";"";"37.162787";"55.598123";"Город / Власть";"МФЦ"
"221";"Мои документы, центр государственных услуг";"Подольск";"улица Заводская, 7";"142181";="88005505030";"";"http://podolskmfc.ru";"https://vk.com/mfcpodolsk";"";"37.543246";"55.378869";"Город / Власть";"МФЦ"
"222";"Мои документы, центр государственных услуг";"Голицыно";"Советская, 1Б";"143040";="+74956406200, 88005505030, 88005505030,,,52321";"";"";"";"";"36.985517";"55.628508";"Город / Власть";"МФЦ"
"223";"Мои документы, Паспортный стол";"Дзержинский";"Академика Жукова, 40";"140090";="88005505030";"";"http://мфц-дзержинский.рф";"https://vk.com/mfcdzer";"";"37.837482";"55.625136";"Город / Власть";"МФЦ"
"224";"Мои документы, центр государственных услуг";"д. Брёхово";"деревня Брёхово, ст83м";"141544";="88005505030,,,52235";"";"http://www.mfcsmr.ru";"";"";"37.194138";"55.929326";"Город / Власть";"МФЦ"
"225";"Мои документы, центр государственных услуг";"Дедовск";"Ударная, 3а";"143530";="88005505030,,,52211";"";"http://uslugi.mosreg.ru/mfc";"";"";"37.120272";"55.85751";"Город / Власть";"МФЦ"
"226";"Мои документы, центр государственных услуг";"рп. Селятино";"улица Спортивная, 2";"143345";="88005505030,,,52280, +74963477777";"";"http://www.mfc-nf.ru";"";"";"36.986289";"55.520299";"Город / Власть";"МФЦ"
"227";"Мои документы, центр государственных услуг";"Королёв";"Советская улица, 40";"141069";="88005505030,,,52258";"";"http://mfc-korolev.ru";"";"";"37.867033";"55.941488";"Город / Власть";"МФЦ"
"228";"Мои документы, центр государственных услуг";"Фрязино";"Нахимова, 23";"141191";="+74962554426, +74962554427";"";"http://uslugi.mosreg.ru/mfc";"";"";"38.031127";"55.955901";"Город / Власть";"МФЦ"
"229";"Мои документы, центр государственных услуг";"Домодедово";"Ильюшина, 2а";"142007";="88005505030";"";"http://mfcdomodedovo.ru";"";"";"37.839879";"55.418406";"Город / Власть";"МФЦ"
"230";"Мои документы, Пункт приема и выдачи документов";"дп. Удельная";"Зелёный городок, 11";"140140";="88005505030";"";"http://mfc-ramenskoye.ru";"https://vk.com/mfcramenskoye";"";"38.043699";"55.626841";"Город / Власть";"МФЦ"
"231";"Дмитровский, многофункциональный центр";"пос. совхоза "Останкино"";"Дорожная улица, 45а";"141895";="88005505030";"";"";"";"";"37.405878";"56.055693";"Город / Власть";"МФЦ"
"232";"Мои документы, центр государственных услуг";"Ногинск";"Рабочая улица, 36";"142400";="88005505030,,,52278";"";"";"";"";"38.434413";"55.856189";"Город / Власть";"МФЦ"
"233";"Мои документы, центр государственных услуг";"Киржач";"Гагарина, 8";"601010";="+74923720330, +74923721303, +74923721140";"";"http://mfc33.ru";"";"";"38.867786";"56.159136";"Город / Власть";"МФЦ"
"234";"Мои документы, центр государственных услуг";"Мытищи";"Пионерская, 4а";"141033";="88005505030";"";"http://mfcmmr.ru";"https://vk.com/mfcmgo";"";"37.745761";"55.980478";"Город / Власть";"МФЦ"
"235";"Мои документы, центр государственных услуг";"рп. Горки Ленинские";"Новое шоссе, 79";"142712";="+74986586161, 88005505030,,,52-220";"";"http://mfcvidnoe.ru";"";"";"37.777975";"55.507492";"Город / Власть";"МФЦ"
"236";"Мои документы, центр государственных услуг";"Лобня";"Молодёжная, 14Б";"141734";="+74959025303, 88005505030,,,52265";"";"http://www.mfclobnya.ru";"";"";"37.427827";"56.01803";"Город / Власть";"МФЦ"
"237";"Мои документы, Пункт приема и выдачи документов";"пос. Лесные Поляны";"Ленина, 7";"141212";="88005505030,,,52231";"";"http://мфц-пушкино.рф";"";"";"37.862211";"55.959221";"Город / Власть";"МФЦ"
"238";"Лесной";"рп. Лесной";"Гагарина, 1";"141231";="88005505030";"";"http://www.мфц-пушкино.рф";"";"";"37.928323";"56.08038";"Город / Власть";"МФЦ"
"239";"Мои документы, центр государственных услуг";"Ногинск";"Володарского, 22";"142412";="88005505030,,,52278";"";"";"";"";"38.449139";"55.858425";"Город / Власть";"МФЦ"
"240";"Мои документы, центр государственных услуг";"Подольск";"Армейский проезд, 3";"142121";="88005505030";"";"http://podolskmfc.ru";"https://vk.com/mfcpodolsk";"";"37.479077";"55.423094";"Город / Власть";"МФЦ"
"241";"Мои документы, центр государственных услуг";"Бронницы";"Кожурновская улица, 73";"140170";="88005505030,,,52243, +74964644503";"";"http://uslugi.mosreg.ru";"https://vk.com/public86681530";"";"38.267949";"55.420948";"Город / Власть";"МФЦ"
"242";"Мои документы, центр государственных услуг";"Черноголовка";"Институтский проспект, 10";"142432";="88005505030, +74965241244";"";"http://мфц-черноголовка.рф";"https://vk.com/public116112574";"";"38.379933";"56.009053";"Город / Власть";"МФЦ"
"243";"Мои документы, центр государственных услуг";"Павловский Посад";"Ленина, 5";"142500";="88005505030, +74964323383";"";"";"";"";"38.653603";"55.780337";"Город / Власть";"МФЦ"
"244";"Мои документы, центр государственных услуг";"пос. Новые дома";"посёлок Новые дома, 6";"142470";="88005505030,,,52305";"";"http://uslugi.mosreg.ru/mfc";"https://vk.com/club114680990";"";"38.466168";"55.715746";"Город / Власть";"МФЦ"
"245";"Мои документы, Район Хорошево-Мневники";"Москва";"проспект Маршала Жукова, 35 к1";"123423";="+74957777777";"";"http://md.mos.ru";"https://vk.com/mydocs_mos";"";"37.473091";"55.775043";"Город / Власть";"МФЦ"
"246";"Мои документы, центр государственных услуг";"Электроугли";"Парковая, 14";"142455";="88005505030,,,52278";"";"";"";"";"38.2149";"55.71351";"Город / Власть";"МФЦ"
"247";"Мои документы, Пункт приема и выдачи документов";"рп. Новоивановское";"Агрохимиков, 2";"143026";="+74956406200, 88005505030";"";"";"";"";"37.366377";"55.705217";"Город / Власть";"МФЦ"
"248";"Мои документы, Паспортный стол";"Дедовск";"Больничная, 2";"143530";="88005505030,,,52211";"";"http://uslugi.mosreg.ru/mfc";"";"";"37.119327";"55.859022";"Город / Власть";"МФЦ"
"249";"Мои документы, центр государственных услуг";"Подольск";"Железнодорожная, 3";"142180";="88005505030";"";"http://podolskmfc.ru";"https://vk.com/mfcpodolsk";"";"37.525103";"55.356644";"Город / Власть";"МФЦ"
"250";"Мои документы, Мещанский район";"Москва";"Слесарный переулок, 5";"129110";="+74957777777";"";"http://md.mos.ru";"https://vk.com/mydocs_mos";"";"37.637041";"55.78451";"Город / Власть";"МФЦ"
"251";"Мои документы, центр государственных услуг";"Королёв";"Тарасовская улица, 9";"141068";="88005505030,,,52258";"";"http://mfc-korolev.ru";"";"";"37.835328";"55.948391";"Город / Власть";"МФЦ"
"252";"Мои документы, центр государственных услуг";"с. Марфино";"Зелёная, ст10";"141052";="88005505030";"";"http://mfcmmr.ru";"https://vk.com/mfcmgo";"";"37.553337";"56.074832";"Город / Власть";"МФЦ"
"253";"Мои документы, центр государственных услуг";"Подольск";"улица Подольских Курсантов, 1/40";"142105";="88005505030";"";"http://uslugi.mosreg.ru/";"https://vk.com/mfcpodolsk";"";"37.546736";"55.416938";"Город / Власть";"МФЦ"
"254";"Мои документы, Отдел регистрационного учета";"Подольск";"Высотная, 6";"142117";="88005505030";"";"http://podolskmfc.ru";"https://vk.com/mfcpodolsk";"";"37.518405";"55.417993";"Город / Власть";"МФЦ"
"255";"Мои документы, центр государственных услуг";"пос. Власиха";"Маршала Жукова, 10";"143010";="88005505030,,,52202";"";"http://mfc-vlasiha.ru";"";"";"37.189211";"55.681362";"Город / Власть";"МФЦ"
"256";"МФЦ, Паспортный стол";"Подольск";"Революционный проспект, 82а";"142100";="";"";"";"";"";"37.544673";"55.436001";"Город / Власть";"МФЦ"
"257";"Мои документы, центр государственных услуг";"Куровское";"Новинское шоссе, 10";"142621";="88005505030";"";"http://www.mfcozmo.ru";"";"";"38.922913";"55.590689";"Город / Власть";"МФЦ"
"258";"Мои документы, центр государственных услуг";"Павловский Посад";"Большая Покровская, 42/1";"142502";="88005505030";"";"";"";"";"38.654565";"55.772714";"Город / Власть";"МФЦ"
"259";"Мои документы, центр государственных услуг";"рп. Некрасовский";"микрорайон Трудовая, 27/13";"141865";="88005505030, +74962270172";"";"http://mfc-dmitrov.ru";"";"";"37.513416";"56.124904";"Город / Власть";"МФЦ"
"260";"Мои документы, центр государственных услуг";"пос. Мечниково";"посёлок Мечниково, 22";"143422";="88005505030";"";"http://uslugi.mosreg.ru";"";"";"37.162672";"55.751767";"Город / Власть";"МФЦ"
"261";"Мои документы, Пункт приема и выдачи документов";"дп. Снегири";"Панфилова, 12";"143590";="88005505030,,,52211";"";"http://uslugi.mosreg.ru/mfc";"";"";"37.036242";"55.888365";"Город / Власть";"МФЦ"
"262";"Мои документы, центр государственных услуг";"Белоозёрский";"60 лет Октября, 8";"140250";="88005505030,,,52245, 88005505030,,,52246, +74964455777";"";"";"";"";"38.43848";"55.45972";"Город / Власть";"МФЦ"
"263";"Мои документы, центр государственных услуг";"с. Троицкое";"село Троицкое, 46";"142370";="88005505030,,,52299, 88005505030,,,52300, +74967277411";"";"http://uslugi.mosreg.ru/mfc";"";"";"37.634179";"55.243184";"Город / Власть";"МФЦ"
"264";"Мои документы, центр государственных услуг";"Щёлково";"Радиоцентра №5, 16";"141103";="88005505030,,,52240, +74962516575";"";"http://mfcsch.ru";"";"";"38.065959";"55.900092";"Город / Власть";"МФЦ"
"265";"Мои документы, центр государственных услуг";"Фрязино";"Центральная улица, 12";"141195";="+74962554426";"";"http://uslugi.mosreg.ru/mfc";"";"";"38.046802";"55.955704";"Город / Власть";"МФЦ"
"266";"Мои документы, центр государственных услуг";"Электрогорск";"улица Горького, 9";"142530";="+74964332752, +74964332640, 88005505030";"";"http://mfcelgorsk.ru";"";"";"38.7759";"55.884027";"Город / Власть";"МФЦ"
"267";"Мои документы, Пункт приема и выдачи документов";"Москва";"село Красная Пахра, 21";"108828";="+74957777777";"";"http://md.mos.ru";"https://vk.com/mydocs_mos";"";"37.268959";"55.428111";"Город / Власть";"МФЦ"
"268";"Мои документы, Район Печатники";"Москва";"Шоссейная улица, 86";"109383";="+74957777777";"";"http://md.mos.ru";"https://vk.com/mydocs_mos";"";"37.719623";"55.667572";"Город / Власть";"МФЦ"
"269";"Мои документы, центр государственных услуг";"Пушкино";"Красноармейское шоссе, вл105";"141211";="88005505030,,,52231, 88005505030,,,352231";"";"http://мфц-пушкино.рф";"";"";"37.885179";"56.018228";"Город / Власть";"МФЦ"
"270";"Мои документы, центр государственных услуг";"Подольск";"Красная улица, 2а";"142155";="88005505030";"";"http://podolskmfc.ru";"https://vk.com/mfcpodolsk";"";"37.520377";"55.307969";"Город / Власть";"МФЦ"
"271";"Мои документы, Пункт приема и выдачи документов";"рп. Быково";"Советская, 19";"140150";="88005505030";"";"http://mfc-ramenskoye.ru";"https://vk.com/mfcramenskoye";"";"38.068645";"55.624648";"Город / Власть";"МФЦ"
"272";"Мои документы, центр государственных услуг";"рп. Столбовая";"Парковая, 2";"142350";="88005505030,,,52299, 88005505030,,,52300";"";"http://uslugi.mosreg.ru/mfc";"";"";"37.495638";"55.249861";"Город / Власть";"МФЦ"
"273";"Мои документы, центр государственных услуг";"рп. Селятино";"Больничная улица, 10а";"143345";="88005505030,,,52280, +74963477777, +74963477767";"";"http://www.mfc-nf.ru";"";"";"36.975312";"55.512435";"Город / Власть";"МФЦ"
"274";"Мои документы, центр государственных услуг";"пос. совхоза "Крекшино"";"посёлок Крёкшино, вл37а";"108810";="+74957777777";"";"http://md.mos.ru";"https://vk.com/mydocs_mos";"";"37.106318";"55.594269";"Город / Власть";"МФЦ"
"275";"Мои документы, центр государственных услуг";"д. Кузнецово";"Центральная, ст1";"140152";="+74957777777";"";"http://md.mos.ru";"https://vk.com/mydocs_mos";"";"38.352914";"55.498753";"Город / Власть";"МФЦ"
"276";"Мои документы, центр государственных услуг";"Воскресенск";"Больничный проезд, 18а";"140200";="88005505030,,,52245, 88005505030,,,52246";"";"";"";"";"38.675468";"55.326078";"Город / Власть";"МФЦ"
"277";"Мои документы, центр государственных услуг";"Воскресенск";"Дзержинского, 2";"140202";="88005505030,,,52245, 88005505030,,,52246";"";"";"";"";"38.739548";"55.264901";"Город / Власть";"МФЦ"
"278";"Мои документы, Отдел Ликино-Дулево";"Ликино-Дулёво";"Ленина, 15";"142670";="88005505030, 88005505030,,,52227";"";"http://www.mfcozmo.ru";"";"";"38.958301";"55.702528";"Город / Власть";"МФЦ"
"279";"Мои документы, центр государственных услуг";"д. Федюково";"Строителей, 1";"142152";="88005505030, +74967555420, +74956453513";"";"http://podolskmfc.ru";"https://vk.com/mfcpodolsk";"";"37.685595";"55.512991";"Город / Власть";"МФЦ"
"280";"Мои документы, центр государственных услуг";"Подольск";"улица Багратиона, 21";"142108";="88005505030";"";"http://podolskmfc.ru";"https://vk.com/mfcpodolsk";"";"37.56089";"55.402134";"Город / Власть";"МФЦ"
"281";"Мои документы, центр государственных услуг";"Щёлково";"Беляева, 5а";"141104";="88005505030,,,52240, +74962516575";"";"http://mfcsch.ru";"";"";"38.084754";"55.880602";"Город / Власть";"МФЦ"
"282";"Мои документы, центр государственных услуг";"Апрелевка";"Сентябрьская, 5";"143360";="88005505030,,,52280, +74963477777";"";"http://www.mfc-nf.ru";"";"";"37.065522";"55.549011";"Город / Власть";"МФЦ"
"283";"Мои документы, центр государственных услуг";"д. Крюково";"деревня Крюково, 16";"142324";="88005505030,,,52299, 88005505030,,,52300";"";"http://uslugi.mosreg.ru/mfc";"";"";"37.553609";"55.101155";"Город / Власть";"МФЦ"
"284";"МФЦ, г. Красноармейск";"Красноармейск";"проспект Испытателей, 7";"141292";="88005505030";"";"http://mfc-krasnoarmeysk.ru";"https://vk.com/mfckrasn";"";"38.145848";"56.118345";"Город / Власть";"МФЦ"
"285";"Мои документы, центр государственных услуг";"с. Дубна";"село Дубна, 30";"142340";="88005505030,,,52299, 88005505030,,,52300";"";"http://uslugi.mosreg.ru/mfc";"";"";"37.346549";"55.122595";"Город / Власть";"МФЦ"
"286";"Мои документы, центр государственных услуг";"с. Новый быт";"Новая, 8а";"142322";="88005505030,,,52299, 88005505030,,,52300";"";"http://uslugi.mosreg.ru/mfc";"";"";"37.601502";"55.057855";"Город / Власть";"МФЦ"
"287";"Мои документы, центр государственных услуг";"Истра";"площадь Революции, 2";"143500";="88005505030,,,52211";"";"http://uslugi.mosreg.ru/mfc";"";"";"36.860518";"55.914695";"Город / Власть";"МФЦ"
"288";"Мои документы, центр государственных услуг";"рп. Малино";"Школьная, 14а";"142850";="+74966455652";"";"";"";"";"38.180027";"55.104692";"Город / Власть";"МФЦ"
"289";"Мои документы, центр государственных услуг";"Лобня";"Ленина, 5";"141730";="+74959025303";"";"http://www.mfclobnya.ru";"";"";"37.484073";"56.011161";"Город / Власть";"МФЦ"
"290";"Мои документы, центр государственных услуг";"с. Тарутино";"Центральная, 13";"249165";="";"";"";"";"";"36.93866";"55.121538";"Город / Власть";"МФЦ"
"291";"Мои документы, центр государственных услуг";"Москва";"Молостовых, 1г";"111555";="+74957777777";"";"http://md.mos.ru";"https://vk.com/mydocs_mos";"";"37.833072";"55.764359";"Город / Власть";"МФЦ"
"292";"Мои документы, Район Бирюлёво Западное";"Москва";"Востряковский проезд, 22Б";"117403";="+74957777777";"";"http://md.mos.ru";"https://vk.com/mydocs_mos";"";"37.656878";"55.574795";"Город / Власть";"МФЦ"
"293";"Мои документы, центр государственных услуг";"Егорьевск";"Советская, 185";"140300";="88005505030, 88005505030,,,52252";"";"http://egoryevsk-mfc.ru";"";"";"39.047076";"55.376114";"Город / Власть";"МФЦ"
"294";"Мои документы, центр государственных услуг";"Лыткарино";"Ухтомского, 29";"140081";="88005505030";"";"http://www.mfc50.ru";"https://vk.com/mfc_lytkarino";"";"37.899405";"55.574791";"Город / Власть";"МФЦ"
"295";"Мои документы, центр государственных услуг";"с. Ям";"Больничный проезд, 9";"142030";="88005505030";"";"http://mfcdomodedovo.ru";"";"";"37.757124";"55.478759";"Город / Власть";"МФЦ"
"296";"Мои документы, Пункт приема и выдачи документов";"с. Рыболово";"село Рыболово, 203";"140166";="88005505030";"";"http://mfc-ramenskoye.ru";"https://vk.com/mfcramenskoye";"";"38.370903";"55.400818";"Город / Власть";"МФЦ"
"297";"Мои документы, центр государственных услуг";"пос. Рылеево";"посёлок Рылеево, 3";"140144";="88005505030";"";"http://mfc-ramenskoye.ru";"https://vk.com/mfcramenskoye";"";"38.094152";"55.334591";"Город / Власть";"МФЦ"
"298";"Мои документы, центр государственных услуг";"пос. Звездный городок";"Звёздный городок посёлок, 46";"141160";="88005505030,,,52240, +74962516575, 88005505030,,,52209";"";"http://mfcsch.ru";"";"";"38.106241";"55.880663";"Город / Власть";"МФЦ"
"299";"Мои документы, центр государственных услуг";"Ногинск";"Самодеятельная, 35";"142411";="88005505030,,,52278";"";"";"";"";"38.434307";"55.884895";"Город / Власть";"МФЦ"
"300";"Мои документы, центр государственных услуг";"с. Шарапово";"Ленина, 7";"142323";="88005505030,,,52299, 88005505030,,,52300";"";"http://uslugi.mosreg.ru/mfc";"";"";"37.260758";"55.189451";"Город / Власть";"МФЦ"
"301";"Мои документы, Удаленное рабочее место МФЦ им. Цюрупы";"рп. им. Цюрупы";"Октябрьская, 75";"140221";="88005505030,,,52245, 88005505030,,,52246";"";"";"";"";"38.650039";"55.50035";"Город / Власть";"МФЦ"
"302";"Мои документы, Удаленное рабочее место МФЦ с. Ашитково";"с. Ашитково";"Юбилейная, 10";"140231";="88005505030,,,52245, 88005505030,,,52246";"";"";"";"";"38.579069";"55.438932";"Город / Власть";"МФЦ"
"303";"Мои документы, центр государственных услуг";"с. Конобеево";"улица Новые дома, 13а";"140220";="88005505030,,,52245, 88005505030,,,52246";"";"";"";"";"38.65893";"55.414102";"Город / Власть";"МФЦ"
"304";"Мои документы, центр государственных услуг";"с. Барановское";"Центральная, 1а";"140237";="88005505030,,,52245, 88005505030,,,52246";"";"";"";"";"38.756452";"55.404307";"Город / Власть";"МФЦ"
"305";"Мои документы, Дрезненское отделение";"Дрезна";"Зимина, 8";"142660";="88005505030";"";"http://www.mfcozmo.ru";"";"";"38.850383";"55.744673";"Город / Власть";"МФЦ"
"306";"Мои документы, центр государственных услуг";"д. Демихово";"Заводская улица, 20";"142632";="88005505030";"";"http://www.mfcozmo.ru";"";"";"38.891765";"55.792178";"Город / Власть";"МФЦ"
"307";"Мои документы, центр государственных услуг";"д. Соболево";"деревня Соболево, 7а";"142649";="88005505030";"";"http://www.mfcozmo.ru";"";"";"38.704071";"55.517366";"Город / Власть";"МФЦ"
"308";"Мои документы, центр государственных услуг";"с. Ильинский Погост";"Совхозная, 10";"142651";="88005505030";"";"http://www.mfcozmo.ru";"";"";"38.90505";"55.474162";"Город / Власть";"МФЦ"
"309";"Мои документы, Пункт приема и выдачи документов";"пос. Радужный";"Радужный посёлок, 34";"140483";="+74966230282, 88005505030";"";"http://mfc-kolomna.ru";"";"";"38.72621";"55.134459";"Город / Власть";"МФЦ"
"310";"Мои документы, центр государственных услуг";"Коломна";"бульвар 800 лет Коломны, 14";"140405";="+74966230282, 88005505030";"";"http://mfc-kolomna.ru";"";"";"38.751787";"55.058968";"Город / Власть";"МФЦ"
"311";"Мои документы, центр государственных услуг";"пос. Пески";"Советская улица, 20";"140477";="+74966230282, 88005505030, 88005552257";"";"http://mfc-kolomna.ru";"";"";"38.771879";"55.209583";"Город / Власть";"МФЦ"
"312";"Мои документы, центр государственных услуг";"Коломна";"Гражданская, 10";"140400";="+74966230282, 88005505030";"";"http://mfc-kolomna.ru";"";"";"38.76027";"55.096512";"Город / Власть";"МФЦ"
"313";"Мои документы, центр государственных услуг";"с. Большое Алексеевское";"Садовая, 1";"142853";="+74966459604";"";"";"";"";"38.204297";"55.241653";"Город / Власть";"МФЦ"
"314";"Мои документы, центр государственных услуг";"рп. Михнево";"Советская, 26";"142840";="88005505030";"";"";"";"";"37.952194";"55.119981";"Город / Власть";"МФЦ"
